No,store_name,store_address,store_address_fix1,store_address_fix2,store_address_final,address2,경도,위도
1,역삼아레나빌딩  ,서울특별시 강남구 언주로 425 (역삼동)02-568-3762,서울특별시 강남구 언주로 425 ,서울특별시 강남구 언주로 425 ,서울특별시 강남구 언주로 425 ,서울특별시강남구언주로425,127.04305965024,37.5011199712345
2,논현역사거리  ,서울특별시 강남구 강남대로 538 (논현동)02-3442-3672,서울특별시 강남구 강남대로 538 ,서울특별시 강남구 강남대로 538 ,서울특별시 강남구 강남대로 538 ,서울특별시강남구강남대로538,127.02226956024,37.5102214751899
3,국기원사거리  ,서울특별시 강남구 테헤란로 125 (역삼동)02-568-3668,서울특별시 강남구 테헤란로 125 ,서울특별시 강남구 테헤란로 125 ,서울특별시 강남구 테헤란로 125 ,서울특별시강남구테헤란로125,127.031674970809,37.4996005818437
4,대치대원빌딩R  ,서울특별시 강남구 남부순환로 2947 (대치동)02-568-3704,서울특별시 강남구 남부순환로 2947 ,서울특별시 강남구 남부순환로 2947 ,서울특별시 강남구 남부순환로 2947 ,서울특별시강남구남부순환로2947,127.062661112726,37.494573676093
5,삼성역섬유센터R  ,서울특별시 강남구 테헤란로 518 (대치동)02-568-3648,서울특별시 강남구 테헤란로 518 ,서울특별시 강남구 테헤란로 518 ,서울특별시 강남구 테헤란로 518 ,서울특별시강남구테헤란로518,127.06057896731,37.5075905955687
6,압구정R  ,서울특별시 강남구 언주로 861 (신사동)02-541-3622,서울특별시 강남구 언주로 861 ,서울특별시 강남구 언주로 861 ,서울특별시 강남구 언주로 861 ,서울특별시강남구언주로861,127.033114677375,37.5274018709229
7,수서역R  ,서울특별시 강남구 광평로 281 (수서동)02-6181-3688,서울특별시 강남구 광평로 281 ,서울특별시 강남구 광평로 281 ,서울특별시 강남구 광평로 281 ,서울특별시강남구광평로281,127.103068495839,37.4881162173978
8,양재강남빌딩R  ,서울특별시 강남구 남부순환로 2621 (도곡동)02-571-3604,서울특별시 강남구 남부순환로 2621 ,서울특별시 강남구 남부순환로 2621 ,서울특별시 강남구 남부순환로 2621 ,서울특별시강남구남부순환로2621,127.036621970097,37.4852546636644
9,선릉동신빌딩R  ,서울특별시 강남구 테헤란로 409 (삼성동)02-2051-3562,서울특별시 강남구 테헤란로 409 ,서울특별시 강남구 테헤란로 409 ,서울특별시 강남구 테헤란로 409 ,서울특별시강남구테헤란로409,127.050385922375,37.5053586010574
10,봉은사로선정릉  ,서울특별시 강남구 봉은사로 446 (삼성동)02-539-3564,서울특별시 강남구 봉은사로 446 ,서울특별시 강남구 봉은사로 446 ,서울특별시 강남구 봉은사로 446 ,서울특별시강남구봉은사로446,127.048516134287,37.5113668627847
11,강남오거리  ,서울특별시 강남구 봉은사로2길 39 (역삼동)02-557-3484,서울특별시 강남구 봉은사로2길 39 ,서울특별시 강남구 봉은사로2길 39 ,서울특별시 강남구 봉은사로2길 39 ,서울특별시강남구봉은사로2길39,127.02666566002,37.5021179405551
12,스타필드코엑스몰R  ,서울특별시 강남구 영동대로 513 (삼성동)02-6002-3467,서울특별시 강남구 영동대로 513 ,서울특별시 강남구 영동대로 513 ,서울특별시 강남구 영동대로 513 ,서울특별시강남구영동대로513,127.059158839911,37.5118240312473
13,강남구청정문  ,서울특별시 강남구 학동로 419 (청담동)02-514-3397,서울특별시 강남구 학동로 419 ,서울특별시 강남구 학동로 419 ,서울특별시 강남구 학동로 419 ,서울특별시강남구학동로419,127.045975595074,37.5183044240774
14,도곡공원  ,서울특별시 강남구 도곡로 205 (역삼동)02-565-3496,서울특별시 강남구 도곡로 205 ,서울특별시 강남구 도곡로 205 ,서울특별시 강남구 도곡로 205 ,서울특별시강남구도곡로205,127.041361884242,37.4929155264901
15,강남R  ,서울특별시 강남구 강남대로 390 (역삼동)02-561-3478,서울특별시 강남구 강남대로 390 ,서울특별시 강남구 강남대로 390 ,서울특별시 강남구 강남대로 390 ,서울특별시강남구강남대로390,127.028579111941,37.4978407132235
16,대치은마사거리  ,서울특별시 강남구 도곡로 457 (대치동)02-554-3315,서울특별시 강남구 도곡로 457 ,서울특별시 강남구 도곡로 457 ,서울특별시 강남구 도곡로 457 ,서울특별시강남구도곡로457,127.060176780798,37.4990003170579
17,청담영동대로  ,서울특별시 강남구 영동대로 720 (청담동)02-3443-3371,서울특별시 강남구 영동대로 720 ,서울특별시 강남구 영동대로 720 ,서울특별시 강남구 영동대로 720 ,서울특별시강남구영동대로720,127.056458972086,37.5221840364591
18,압구정  ,서울특별시 강남구 압구정로30길 17 (신사동)02-541-3306,서울특별시 강남구 압구정로30길 17 ,서울특별시 강남구 압구정로30길 17 ,서울특별시 강남구 압구정로30길 17 ,서울특별시강남구압구정로30길17,127.029553559899,37.5263298191376
19,신사가로수  ,서울특별시 강남구 압구정로12길 32 (신사동)02-3446-3356,서울특별시 강남구 압구정로12길 32 ,서울특별시 강남구 압구정로12길 32 ,서울특별시 강남구 압구정로12길 32 ,서울특별시강남구압구정로12길32,127.022525435007,37.5218973240186
20,청담스타R  ,서울특별시 강남구 도산대로57길 24 (청담동)02-514-3364,서울특별시 강남구 도산대로57길 24 ,서울특별시 강남구 도산대로57길 24 ,서울특별시 강남구 도산대로57길 24 ,서울특별시강남구도산대로57길24,127.041835221488,37.525254744408
21,강남우성  ,서울특별시 강남구 강남대로 328 (역삼동)02-565-3347,서울특별시 강남구 강남대로 328 ,서울특별시 강남구 강남대로 328 ,서울특별시 강남구 강남대로 328 ,서울특별시강남구강남대로328,127.030921531238,37.4924283602183
22,학동사거리  ,서울특별시 강남구 도산대로 328 (논현동) HS빌딩02-758-8971,서울특별시 강남구 도산대로 328 ,서울특별시 강남구 도산대로 328 ,서울특별시 강남구 도산대로 328 ,서울특별시강남구도산대로328,127.037969584791,37.5224060939561
23,대치사거리  ,서울특별시 강남구 삼성로 402 (대치동)02-561-3287,서울특별시 강남구 삼성로 402 ,서울특별시 강남구 삼성로 402 ,서울특별시 강남구 삼성로 402 ,서울특별시강남구삼성로402,127.058837305597,37.5033725945463
24,포스코사거리  ,서울특별시 강남구 테헤란로 505 (삼성동) 화진빌딩02-554-3235,서울특별시 강남구 테헤란로 505 ,서울특별시 강남구 테헤란로 505 ,서울특별시 강남구 테헤란로 505 ,서울특별시강남구테헤란로505,127.057437908767,37.507566520283
25,을지병원사거리  ,"서울특별시 강남구 논현로 752 (논현동,구산빌딩)02-758-8896",서울특별시 강남구 논현로 752 ,서울특별시 강남구 논현로 752 ,서울특별시 강남구 논현로 752 ,서울특별시강남구논현로752,127.028644465618,37.5191604201757
26,신사역  ,서울특별시 강남구 도산대로 108 (논현동) 렉스타워02-758-8848,서울특별시 강남구 도산대로 108 ,서울특별시 강남구 도산대로 108 ,서울특별시 강남구 도산대로 108 ,서울특별시강남구도산대로108,127.020659972179,37.5161988792539
27,도곡역  ,서울특별시 강남구 남부순환로 2909 (대치동)02-758-8809,서울특별시 강남구 남부순환로 2909 ,서울특별시 강남구 남부순환로 2909 ,서울특별시 강남구 남부순환로 2909 ,서울특별시강남구남부순환로2909,127.057410619472,37.4921824620412
28,서울세관사거리  ,서울특별시 강남구 언주로 650 (논현동) 한국건설기술인협회02-758-8798,서울특별시 강남구 언주로 650 ,서울특별시 강남구 언주로 650 ,서울특별시 강남구 언주로 650 ,서울특별시강남구언주로650,127.035753316846,37.5149194824979
29,청담사거리  ,서울특별시 강남구 도산대로 458 (청담동) 리츠타워02-758-8726,서울특별시 강남구 도산대로 458 ,서울특별시 강남구 도산대로 458 ,서울특별시 강남구 도산대로 458 ,서울특별시강남구도산대로458,127.046873296388,37.5237700894791
30,한티역  ,"서울특별시 강남구 도곡로 408, 디마크빌딩 101호 (대치동)02-758-8683","서울특별시 강남구 도곡로 408, 디마크빌딩 101호 ","서울특별시 강남구 도곡로 408, 디마크빌딩 101호 ","서울특별시 강남구 도곡로 408, 디마크빌딩 101호 ","서울특별시강남구도곡로408,디마크빌딩101호",127.055232859062,37.4966214153821
31,역삼초교사거리  ,서울특별시 강남구 역삼로 123 (역삼동)02-758-8739,서울특별시 강남구 역삼로 123 ,서울특별시 강남구 역삼로 123 ,서울특별시 강남구 역삼로 123 ,서울특별시강남구역삼로123,127.033008501789,37.4941548905821
32,코엑스몰  ,서울특별시 강남구 영동대로 513 (삼성동) 코엑스02-758-8733,서울특별시 강남구 영동대로 513 ,서울특별시 강남구 영동대로 513 ,서울특별시 강남구 영동대로 513 ,서울특별시강남구영동대로513,127.059158839911,37.5118240312473
33,가로수길  ,"서울특별시 강남구 논현로175길 94, 1~2층 (신사동)02-758-8661","서울특별시 강남구 논현로175길 94, 1~2층 ","서울특별시 강남구 논현로175길 94, 1~2층 ","서울특별시 강남구 논현로175길 94, 1~2층 ","서울특별시강남구논현로175길94,1~2층",127.021643621957,37.5231973855557
34,역삼대로  ,"서울특별시 강남구 테헤란로 211, 한국고등교육재단빌딩 1층 (역삼동)02-758-8626","서울특별시 강남구 테헤란로 211, 한국고등교육재단빌딩 1층 ","서울특별시 강남구 테헤란로 211, 한국고등교육재단빌딩 1층 ","서울특별시 강남구 테헤란로 211, 한국고등교육재단빌딩 1층 ","서울특별시강남구테헤란로211,한국고등교육재단빌딩1층",127.03924225891,37.5018882438749
35,역삼포스코  ,"서울특별시 강남구 테헤란로 134, P&S TOWER (역삼동)02-758-8631","서울특별시 강남구 테헤란로 134, P&S TOWER ","서울특별시 강남구 테헤란로 134, P&S TOWER ","서울특별시 강남구 테헤란로 134, P&S TOWER ","서울특별시강남구테헤란로134,P&STOWER",127.033803281311,37.4993746469648
36,강남대로  ,"서울특별시 강남구 강남대로 456, 한석타워 2층 1-2호 (역삼동)02-758-8624","서울특별시 강남구 강남대로 456, 한석타워 2층 1-2호 ","서울특별시 강남구 강남대로 456, 한석타워 2층 1-2호 ","서울특별시 강남구 강남대로 456, 한석타워 2층 1-2호 ","서울특별시강남구강남대로456,한석타워2층1-2호",127.025570964816,37.503137672253
37,청담  ,"서울특별시 강남구 도산대로 532, 인희빌딩 1층 (청담동)02-758-8659","서울특별시 강남구 도산대로 532, 인희빌딩 1층 ","서울특별시 강남구 도산대로 532, 인희빌딩 1층 ","서울특별시 강남구 도산대로 532, 인희빌딩 1층 ","서울특별시강남구도산대로532,인희빌딩1층",127.051592564326,37.5243457702543
38,삼성도심공항  ,서울특별시 강남구 테헤란로87길 33 (삼성동)02-758-8635,서울특별시 강남구 테헤란로87길 33 ,서울특별시 강남구 테헤란로87길 33 ,서울특별시 강남구 테헤란로87길 33 ,서울특별시강남구테헤란로87길33,127.057929480593,37.5098285170301
39,삼성교  ,"서울특별시 강남구 영동대로86길 12, ,9,10번지 동남유화빌딩 (대치동)02-758-8592","서울특별시 강남구 영동대로86길 12, ,9,10번지 동남유화빌딩 ","서울특별시 강남구 영동대로86길 12, ,9,10번지 동남유화빌딩 ","서울특별시 강남구 영동대로86길 12, ,9,10번지 동남유화빌딩 ","서울특별시강남구영동대로86길12,,9,10번지동남유화빌딩",127.065188291508,37.5078239786651
40,학동역  ,서울특별시 강남구 논현로 704 (논현동)02-758-8101,서울특별시 강남구 논현로 704 ,서울특별시 강남구 논현로 704 ,서울특별시 강남구 논현로 704 ,서울특별시강남구논현로704,127.030763676263,37.5146045710633
41,대치  ,서울특별시 강남구 도곡로 511 (대치동)02-758-8063,서울특별시 강남구 도곡로 511 ,서울특별시 강남구 도곡로 511 ,서울특별시 강남구 도곡로 511 ,서울특별시강남구도곡로511,127.062239161261,37.4996344227645
42,기술센터  ,"서울특별시 강남구 테헤란로 305, 한국기술센터 1층 (역삼동)02-6009-3410","서울특별시 강남구 테헤란로 305, 한국기술센터 1층 ","서울특별시 강남구 테헤란로 305, 한국기술센터 1층 ","서울특별시 강남구 테헤란로 305, 한국기술센터 1층 ","서울특별시강남구테헤란로305,한국기술센터1층",127.043780821797,37.5033401014297
43,SSG마켓도곡R  ,"서울특별시 강남구 언주로30길 57, 타워팰리스Ⅱ F 지하1층 (도곡동)02-2191-1219","서울특별시 강남구 언주로30길 57, 타워팰리스Ⅱ F 지하1층 ","서울특별시 강남구 언주로30길 57, 타워팰리스Ⅱ F 지하1층 ","서울특별시 강남구 언주로30길 57, 타워팰리스Ⅱ F 지하1층 ","서울특별시강남구언주로30길57,타워팰리스ⅡF지하1층",127.054004780506,37.4894735026909
44,삼성  ,"서울특별시 강남구 테헤란로 443, 애플트리타워 1층 (삼성동)02-758-8038","서울특별시 강남구 테헤란로 443, 애플트리타워 1층 ","서울특별시 강남구 테헤란로 443, 애플트리타워 1층 ","서울특별시 강남구 테헤란로 443, 애플트리타워 1층 ","서울특별시강남구테헤란로443,애플트리타워1층",127.055597987865,37.5069511954453
45,선릉세화빌딩  ,"서울특별시 강남구 테헤란로64길 18, 세화빌딩 1층 (대치동)02-758-8028","서울특별시 강남구 테헤란로64길 18, 세화빌딩 1층 ","서울특별시 강남구 테헤란로64길 18, 세화빌딩 1층 ","서울특별시 강남구 테헤란로64길 18, 세화빌딩 1층 ","서울특별시강남구테헤란로64길18,세화빌딩1층",127.051204318987,37.503783163689
46,압구정역  ,"서울특별시 강남구 압구정로 170, 관영빌딩 1층 지하1층 (신사동)02-758-8013","서울특별시 강남구 압구정로 170, 관영빌딩 1층 지하1층 ","서울특별시 강남구 압구정로 170, 관영빌딩 1층 지하1층 ","서울특별시 강남구 압구정로 170, 관영빌딩 1층 지하1층 ","서울특별시강남구압구정로170,관영빌딩1층지하1층",127.02810788608,37.5267600368203
47,압구정로  ,서울특별시 강남구 압구정로42길 32 (신사동)02-758-8231,서울특별시 강남구 압구정로42길 32 ,서울특별시 강남구 압구정로42길 32 ,서울특별시 강남구 압구정로42길 32 ,서울특별시강남구압구정로42길32,127.034734429262,37.526842663047
48,구역삼사거리  ,서울특별시 강남구 논현로 401 (역삼동)02-758-8247,서울특별시 강남구 논현로 401 ,서울특별시 강남구 논현로 401 ,서울특별시 강남구 논현로 401 ,서울특별시강남구논현로401,127.038897811079,37.4959221553065
49,큰길타워  ,"서울특별시 강남구 테헤란로 223, 큰길타워빌딩 (역삼동)02-758-8116","서울특별시 강남구 테헤란로 223, 큰길타워빌딩 ","서울특별시 강남구 테헤란로 223, 큰길타워빌딩 ","서울특별시 강남구 테헤란로 223, 큰길타워빌딩 ","서울특별시강남구테헤란로223,큰길타워빌딩",127.040673821591,37.5024020050718
50,강남구청역  ,"서울특별시 강남구 선릉로 669, 웰빙센터 1층 (논현동)02-758-8119","서울특별시 강남구 선릉로 669, 웰빙센터 1층 ","서울특별시 강남구 선릉로 669, 웰빙센터 1층 ","서울특별시 강남구 선릉로 669, 웰빙센터 1층 ","서울특별시강남구선릉로669,웰빙센터1층",127.041255124594,37.5166062357468
51,대치역  ,"서울특별시 강남구 남부순환로 2936, 원플러스 상가107호 (대치동)02-758-8120","서울특별시 강남구 남부순환로 2936, 원플러스 상가107호 ","서울특별시 강남구 남부순환로 2936, 원플러스 상가107호 ","서울특별시 강남구 남부순환로 2936, 원플러스 상가107호 ","서울특별시강남구남부순환로2936,원플러스상가107호",127.061916677444,37.4933495741106
52,포이  ,서울특별시 강남구 논현로 88 (개포동)02-758-8122,서울특별시 강남구 논현로 88 ,서울특별시 강남구 논현로 88 ,서울특별시 강남구 논현로 88 ,서울특별시강남구논현로88,127.045129262903,37.477813178762
53,아크플레이스  ,서울특별시 강남구 테헤란로 142 (역삼동)02-758-8158,서울특별시 강남구 테헤란로 142 ,서울특별시 강남구 테헤란로 142 ,서울특별시 강남구 테헤란로 142 ,서울특별시강남구테헤란로142,127.034954232615,37.4997442339069
54,학여울역  ,서울특별시 강남구 영동대로 215 (대치동)02-758-8151,서울특별시 강남구 영동대로 215 ,서울특별시 강남구 영동대로 215 ,서울특별시 강남구 영동대로 215 ,서울특별시강남구영동대로215,127.068519702327,37.4979978553003
55,선정릉역  ,서울특별시 강남구 봉은사로 407 (삼성동) 에프오빌딩02-758-8970,서울특별시 강남구 봉은사로 407 ,서울특별시 강남구 봉은사로 407 ,서울특별시 강남구 봉은사로 407 ,서울특별시강남구봉은사로407,127.044572137727,37.5107805314678
56,삼성현대힐  ,서울특별시 강남구 삼성로 605 (삼성동)02-758-8278,서울특별시 강남구 삼성로 605 ,서울특별시 강남구 삼성로 605 ,서울특별시 강남구 삼성로 605 ,서울특별시강남구삼성로605,127.052716963844,37.5134841799457
57,GS타워  ,서울특별시 강남구 논현로 508 (역삼동)02-758-8129,서울특별시 강남구 논현로 508 ,서울특별시 강남구 논현로 508 ,서울특별시 강남구 논현로 508 ,서울특별시강남구논현로508,127.037335949949,37.5019945444214
58,압구정미소  ,서울특별시 강남구 논현로 841 (신사동)02-758-8109,서울특별시 강남구 논현로 841 ,서울특별시 강남구 논현로 841 ,서울특별시 강남구 논현로 841 ,서울특별시강남구논현로841,127.027906315583,37.5240619269677
59,선릉역  ,"서울특별시 강남구 테헤란로 334, LG화재 빌딩 (역삼동)02-758-8108","서울특별시 강남구 테헤란로 334, LG화재 빌딩 ","서울특별시 강남구 테헤란로 334, LG화재 빌딩 ","서울특별시 강남구 테헤란로 334, LG화재 빌딩 ","서울특별시강남구테헤란로334,LG화재빌딩",127.048526894466,37.5039442192028
60,수서  ,서울특별시 강남구 밤고개로1길 10 (수서동) 수서현대벤쳐빌 지하2층02-758-8165,서울특별시 강남구 밤고개로1길 10 ,서울특별시 강남구 밤고개로1길 10 ,서울특별시 강남구 밤고개로1길 10 ,서울특별시강남구밤고개로1길10,127.101844501341,37.4880241257576
61,코엑스사거리  ,서울특별시 강남구 영동대로 616 (삼성동)02-758-8478,서울특별시 강남구 영동대로 616 ,서울특별시 강남구 영동대로 616 ,서울특별시 강남구 영동대로 616 ,서울특별시강남구영동대로616,127.060204506521,37.5152474098751
62,역삼럭키  ,서울특별시 강남구 도곡로 183 (역삼동)02-758-8463,서울특별시 강남구 도곡로 183 ,서울특별시 강남구 도곡로 183 ,서울특별시 강남구 도곡로 183 ,서울특별시강남구도곡로183,127.039409716733,37.4922375900393
63,차병원사거리  ,"서울특별시 강남구 봉은사로 213, 센트럴타워 (논현동)02-758-8444","서울특별시 강남구 봉은사로 213, 센트럴타워 ","서울특별시 강남구 봉은사로 213, 센트럴타워 ","서울특별시 강남구 봉은사로 213, 센트럴타워 ","서울특별시강남구봉은사로213,센트럴타워",127.035365216393,37.5080484429727
64,청담공원  ,서울특별시 강남구 학동로 506 (삼성동)02-758-8394,서울특별시 강남구 학동로 506 ,서울특별시 강남구 학동로 506 ,서울특별시 강남구 학동로 506 ,서울특별시강남구학동로506,127.051451007205,37.5186903944597
65,신압구정  ,서울특별시 강남구 언주로174길 29 (신사동)02-758-8398,서울특별시 강남구 언주로174길 29 ,서울특별시 강남구 언주로174길 29 ,서울특별시 강남구 언주로174길 29 ,서울특별시강남구언주로174길29,127.036437591438,37.5281191890887
66,아크로힐스논현  ,"서울특별시 강남구 봉은사로 304, 금강빌딩 1-2층 (역삼동)02-758-8317","서울특별시 강남구 봉은사로 304, 금강빌딩 1-2층 ","서울특별시 강남구 봉은사로 304, 금강빌딩 1-2층 ","서울특별시 강남구 봉은사로 304, 금강빌딩 1-2층 ","서울특별시강남구봉은사로304,금강빌딩1-2층",127.040395785204,37.5089999474562
67,뱅뱅사거리  ,서울특별시 강남구 강남대로 282 (도곡동)02-758-8325,서울특별시 강남구 강남대로 282 ,서울특별시 강남구 강남대로 282 ,서울특별시 강남구 강남대로 282 ,서울특별시강남구강남대로282,127.032479878004,37.4885598600927
68,강남비젼타워  ,"서울특별시 강남구 테헤란로2길 27, 1층 101호 (역삼동)02-758-8492","서울특별시 강남구 테헤란로2길 27, 1층 101호 ","서울특별시 강남구 테헤란로2길 27, 1층 101호 ","서울특별시 강남구 테헤란로2길 27, 1층 101호 ","서울특별시강남구테헤란로2길27,1층101호",127.029697657375,37.4964931328647
69,역삼역  ,"서울특별시 강남구 테헤란로 145, 우신빌딩 1층 (역삼동)02-758-8314","서울특별시 강남구 테헤란로 145, 우신빌딩 1층 ","서울특별시 강남구 테헤란로 145, 우신빌딩 1층 ","서울특별시 강남구 테헤란로 145, 우신빌딩 1층 ","서울특별시강남구테헤란로145,우신빌딩1층",127.035192184243,37.5007118778159
70,압구정로데오역  ,"서울특별시 강남구 선릉로 836, 삼원빌딩 1,2층 (청담동)02-758-8345","서울특별시 강남구 선릉로 836, 삼원빌딩 1,2층 ","서울특별시 강남구 선릉로 836, 삼원빌딩 1,2층 ","서울특별시 강남구 선릉로 836, 삼원빌딩 1,2층 ","서울특별시강남구선릉로836,삼원빌딩1,2층",127.040532932668,37.5265419580522
71,르네상스사거리  ,서울특별시 강남구 테헤란로 306 (역삼동)02-758-8321,서울특별시 강남구 테헤란로 306 ,서울특별시 강남구 테헤란로 306 ,서울특별시 강남구 테헤란로 306 ,서울특별시강남구테헤란로306,127.044101432569,37.5025943832269
72,포스코  ,"서울특별시 강남구 삼성로86길 7, 1층 (대치동)02-758-8331","서울특별시 강남구 삼성로86길 7, 1층 ","서울특별시 강남구 삼성로86길 7, 1층 ","서울특별시 강남구 삼성로86길 7, 1층 ","서울특별시강남구삼성로86길7,1층",127.057943512465,37.5057702030255
73,선릉로  ,"서울특별시 강남구 선릉로93길 22, 대흥빌딩 1층 (역삼동)02-758-8552","서울특별시 강남구 선릉로93길 22, 대흥빌딩 1층 ","서울특별시 강남구 선릉로93길 22, 대흥빌딩 1층 ","서울특별시 강남구 선릉로93길 22, 대흥빌딩 1층 ","서울특별시강남구선릉로93길22,대흥빌딩1층",127.046742876612,37.5049874700756
74,삼성역  ,서울특별시 강남구 테헤란로103길 9 (삼성동)02-758-8585,서울특별시 강남구 테헤란로103길 9 ,서울특별시 강남구 테헤란로103길 9 ,서울특별시 강남구 테헤란로103길 9 ,서울특별시강남구테헤란로103길9,127.063893970477,37.5100489877505
75,논현힐탑  ,서울특별시 강남구 논현로 648 (논현동)02-758-8426,서울특별시 강남구 논현로 648 ,서울특별시 강남구 논현로 648 ,서울특별시 강남구 논현로 648 ,서울특별시강남구논현로648,127.03227611983,37.5115944496956
76,도산가로수길  ,"서울특별시 강남구 도산대로 134, 2층 (논현동)02-758-8429","서울특별시 강남구 도산대로 134, 2층 ","서울특별시 강남구 도산대로 134, 2층 ","서울특별시 강남구 도산대로 134, 2층 ","서울특별시강남구도산대로134,2층",127.02338535206,37.5173613004389
77,미아뉴타운  ,서울특별시 강북구 삼양로 161 (미아동)02-980-3341,서울특별시 강북구 삼양로 161 ,서울특별시 강북구 삼양로 161 ,서울특별시 강북구 삼양로 161 ,서울특별시강북구삼양로161,127.021120823398,37.6183865957428
78,강북구청사거리  ,서울특별시 강북구 도봉로 365 (수유동)02-758-8944,서울특별시 강북구 도봉로 365 ,서울특별시 강북구 도봉로 365 ,서울특별시 강북구 도봉로 365 ,서울특별시강북구도봉로365,127.02738255187,37.6400100870725
79,미아사거리역  ,서울특별시 강북구 도봉로 32 (미아동)02-758-8859,서울특별시 강북구 도봉로 32 ,서울특별시 강북구 도봉로 32 ,서울특별시 강북구 도봉로 32 ,서울특별시강북구도봉로32,127.030709256903,37.6118474902426
80,수유역  ,서울특별시 강북구 도봉로 342 (번동)02-758-8104,서울특별시 강북구 도봉로 342 ,서울특별시 강북구 도봉로 342 ,서울특별시 강북구 도봉로 342 ,서울특별시강북구도봉로342,127.026129166892,37.6380356370288
81,미아역  ,서울특별시 강북구 도봉로 196 (미아동)02-758-8500,서울특별시 강북구 도봉로 196 ,서울특별시 강북구 도봉로 196 ,서울특별시 강북구 도봉로 196 ,서울특별시강북구도봉로196,127.026575087381,37.6261454368442
82,발산역사거리  ,서울특별시 강서구 공항대로 248 (마곡동)02-2661-3792,서울특별시 강서구 공항대로 248 ,서울특별시 강서구 공항대로 248 ,서울특별시 강서구 공항대로 248 ,서울특별시강서구공항대로248,126.834894457372,37.5584057247095
83,우장산역  ,서울특별시 강서구 강서로 267 (내발산동)02-2664-2624,서울특별시 강서구 강서로 267 ,서울특별시 강서구 강서로 267 ,서울특별시 강서구 강서로 267 ,서울특별시강서구강서로267,126.835941344029,37.5495998210793
84,마곡사이언스타워R  ,서울특별시 강서구 마곡동로 62 (마곡동)02-2659-3585,서울특별시 강서구 마곡동로 62 ,서울특별시 강서구 마곡동로 62 ,서울특별시 강서구 마곡동로 62 ,서울특별시강서구마곡동로62,126.833888911525,37.5605519190895
85,방화DT  ,서울특별시 강서구 방화대로 375 (방화동)02-2664-3480,서울특별시 강서구 방화대로 375 ,서울특별시 강서구 방화대로 375 ,서울특별시 강서구 방화대로 375 ,서울특별시강서구방화대로375,126.816386166303,37.57445535439
86,마곡나루역  ,서울특별시 강서구 마곡중앙로 161-17 (마곡동)02-3662-3504,서울특별시 강서구 마곡중앙로 161-17 ,서울특별시 강서구 마곡중앙로 161-17 ,서울특별시 강서구 마곡중앙로 161-17 ,서울특별시강서구마곡중앙로161-17,126.825961385586,37.5680590784862
87,마곡GMG  ,"서울특별시 강서구 마곡중앙6로 16 (마곡동) 117,118,119,120호02-2659-3404",서울특별시 강서구 마곡중앙6로 16 ,서울특별시 강서구 마곡중앙6로 16 ,서울특별시 강서구 마곡중앙6로 16 ,서울특별시강서구마곡중앙6로16,126.829006044192,37.5604015059742
88,가양역  ,서울특별시 강서구 양천로 476 (등촌동)02-3661-3418,서울특별시 강서구 양천로 476 ,서울특별시 강서구 양천로 476 ,서울특별시 강서구 양천로 476 ,서울특별시강서구양천로476,126.853272363791,37.5616005116621
89,화곡DT  ,서울특별시 강서구 등촌로 57 (화곡동)02-2648-3257,서울특별시 강서구 등촌로 57 ,서울특별시 강서구 등촌로 57 ,서울특별시 강서구 등촌로 57 ,서울특별시강서구등촌로57,126.86314126774,37.535009326018
90,양천향교역  ,서울특별시 강서구 강서로 463 (마곡동)02-2658-3312,서울특별시 강서구 강서로 463 ,서울특별시 강서구 강서로 463 ,서울특별시 강서구 강서로 463 ,서울특별시강서구강서로463,126.840445563649,37.566945530617
91,화곡동  ,서울특별시 강서구 화곡로 142(화곡동)02-758-8881,서울특별시 강서구 화곡로 142,서울특별시 강서구 화곡로 142,서울특별시 강서구 화곡로 142,서울특별시강서구화곡로142,126.837582138676,37.5405673844633
92,등촌  ,서울특별시 강서구 공항대로 329 (등촌동)02-758-8883,서울특별시 강서구 공항대로 329 ,서울특별시 강서구 공항대로 329 ,서울특별시 강서구 공항대로 329 ,서울특별시강서구공항대로329,126.844322097364,37.5582601629244
93,염창역  ,서울특별시 강서구 공항대로 627 (염창동)02-758-8694,서울특별시 강서구 공항대로 627 ,서울특별시 강서구 공항대로 627 ,서울특별시 강서구 공항대로 627 ,서울특별시강서구공항대로627,126.874537713044,37.547285644172
94,발산역  ,서울특별시 강서구 강서로 388 (등촌동) 그랜드마트02-758-8720,서울특별시 강서구 강서로 388 ,서울특별시 강서구 강서로 388 ,서울특별시 강서구 강서로 388 ,서울특별시강서구강서로388,126.839307804719,37.5601869497655
95,가양이마트  ,"서울특별시 강서구 양천로 559, 가양이마트 1층 (가양동)02-758-8070","서울특별시 강서구 양천로 559, 가양이마트 1층 ","서울특별시 강서구 양천로 559, 가양이마트 1층 ","서울특별시 강서구 양천로 559, 가양이마트 1층 ","서울특별시강서구양천로559,가양이마트1층",126.862810412239,37.557675198664
96,까치산역  ,서울특별시 강서구 강서로13길 3 (화곡동)02-758-8538,서울특별시 강서구 강서로13길 3 ,서울특별시 강서구 강서로13길 3 ,서울특별시 강서구 강서로13길 3 ,서울특별시강서구강서로13길3,126.846047029561,37.5322940634386
97,낙성대역  ,서울특별시 관악구 남부순환로 1908 (봉천동)02-882-3794,서울특별시 관악구 남부순환로 1908 ,서울특별시 관악구 남부순환로 1908 ,서울특별시 관악구 남부순환로 1908 ,서울특별시관악구남부순환로1908,126.961205372775,37.4777036501245
98,관악서울대입구R  ,서울특별시 관악구 관악로 158 (봉천동)02-883-3725,서울특별시 관악구 관악로 158 ,서울특별시 관악구 관악로 158 ,서울특별시 관악구 관악로 158 ,서울특별시관악구관악로158,126.95280801272,37.4793100392707
99,신림DT  ,서울특별시 관악구 남부순환로 1419 (신림동)02-851-3283,서울특별시 관악구 남부순환로 1419 ,서울특별시 관악구 남부순환로 1419 ,서울특별시 관악구 남부순환로 1419 ,서울특별시관악구남부순환로1419,126.908417133516,37.4809731902884
100,서울대역  ,서울특별시 관악구 남부순환로 1817 (봉천동)02-876-3252,서울특별시 관악구 남부순환로 1817 ,서울특별시 관악구 남부순환로 1817 ,서울특별시 관악구 남부순환로 1817 ,서울특별시관악구남부순환로1817,126.952146291059,37.4816437456495
101,낙성대DT  ,서울특별시 관악구 남부순환로 1948 (봉천동)02-872-3249,서울특별시 관악구 남부순환로 1948 ,서울특별시 관악구 남부순환로 1948 ,서울특별시 관악구 남부순환로 1948 ,서울특별시관악구남부순환로1948,126.965131559117,37.4761880953034
102,사당  ,서울특별시 관악구 남부순환로 2082-2502-758-8721,서울특별시 관악구 남부순환로 2082-2502-758-8721,서울특별시 관악구 남부순환로 2082-25,서울특별시 관악구 남부순환로 2082-25,서울특별시관악구남부순환로2082-25,126.98101280485,37.4760561134088
103,보라매대교  ,"서울특별시 관악구 보라매로3길 23, 대교빌딩 1층 (봉천동)02-758-8629","서울특별시 관악구 보라매로3길 23, 대교빌딩 1층 ","서울특별시 관악구 보라매로3길 23, 대교빌딩 1층 ","서울특별시 관악구 보라매로3길 23, 대교빌딩 1층 ","서울특별시관악구보라매로3길23,대교빌딩1층",126.92553617174,37.4910424478345
104,신림사거리  ,서울특별시 관악구 남부순환로 1619 (신림동)02-758-8645,서울특별시 관악구 남부순환로 1619 ,서울특별시 관악구 남부순환로 1619 ,서울특별시 관악구 남부순환로 1619 ,서울특별시관악구남부순환로1619,126.930496327778,37.4846375352104
105,신림  ,서울특별시 관악구 신림로 355-1 (신림동)02-758-8290,서울특별시 관악구 신림로 355-1 ,서울특별시 관악구 신림로 355-1 ,서울특별시 관악구 신림로 355-1 ,서울특별시관악구신림로355-1,126.929172417699,37.4861003583037
106,신림역포도몰  ,"서울특별시 관악구 신림로 330, PODO MALL 1층 101 일부 (신림동)02-758-8286","서울특별시 관악구 신림로 330, PODO MALL 1층 101 일부 ","서울특별시 관악구 신림로 330, PODO MALL 1층 101 일부 ","서울특별시 관악구 신림로 330, PODO MALL 1층 101 일부 ","서울특별시관악구신림로330,PODOMALL1층101일부",126.930235069651,37.4838520946225
107,서울대입구역  ,서울특별시 관악구 남부순환로 1812 (봉천동)02-758-8460,서울특별시 관악구 남부순환로 1812 ,서울특별시 관악구 남부순환로 1812 ,서울특별시 관악구 남부순환로 1812 ,서울특별시관악구남부순환로1812,126.951329453196,37.481111488579
108,건국대  ,서울특별시 광진구 능동로 117 (화양동)02-3409-3722,서울특별시 광진구 능동로 117 ,서울특별시 광진구 능동로 117 ,서울특별시 광진구 능동로 117 ,서울특별시광진구능동로117,127.071137381674,37.5416015214584
109,어린이대공원역  ,서울시 광진구 능동로243 02-464-3656,서울시 광진구 능동로243 02-464-3656,서울시 광진구 능동로243 ,서울시 광진구 능동로243 ,서울특별시광진구능동로243,127.076355968687,37.5519420239077
110,아차산역  ,서울시 광진구 천호대로 676 02-455-3637,서울시 광진구 천호대로 676 02-455-3637,서울시 광진구 천호대로 676 ,서울시 광진구 천호대로 676 ,서울특별시광진구천호대로676,127.089930466602,37.5505916795485
111,올림픽대교북단  ,서울특별시 광진구 광나루로 608 (구의동)02-453-3514,서울특별시 광진구 광나루로 608 ,서울특별시 광진구 광나루로 608 ,서울특별시 광진구 광나루로 608 ,서울특별시광진구광나루로608,127.09526771466,37.5411560651631
112,구의DT  ,서울특별시 광진구 광나루로 519 (구의동)02-758-8901,서울특별시 광진구 광나루로 519 ,서울특별시 광진구 광나루로 519 ,서울특별시 광진구 광나루로 519 ,서울특별시광진구광나루로519,127.087212149684,37.5453047843894
113,자양사거리  ,서울특별시 광진구 아차산로 35502-758-8865,서울특별시 광진구 아차산로 35502-758-8865,서울특별시 광진구 아차산로 355,서울특별시 광진구 아차산로 355,서울특별시광진구아차산로355,127.082565572417,37.5373678902493
114,군자역  ,서울특별시 광진구 천호대로 548 (군자동) 중앙빌딩02-758-8748,서울특별시 광진구 천호대로 548 ,서울특별시 광진구 천호대로 548 ,서울특별시 광진구 천호대로 548 ,서울특별시광진구천호대로548,127.078936803721,37.5569188770158
115,광나루  ,"서울특별시 광진구 아차산로 607, 1,2층 (광장동)02-758-8648","서울특별시 광진구 아차산로 607, 1,2층 ","서울특별시 광진구 아차산로 607, 1,2층 ","서울특별시 광진구 아차산로 607, 1,2층 ","서울특별시광진구아차산로607,1,2층",127.106048041065,37.5473803196115
116,건대스타시티  ,서울특별시 광진구 아차산로 262 (자양동)02-758-8197,서울특별시 광진구 아차산로 262 ,서울특별시 광진구 아차산로 262 ,서울특별시 광진구 아차산로 262 ,서울특별시광진구아차산로262,127.07296344325,37.5370022195487
117,자양  ,서울특별시 광진구 능동로 50 (자양동)02-758-8159,서울특별시 광진구 능동로 50 ,서울특별시 광진구 능동로 50 ,서울특별시 광진구 능동로 50 ,서울특별시광진구능동로50,127.069177822058,37.5356714101892
118,강변역  ,서울특별시 광진구 구의강변로 64 (구의동) 구의아크로리버02-758-8759,서울특별시 광진구 구의강변로 64 ,서울특별시 광진구 구의강변로 64 ,서울특별시 광진구 구의강변로 64 ,서울특별시광진구구의강변로64,127.093106826406,37.5359951426874
119,건대입구  ,서울특별시 광진구 능동로 107 (화양동)02-758-8305,서울특별시 광진구 능동로 107 ,서울특별시 광진구 능동로 107 ,서울특별시 광진구 능동로 107 ,서울특별시광진구능동로107,127.070735061404,37.5406965425784
120,구의역  ,서울특별시 광진구 아차산로 373 (구의동)02-758-8476,서울특별시 광진구 아차산로 373 ,서울특별시 광진구 아차산로 373 ,서울특별시 광진구 아차산로 373 ,서울특별시광진구아차산로373,127.084032668474,37.5370113534672
121,광장  ,서울특별시 광진구 아차산로 537-17 (광장동)02-758-8508,서울특별시 광진구 아차산로 537-17 ,서울특별시 광진구 아차산로 537-17 ,서울특별시 광진구 아차산로 537-17 ,서울특별시광진구아차산로537-17,127.10025112811,37.5431548485108
122,건국클래식  ,서울특별시 광진구 능동로 90 (자양동) 더 클래식50002-758-8519,서울특별시 광진구 능동로 90 ,서울특별시 광진구 능동로 90 ,서울특별시 광진구 능동로 90 ,서울특별시광진구능동로90,127.070921760396,37.5383627141271
123,가산에스케이  ,서울특별시 금천구 가산디지털1로 171 (가산동)02-6244-8046,서울특별시 금천구 가산디지털1로 171 ,서울특별시 금천구 가산디지털1로 171 ,서울특별시 금천구 가산디지털1로 171 ,서울특별시금천구가산디지털1로171,126.880678564086,37.4807622713986
124,독산사거리  ,서울특별시 금천구 시흥대로 426 (독산동)02-838-3444,서울특별시 금천구 시흥대로 426 ,서울특별시 금천구 시흥대로 426 ,서울특별시 금천구 시흥대로 426 ,서울특별시금천구시흥대로426,126.898772537122,37.4715695884887
125,금천시흥  ,서울특별시 금천구 시흥대로 164 (시흥동)02-805-3360,서울특별시 금천구 시흥대로 164 ,서울특별시 금천구 시흥대로 164 ,서울특별시 금천구 시흥대로 164 ,서울특별시금천구시흥대로164,126.903231212011,37.4488835101438
126,가산디지털단지역  ,서울특별시 금천구 벚꽃로 298 (가산동)02-2083-8302,서울특별시 금천구 벚꽃로 298 ,서울특별시 금천구 벚꽃로 298 ,서울특별시 금천구 벚꽃로 298 ,서울특별시금천구벚꽃로298,126.883871728124,37.4814403813235
127,금천독산  ,서울특별시 금천구 두산로 70 (독산동)02-758-8765,서울특별시 금천구 두산로 70 ,서울특별시 금천구 두산로 70 ,서울특별시 금천구 두산로 70 ,서울특별시금천구두산로70,126.895620636953,37.4689631859425
128,가산디지털  ,서울특별시 금천구 가산디지털1로 168 (가산동)02-758-8147,서울특별시 금천구 가산디지털1로 168 ,서울특별시 금천구 가산디지털1로 168 ,서울특별시 금천구 가산디지털1로 168 ,서울특별시금천구가산디지털1로168,126.88263616345,37.4799658030568
129,W-Mall  ,서울특별시 금천구 디지털로 188 (가산동)02-758-8196,서울특별시 금천구 디지털로 188 ,서울특별시 금천구 디지털로 188 ,서울특별시 금천구 디지털로 188 ,서울특별시금천구디지털로188,126.887675934895,37.4773274397222
130,마리오아울렛  ,서울특별시 금천구 벚꽃로 266 마리오아울렛3관02-758-8542,서울특별시 금천구 벚꽃로 266 마리오아울렛3관02-758-8542,서울특별시 금천구 벚꽃로 266 마리오아울렛3관,서울특별시 금천구 벚꽃로 266 마리오아울렛3관,서울특별시금천구벚꽃로266마리오아울렛3관,126.885081041662,37.4784462472483
131,가산브이타워  ,서울특별시 금천구 가산디지털1로 128 (가산동)02-758-8371,서울특별시 금천구 가산디지털1로 128 ,서울특별시 금천구 가산디지털1로 128 ,서울특별시 금천구 가산디지털1로 128 ,서울특별시금천구가산디지털1로128,126.883694893163,37.4772368859153
132,가산그레이트  ,"서울특별시 금천구 디지털로9길 32, 갑을그레이트밸리 1층 (가산동)02-758-8346","서울특별시 금천구 디지털로9길 32, 갑을그레이트밸리 1층 ","서울특별시 금천구 디지털로9길 32, 갑을그레이트밸리 1층 ","서울특별시 금천구 디지털로9길 32, 갑을그레이트밸리 1층 ","서울특별시금천구디지털로9길32,갑을그레이트밸리1층",126.887512477996,37.4795134635663
133,월계트레이더스  ,서울시 노원구 마들로3길 15 02-971-3748,서울시 노원구 마들로3길 15 02-971-3748,서울시 노원구 마들로3길 15 ,서울시 노원구 마들로3길 15 ,서울특별시노원구마들로3길15,127.061979900056,37.6265097678221
134,상계초교사거리  ,서울 노원구 노원로 449 02-931-3660,서울 노원구 노원로 449 02-931-3660,서울 노원구 노원로 449 ,서울 노원구 노원로 449 ,서울특별시노원구노원로449,127.066441082553,37.6566680812852
135,공릉DT  ,서울특별시 노원구 동일로 1015 (공릉동)02-971-3457,서울특별시 노원구 동일로 1015 ,서울특별시 노원구 동일로 1015 ,서울특별시 노원구 동일로 1015 ,서울특별시노원구동일로1015,127.074217918484,37.6207488436689
136,노원마들역  ,"서울특별시 노원구 노원로 569 (상계동, 임광아파트)02-934-3438",서울특별시 노원구 노원로 569 ,서울특별시 노원구 노원로 569 ,서울특별시 노원구 노원로 569 ,서울특별시노원구노원로569,127.05615017994,37.6606531901672
137,공릉역  ,서울특별시 노원구 동일로 1081 (공릉동)02-972-3380,서울특별시 노원구 동일로 1081 ,서울특별시 노원구 동일로 1081 ,서울특별시 노원구 동일로 1081 ,서울특별시노원구동일로1081,127.072272715114,37.6263807801464
138,서울여대  ,서울특별시 노원구 화랑로 621 (공릉동)02-758-8647,서울특별시 노원구 화랑로 621 ,서울특별시 노원구 화랑로 621 ,서울특별시 노원구 화랑로 621 ,서울특별시노원구화랑로621,127.090835588704,37.6290627531015
139,은행사거리  ,"서울특별시 노원구 중계로 217, 중흥빌딩 103,203호 (중계동)02-758-8238","서울특별시 노원구 중계로 217, 중흥빌딩 103,203호 ","서울특별시 노원구 중계로 217, 중흥빌딩 103,203호 ","서울특별시 노원구 중계로 217, 중흥빌딩 103,203호 ","서울특별시노원구중계로217,중흥빌딩103,203호",127.075992260248,37.6505027735693
140,노원KT  ,"서울특별시 노원구 노해로 502, (주)KT 노원사옥 (상계동)02-758-8523","서울특별시 노원구 노해로 502, ","서울특별시 노원구 노해로 502, ","서울특별시 노원구 노해로 502, ","서울특별시노원구노해로502,",127.063692066077,37.6544496718412
141,광운대  ,서울특별시 노원구 석계로 104 (월계동)02-758-8485,서울특별시 노원구 석계로 104 ,서울특별시 노원구 석계로 104 ,서울특별시 노원구 석계로 104 ,서울특별시노원구석계로104,127.060728773651,37.6231881827588
142,중계역  ,"서울특별시 노원구 동일로 1339, 대한빌딩 (상계동)02-758-8567","서울특별시 노원구 동일로 1339, 대한빌딩 ","서울특별시 노원구 동일로 1339, 대한빌딩 ","서울특별시 노원구 동일로 1339, 대한빌딩 ","서울특별시노원구동일로1339,대한빌딩",127.062181510649,37.6481617578845
143,노원역  ,"서울특별시 노원구 동일로 1413, 1층 (상계동)02-758-8584","서울특별시 노원구 동일로 1413, 1층 ","서울특별시 노원구 동일로 1413, 1층 ","서울특별시 노원구 동일로 1413, 1층 ","서울특별시노원구동일로1413,1층",127.060019183682,37.6547684427172
144,월계이마트  ,서울특별시 노원구 마들로3길 15 (월계동)02-758-8573,서울특별시 노원구 마들로3길 15 ,서울특별시 노원구 마들로3길 15 ,서울특별시 노원구 마들로3길 15 ,서울특별시노원구마들로3길15,127.061979900056,37.6265097678221
145,창동이마트  ,서울특별시 도봉구 노해로65길 4 (창동)02-903-3791,서울특별시 도봉구 노해로65길 4 ,서울특별시 도봉구 노해로65길 4 ,서울특별시 도봉구 노해로65길 4 ,서울특별시도봉구노해로65길4,127.047217903559,37.6519461403286
146,쌍문역  ,서울특별시 도봉구 도봉로 480 (창동)02-758-8691,서울특별시 도봉구 도봉로 480 ,서울특별시 도봉구 도봉로 480 ,서울특별시 도봉구 도봉로 480 ,서울특별시도봉구도봉로480,127.034885054047,37.6483502301174
147,노량진동  ,"서울특별시 동작구 노량진로 190 (노량진동, 고려교육타워-어바니엘한강) 101호~105호02-3280-3816",서울특별시 동작구 노량진로 190 ,서울특별시 동작구 노량진로 190 ,서울특별시 동작구 노량진로 190 ,서울특별시동작구노량진로190,126.94686166338,37.512955939436
148,남성역  ,서울특별시 동작구 사당로 219 (사당동)02-533-3783,서울특별시 동작구 사당로 219 ,서울특별시 동작구 사당로 219 ,서울특별시 동작구 사당로 219 ,서울특별시동작구사당로219,126.97266155414,37.4841617494438
150,이수자이  ,서울특별시 동작구 사당로 300 (사당동 이수자이)02-588-3657,서울특별시 동작구 사당로 300 ,서울특별시 동작구 사당로 300 ,서울특별시 동작구 사당로 300 ,서울특별시동작구사당로300,126.980282223634,37.4843802965719
151,노량진역  ,서울특별시 동작구 노량진로 134 (노량진동)02-816-3581,서울특별시 동작구 노량진로 134 ,서울특별시 동작구 노량진로 134 ,서울특별시 동작구 노량진로 134 ,서울특별시동작구노량진로134,126.940880593416,37.5133660163984
152,신대방삼거리역  ,서울특별시 동작구 상도로 102 (상도동)02-813-3501,서울특별시 동작구 상도로 102 ,서울특별시 동작구 상도로 102 ,서울특별시 동작구 상도로 102 ,서울특별시동작구상도로102,126.931775892998,37.4999419651854
153,중앙대  ,서울특별시 동작구 흑석로 75-1 (흑석동)02-812-3250,서울특별시 동작구 흑석로 75-1 ,서울특별시 동작구 흑석로 75-1 ,서울특별시 동작구 흑석로 75-1 ,서울특별시동작구흑석로75-1,126.958122727583,37.5069611308632
154,숭실대입구역  ,서울특별시 동작구 상도로 354 (상도동)02-815-3205,서울특별시 동작구 상도로 354 ,서울특별시 동작구 상도로 354 ,서울특별시 동작구 상도로 354 ,서울특별시동작구상도로354,126.952726523332,37.4968771239229
155,숭실대  ,서울특별시 동작구 사당로 4 (상도동)02-758-8153,서울특별시 동작구 사당로 4 ,서울특별시 동작구 사당로 4 ,서울특별시 동작구 사당로 4 ,서울특별시동작구사당로4,126.954854136804,37.4954064831715
156,사당역  ,"서울특별시 동작구 동작대로 21, 양지빌딩 1-3층 (사당동)02-758-8311","서울특별시 동작구 동작대로 21, 양지빌딩 1-3층 ","서울특별시 동작구 동작대로 21, 양지빌딩 1-3층 ","서울특별시 동작구 동작대로 21, 양지빌딩 1-3층 ","서울특별시동작구동작대로21,양지빌딩1-3층",126.981362191154,37.4784823071876
157,서강대프라자  ,서울특별시 마포구 백범로 35 (신수동)02-702-3804,서울특별시 마포구 백범로 35 ,서울특별시 마포구 백범로 35 ,서울특별시 마포구 백범로 35 ,서울특별시마포구백범로35,126.938868206069,37.5517484134578
158,상암YTN  ,서울특별시 마포구 상암산로 76 (상암동)02-304-3752,서울특별시 마포구 상암산로 76 ,서울특별시 마포구 상암산로 76 ,서울특별시 마포구 상암산로 76 ,서울특별시마포구상암산로76,126.892314183096,37.5791948255035
159,마포용강동  ,서울특별시 마포구 토정로 295 (용강동)02-3275-3655,서울특별시 마포구 토정로 295 ,서울특별시 마포구 토정로 295 ,서울특별시 마포구 토정로 295 ,서울특별시마포구토정로295,126.942215109343,37.5411981244691
160,홍대입구역사거리R  ,서울특별시 마포구 양화로 125 (서교동)02-325-3531,서울특별시 마포구 양화로 125 ,서울특별시 마포구 양화로 125 ,서울특별시 마포구 양화로 125 ,서울특별시마포구양화로125,126.920310098882,37.554750377625
161,마포경찰서후문  ,서울특별시 마포구 마포대로 173-14 (아현동)02-392-3555,서울특별시 마포구 마포대로 173-14 ,서울특별시 마포구 마포대로 173-14 ,서울특별시 마포구 마포대로 173-14 ,서울특별시마포구마포대로173-14,126.953626580826,37.550999565544
162,공덕  ,서울특별시 마포구 마포대로 130 (공덕동)02-716-3426,서울특별시 마포구 마포대로 130 ,서울특별시 마포구 마포대로 130 ,서울특별시 마포구 마포대로 130 ,서울특별시마포구마포대로130,126.952989009742,37.5459715951927
163,합정폴리스R  ,"서울특별시 마포구 양화로 45 (서교동, 메세나폴리스)02-324-3587",서울특별시 마포구 양화로 45 ,서울특별시 마포구 양화로 45 ,서울특별시 마포구 양화로 45 ,서울특별시마포구양화로45,126.914185890073,37.5507643215376
164,홍대공항철도역  ,서울특별시 마포구 양화로 178 (동교동)02-332-3516,서울특별시 마포구 양화로 178 ,서울특별시 마포구 양화로 178 ,서울특별시 마포구 양화로 178 ,서울특별시마포구양화로178,126.925215227354,37.557508772964
165,마포염리  ,서울특별시 마포구 독막로 311 (염리동)02-3272-3331,서울특별시 마포구 독막로 311 ,서울특별시 마포구 독막로 311 ,서울특별시 마포구 독막로 311 ,서울특별시마포구독막로311,126.947903530886,37.5438387703135
166,서강광흥창역  ,서울특별시 마포구 서강로 69 (창전동)02-325-3351,서울특별시 마포구 서강로 69 ,서울특별시 마포구 서강로 69 ,서울특별시 마포구 서강로 69 ,서울특별시마포구서강로69,126.931689848266,37.5494246581936
167,합정  ,"서울특별시 마포구 월드컵로1길 14 (합정동) 마포한강푸르지오 110, 111, 112-202-323-3214",서울특별시 마포구 월드컵로1길 14 ,서울특별시 마포구 월드컵로1길 14 ,서울특별시 마포구 월드컵로1길 14 ,서울특별시마포구월드컵로1길14,126.912061729353,37.550049631548
168,서강대흥역  ,서울특별시 마포구 백범로 89-5 (대흥동)02-3272-3335,서울특별시 마포구 백범로 89-5 ,서울특별시 마포구 백범로 89-5 ,서울특별시 마포구 백범로 89-5 ,서울특별시마포구백범로89-5,126.941616392917,37.5484331248143
169,서교동사거리  ,서울특별시 마포구 양화로 105 (서교동)02-326-5218,서울특별시 마포구 양화로 105 ,서울특별시 마포구 양화로 105 ,서울특별시 마포구 양화로 105 ,서울특별시마포구양화로105,126.918576958184,37.5534134513749
170,상암사보이시티  ,서울특별시 마포구 월드컵북로54길 17 (상암동)02-373-3225,서울특별시 마포구 월드컵북로54길 17 ,서울특별시 마포구 월드컵북로54길 17 ,서울특별시 마포구 월드컵북로54길 17 ,서울특별시마포구월드컵북로54길17,126.888548098224,37.581323994449
171,신촌오거리  ,서울특별시 마포구 신촌로16길 10 (노고산동)02-334-3275,서울특별시 마포구 신촌로16길 10 ,서울특별시 마포구 신촌로16길 10 ,서울특별시 마포구 신촌로16길 10 ,서울특별시마포구신촌로16길10,126.934676823325,37.5551782357252
172,상암디지털큐브  ,서울특별시 마포구 상암산로 3402-758-8890,서울특별시 마포구 상암산로 3402-758-8890,서울특별시 마포구 상암산로 34,서울특별시 마포구 상암산로 34,서울특별시마포구상암산로34,126.88923967993,37.5762101191037
173,상수역  ,서울특별시 마포구 독막로 88 (상수동)02-758-8925,서울특별시 마포구 독막로 88 ,서울특별시 마포구 독막로 88 ,서울특별시 마포구 독막로 88 ,서울특별시마포구독막로88,126.923228096441,37.5475166666765
174,공덕오거리  ,서울특별시 마포구 마포대로 86 (도화동) 창강빌딩02-758-8933,서울특별시 마포구 마포대로 86 ,서울특별시 마포구 마포대로 86 ,서울특별시 마포구 마포대로 86 ,서울특별시마포구마포대로86,126.95057816471,37.5426423557694
175,서교  ,서울특별시 마포구 양화로 78 (서교동) 서교빌딩 1층02-758-8856,서울특별시 마포구 양화로 78 ,서울특별시 마포구 양화로 78 ,서울특별시 마포구 양화로 78 ,서울특별시마포구양화로78,126.916922122934,37.551387356142
176,서강대  ,서울특별시 마포구 백범로 23 (신수동)02-758-8783,서울특별시 마포구 백범로 23 ,서울특별시 마포구 백범로 23 ,서울특별시 마포구 백범로 23 ,서울특별시마포구백범로23,126.937572976858,37.5524576503233
177,상암MBC  ,서울특별시 마포구 성암로 267 (상암동)02-758-8787,서울특별시 마포구 성암로 267 ,서울특별시 마포구 성암로 267 ,서울특별시 마포구 성암로 267 ,서울특별시마포구성암로267,126.89098898492,37.5811236262001
178,홍대역  ,"서울특별시 마포구 양화로 165, 상진빌딩 1층 (동교동)02-758-8672","서울특별시 마포구 양화로 165, 상진빌딩 1층 ","서울특별시 마포구 양화로 165, 상진빌딩 1층 ","서울특별시 마포구 양화로 165, 상진빌딩 1층 ","서울특별시마포구양화로165,상진빌딩1층",126.923619713434,37.5572092289881
179,동교  ,"서울특별시 마포구 월드컵북로 22, 영준빌딩 1층 (동교동)02-758-8637","서울특별시 마포구 월드컵북로 22, 영준빌딩 1층 ","서울특별시 마포구 월드컵북로 22, 영준빌딩 1층 ","서울특별시 마포구 월드컵북로 22, 영준빌딩 1층 ","서울특별시마포구월드컵북로22,영준빌딩1층",126.920022461762,37.5568963321034
180,애오개역  ,"서울특별시 마포구 마포대로 201, 마포트라팰리스II (아현동)02-758-8272","서울특별시 마포구 마포대로 201, 마포트라팰리스II ","서울특별시 마포구 마포대로 201, 마포트라팰리스II ","서울특별시 마포구 마포대로 201, 마포트라팰리스II ","서울특별시마포구마포대로201,마포트라팰리스II",126.955496452521,37.5521969013793
181,홍대갤러리  ,"서울특별시 마포구 와우산로 101, 정명빌딩 (서교동)02-758-8293","서울특별시 마포구 와우산로 101, 정명빌딩 ","서울특별시 마포구 와우산로 101, 정명빌딩 ","서울특별시 마포구 와우산로 101, 정명빌딩 ","서울특별시마포구와우산로101,정명빌딩",126.924880075317,37.553330572022
182,상암DMC  ,"서울특별시 마포구 월드컵북로 375, DMC이안오피스텔1단지 102호,202호 (상암동)02-6393-6219","서울특별시 마포구 월드컵북로 375, DMC이안오피스텔1단지 102호,202호 ","서울특별시 마포구 월드컵북로 375, DMC이안오피스텔1단지 102호,202호 ","서울특별시 마포구 월드컵북로 375, DMC이안오피스텔1단지 102호,202호 ","서울특별시마포구월드컵북로375,DMC이안오피스텔1단지102호,202호",126.890723443442,37.5775743059547
183,마포일진빌딩  ,"서울특별시 마포구 마포대로 45, 일진빌딩 1층 (도화동)02-758-8265","서울특별시 마포구 마포대로 45, 일진빌딩 1층 ","서울특별시 마포구 마포대로 45, 일진빌딩 1층 ","서울특별시 마포구 마포대로 45, 일진빌딩 1층 ","서울특별시마포구마포대로45,일진빌딩1층",126.946373338791,37.540472998206
184,마포아크로  ,서울특별시 마포구 마포대로 68 (도화동) 마포아크로타워02-758-8217,서울특별시 마포구 마포대로 68 ,서울특별시 마포구 마포대로 68 ,서울특별시 마포구 마포대로 68 ,서울특별시마포구마포대로68,126.948962001038,37.5413323750395
185,홍대삼거리  ,서울특별시 마포구 와우산로 64 (상수동)02-758-8402,서울특별시 마포구 와우산로 64 ,서울특별시 마포구 와우산로 64 ,서울특별시 마포구 와우산로 64 ,서울특별시마포구와우산로64,126.923270242506,37.5502186611668
186,망원역  ,서울특별시 마포구 월드컵로 74 (서교동)02-758-8365,서울특별시 마포구 월드컵로 74 ,서울특별시 마포구 월드컵로 74 ,서울특별시 마포구 월드컵로 74 ,서울특별시마포구월드컵로74,126.910726038337,37.5557788698564
187,마포이마트  ,서울특별시 마포구 백범로 212 (신공덕동) 마포이마트02-758-8467,서울특별시 마포구 백범로 212 ,서울특별시 마포구 백범로 212 ,서울특별시 마포구 백범로 212 ,서울특별시마포구백범로212,126.953365807537,37.5424288743649
188,합정메세나몰  ,"서울특별시 마포구 양화로 45 (서교동, 메세나폴리스)02-758-8534",서울특별시 마포구 양화로 45 ,서울특별시 마포구 양화로 45 ,서울특별시 마포구 양화로 45 ,서울특별시마포구양화로45,126.914185890073,37.5507643215376
189,가재울뉴타운  ,서울 서대문구 가재울미래로 2 02-304-3724,서울 서대문구 가재울미래로 2 02-304-3724,서울 서대문구 가재울미래로 2 ,서울 서대문구 가재울미래로 2 ,서울특별시서대문구가재울미래로2,126.917856338075,37.5743684212988
190,신촌역  ,서울특별시 서대문구 신촌로 73 (창천동)02-336-3529,서울특별시 서대문구 신촌로 73 ,서울특별시 서대문구 신촌로 73 ,서울특별시 서대문구 신촌로 73 ,서울특별시서대문구신촌로73,126.934521107374,37.5563075985955
191,연희동  ,서울특별시 서대문구 연희로 97 (연희동)02-326-3372,서울특별시 서대문구 연희로 97 ,서울특별시 서대문구 연희로 97 ,서울특별시 서대문구 연희로 97 ,서울특별시서대문구연희로97,126.930517476572,37.566804806576
192,아현역  ,"서울특별시 서대문구 신촌로35길 10 (북아현동, E편한세상신촌 4단지)02-312-3430",서울특별시 서대문구 신촌로35길 10 ,서울특별시 서대문구 신촌로35길 10 ,서울특별시 서대문구 신촌로35길 10 ,서울특별시서대문구신촌로35길10,126.955899340975,37.5579989310458
193,홍제역  ,서울특별시 서대문구 통일로 451 (홍제동)02-396-3383,서울특별시 서대문구 통일로 451 ,서울특별시 서대문구 통일로 451 ,서울특별시 서대문구 통일로 451 ,서울특별시서대문구통일로451,126.943849584374,37.5886696181485
194,연세백양로  ,서울특별시 서대문구 연세로 50 (신촌동) 연세대학교02-758-8977,서울특별시 서대문구 연세로 50 ,서울특별시 서대문구 연세로 50 ,서울특별시 서대문구 연세로 50 ,서울특별시서대문구연세로50,126.939361573938,37.5662680232676
195,명지대  ,서울특별시 서대문구 거북골로 53 (남가좌동)02-758-8908,서울특별시 서대문구 거북골로 53 ,서울특별시 서대문구 거북골로 53 ,서울특별시 서대문구 거북골로 53 ,서울특별시서대문구거북골로53,126.922333209949,37.5782920577297
196,연희DT  ,서울특별시 서대문구 연희로 144 (연희동)02-758-8893,서울특별시 서대문구 연희로 144 ,서울특별시 서대문구 연희로 144 ,서울특별시 서대문구 연희로 144 ,서울특별시서대문구연희로144,126.933891010053,37.5701908894527
197,경기대  ,서울특별시 서대문구 충정로 53 (충정로2가)02-758-8163,서울특별시 서대문구 충정로 53 ,서울특별시 서대문구 충정로 53 ,서울특별시 서대문구 충정로 53 ,서울특별시서대문구충정로53,126.964632112336,37.5637511400517
198,신촌대로  ,서울특별시 서대문구 신촌로 121 (창천동)02-758-8090,서울특별시 서대문구 신촌로 121 ,서울특별시 서대문구 신촌로 121 ,서울특별시 서대문구 신촌로 121 ,서울특별시서대문구신촌로121,126.939295450397,37.5562052615683
199,신촌  ,서울특별시 서대문구 연세로 10-1 (창천동)02-758-8035,서울특별시 서대문구 연세로 10-1 ,서울특별시 서대문구 연세로 10-1 ,서울특별시 서대문구 연세로 10-1 ,서울특별시서대문구연세로10-1,126.937125141094,37.5564947227537
200,이대R  ,서울특별시 서대문구 이화여대길 34 (대현동)02-758-8001,서울특별시 서대문구 이화여대길 34 ,서울특별시 서대문구 이화여대길 34 ,서울특별시 서대문구 이화여대길 34 ,서울특별시서대문구이화여대길34,126.945945235795,37.5584539676537
201,연세종합관  ,"서울특별시 서대문구 연세로 50, 연세세브란스 종합관 (신촌동)02-758-8244","서울특별시 서대문구 연세로 50, 연세세브란스 종합관 ","서울특별시 서대문구 연세로 50, 연세세브란스 종합관 ","서울특별시 서대문구 연세로 50, 연세세브란스 종합관 ","서울특별시서대문구연세로50,연세세브란스종합관",126.939361573938,37.5662680232676
202,이대ECC  ,서울특별시 서대문구 이화여대길 52 (대현동) 이화여자대학교 B415호02-758-8240,서울특별시 서대문구 이화여대길 52 ,서울특별시 서대문구 이화여대길 52 ,서울특별시 서대문구 이화여대길 52 ,서울특별시서대문구이화여대길52,126.946746271663,37.5650590042173
203,연대  ,서울특별시 서대문구 연세로 35 (창천동)02-758-8439,서울특별시 서대문구 연세로 35 ,서울특별시 서대문구 연세로 35 ,서울특별시 서대문구 연세로 35 ,서울특별시서대문구연세로35,126.936714868386,37.5587314405421
204,신촌아트레온  ,서울특별시 서대문구 신촌로 129 (창천동)02-758-8401,서울특별시 서대문구 신촌로 129 ,서울특별시 서대문구 신촌로 129 ,서울특별시 서대문구 신촌로 129 ,서울특별시서대문구신촌로129,126.940328707254,37.5565651143866
205,충정로역  ,서울특별시 서대문구 충정로 2302-758-8479,서울특별시 서대문구 충정로 2302-758-8479,서울특별시 서대문구 충정로 23,서울특별시 서대문구 충정로 23,서울특별시서대문구충정로23,126.962944606789,37.5611430899908
206,연대동문  ,서울특별시 서대문구 성산로 565 (대신동)02-758-8450,서울특별시 서대문구 성산로 565 ,서울특별시 서대문구 성산로 565 ,서울특별시 서대문구 성산로 565 ,서울특별시서대문구성산로565,126.946341316378,37.5664181378059
207,신촌명물거리  ,"서울특별시 서대문구 명물길 24, 1-5층 (창천동)02-365-8330","서울특별시 서대문구 명물길 24, 1-5층 ","서울특별시 서대문구 명물길 24, 1-5층 ","서울특별시 서대문구 명물길 24, 1-5층 ","서울특별시서대문구명물길24,1-5층",126.938131531994,37.5577929488147
208,충정타워  ,"서울특별시 서대문구 서소문로 21, 충정타워빌딩 1층 (충정로3가)02-758-8333","서울특별시 서대문구 서소문로 21, 충정타워빌딩 1층 ","서울특별시 서대문구 서소문로 21, 충정타워빌딩 1층 ","서울특별시 서대문구 서소문로 21, 충정타워빌딩 1층 ","서울특별시서대문구서소문로21,충정타워빌딩1층",126.964086505477,37.5598954062581
209,방배로  ,서울특별시 서초구 방배로 52 (방배동)02-3487-3814,서울특별시 서초구 방배로 52 ,서울특별시 서초구 방배로 52 ,서울특별시 서초구 방배로 52 ,서울특별시서초구방배로52,126.999434974679,37.4793444401182
210,강남교보타워R  ,서울특별시 서초구 강남대로 465 (서초동)02-534-3604,서울특별시 서초구 강남대로 465 ,서울특별시 서초구 강남대로 465 ,서울특별시 서초구 강남대로 465 ,서울특별시서초구강남대로465,127.024109678789,37.5037560748536
211,방배다이치빌딩  ,서울특별시 서초구 방배로 114 (방배동)02-3473-3576,서울특별시 서초구 방배로 114 ,서울특별시 서초구 방배로 114 ,서울특별시 서초구 방배로 114 ,서울특별시서초구방배로114,126.996090359367,37.4843383611388
212,센트럴F1  ,서울특별시 서초구 신반포로 176 (반포동)02-537-3598,서울특별시 서초구 신반포로 176 ,서울특별시 서초구 신반포로 176 ,서울특별시 서초구 신반포로 176 ,서울특별시서초구신반포로176,127.003191832607,37.5044676527796
213,서초역이화빌딩  ,서울특별시 서초구 반포대로21길 3 (서초동)02-522-3533,서울특별시 서초구 반포대로21길 3 ,서울특별시 서초구 반포대로21길 3 ,서울특별시 서초구 반포대로21길 3 ,서울특별시서초구반포대로21길3,127.009031796745,37.4883002450271
214,서초구청  ,서울특별시 서초구 남부순환로 2557 (서초동)02-3471-3545,서울특별시 서초구 남부순환로 2557 ,서울특별시 서초구 남부순환로 2557 ,서울특별시 서초구 남부순환로 2557 ,서울특별시서초구남부순환로2557,127.030070144082,37.4844389225911
215,서초우성사거리  ,서울특별시 서초구 강남대로 343 (서초동)02-3486-3536,서울특별시 서초구 강남대로 343 ,서울특별시 서초구 강남대로 343 ,서울특별시 서초구 강남대로 343 ,서울특별시서초구강남대로343,127.029241178318,37.4935202535918
216,이수역사거리  ,"서울특별시 서초구 서초대로 3-4 (방배동, 방배디오슈페리움1)02-3476-3472",서울특별시 서초구 서초대로 3-4 ,서울특별시 서초구 서초대로 3-4 ,서울특별시 서초구 서초대로 3-4 ,서울특별시서초구서초대로3-4,126.983083051763,37.4860308045704
217,강남대로신사  ,서울특별시 서초구 강남대로 595 (잠원동)02-516-3402,서울특별시 서초구 강남대로 595 ,서울특별시 서초구 강남대로 595 ,서울특별시 서초구 강남대로 595 ,서울특별시서초구강남대로595,127.019537021949,37.5148523777484
218,서울고속터미널  ,서울특별시 서초구 신반포로 194 (반포동)02-592-3432,서울특별시 서초구 신반포로 194 ,서울특별시 서초구 신반포로 194 ,서울특별시 서초구 신반포로 194 ,서울특별시서초구신반포로194,127.006834745284,37.5064365193208
219,강남대로논현R  ,서울특별시 서초구 강남대로85길 5 (반포동)02-515-3419,서울특별시 서초구 강남대로85길 5 ,서울특별시 서초구 강남대로85길 5 ,서울특별시 서초구 강남대로85길 5 ,서울특별시서초구강남대로85길5,127.02259537302,37.5073665719334
220,방배  ,서울특별시 서초구 방배로 21102-536-3204,서울특별시 서초구 방배로 21102-536-3204,서울특별시 서초구 방배로 211,서울특별시 서초구 방배로 211,서울특별시서초구방배로211,126.990640905726,37.4919934913097
221,방배카페거리  ,서울특별시 서초구 방배중앙로 162 (방배동)02-536-3206,서울특별시 서초구 방배중앙로 162 ,서울특별시 서초구 방배중앙로 162 ,서울특별시 서초구 방배중앙로 162 ,서울특별시서초구방배중앙로162,126.986567910862,37.4935295315128
222,서초법원  ,서울특별시 서초구 서초대로 274 (서초동)02-523-3294,서울특별시 서초구 서초대로 274 ,서울특별시 서초구 서초대로 274 ,서울특별시 서초구 서초대로 274 ,서울특별시서초구서초대로274,127.011903823232,37.4928189432293
223,청계산입구역  ,서울특별시 서초구 청계산로 203 (신원동)02-577-3253,서울특별시 서초구 청계산로 203 ,서울특별시 서초구 청계산로 203 ,서울특별시 서초구 청계산로 203 ,서울특별시서초구청계산로203,127.056296461369,37.4473253183422
224,사당로데오  ,서울특별시 서초구 방배천로 5-4(방배동)02-758-8953,서울특별시 서초구 방배천로 5-4,서울특별시 서초구 방배천로 5-4,서울특별시 서초구 방배천로 5-4,서울특별시서초구방배천로5-4,126.982186157716,37.4772904468485
225,파미에파크R  ,서울특별시 서초구 사평대로 205 (반포동) CENTRALCITY02-758-8790,서울특별시 서초구 사평대로 205 ,서울특별시 서초구 사평대로 205 ,서울특별시 서초구 사평대로 205 ,서울특별시서초구사평대로205,127.007845284533,37.5044927209524
226,교대역  ,서울특별시 서초구 서초중앙로 138 (서초동) 우림빌딩02-758-8757,서울특별시 서초구 서초중앙로 138 ,서울특별시 서초구 서초중앙로 138 ,서울특별시 서초구 서초중앙로 138 ,서울특별시서초구서초중앙로138,127.013964057683,37.4942391460367
227,양재역  ,서울특별시 서초구 강남대로 202 (양재동) 모산빌딩02-758-8816,서울특별시 서초구 강남대로 202 ,서울특별시 서초구 강남대로 202 ,서울특별시 서초구 강남대로 202 ,서울특별시서초구강남대로202,127.036860629226,37.4823239213903
228,논현역  ,서울특별시 서초구 강남대로 557 (잠원동) 1~2층02-758-8819,서울특별시 서초구 강남대로 557 ,서울특별시 서초구 강남대로 557 ,서울특별시 서초구 강남대로 557 ,서울특별시서초구강남대로557,127.020639570861,37.511538784297
229,이수역  ,서울특별시 서초구 동작대로 112 (방배동)02-758-8794,서울특별시 서초구 동작대로 112 ,서울특별시 서초구 동작대로 112 ,서울특별시 서초구 동작대로 112 ,서울특별시서초구동작대로112,126.982711405141,37.4865136584702
230,내방역  ,서울특별시 서초구 방배로 184 (방배동) 대풍빌딩02-758-8740,서울특별시 서초구 방배로 184 ,서울특별시 서초구 방배로 184 ,서울특별시 서초구 방배로 184 ,서울특별시서초구방배로184,126.992475520785,37.490019479381
231,서초파라곤  ,서울특별시 서초구 서초대로74길 29 (서초동) 서초파라곤02-758-8716,서울특별시 서초구 서초대로74길 29 ,서울특별시 서초구 서초대로74길 29 ,서울특별시 서초구 서초대로74길 29 ,서울특별시서초구서초대로74길29,127.027426471909,37.4949427448147
232,서울아트센터  ,서울특별시 서초구 남부순환로 2395 (서초동) 호경빌딩02-758-8738,서울특별시 서초구 남부순환로 2395 ,서울특별시 서초구 남부순환로 2395 ,서울특별시 서초구 남부순환로 2395 ,서울특별시서초구남부순환로2395,127.012368804101,37.480673953778
233,서초중앙로  ,서울특별시 서초구 서초중앙로 22502-758-8715,서울특별시 서초구 서초중앙로 22502-758-8715,서울특별시 서초구 서초중앙로 225,서울특별시 서초구 서초중앙로 225,서울특별시서초구서초중앙로225,127.011552813573,37.5016632447973
234,센트럴시티  ,서울특별시 서초구 신반포로 176 (반포동)02-758-8656,서울특별시 서초구 신반포로 176 ,서울특별시 서초구 신반포로 176 ,서울특별시 서초구 신반포로 176 ,서울특별시서초구신반포로176,127.003191832607,37.5044676527796
235,강남삼성타운  ,서울특별시 서초구 서초대로78길 24 (서초동)02-758-8213,서울특별시 서초구 서초대로78길 24 ,서울특별시 서초구 서초대로78길 24 ,서울특별시 서초구 서초대로78길 24 ,서울특별시서초구서초대로78길24,127.027753562017,37.4955468819677
236,방배역  ,서울특별시 서초구 방배로 84 (방배동)02-758-8086,서울특별시 서초구 방배로 84 ,서울특별시 서초구 방배로 84 ,서울특별시 서초구 방배로 84 ,서울특별시서초구방배로84,126.997645058111,37.4819935134679
237,반포역  ,서울특별시 서초구 신반포로 257 (잠원동) 신반포11차상가02-758-8141,서울특별시 서초구 신반포로 257 ,서울특별시 서초구 신반포로 257 ,서울특별시 서초구 신반포로 257 ,서울특별시서초구신반포로257,127.011936725483,37.5086209667497
238,남부터미널  ,"서울특별시 서초구 서초중앙로 26, 래미안서초유니빌 1층 101호 (서초동)02-758-8085","서울특별시 서초구 서초중앙로 26, 래미안서초유니빌 1층 101호 ","서울특별시 서초구 서초중앙로 26, 래미안서초유니빌 1층 101호 ","서울특별시 서초구 서초중앙로 26, 래미안서초유니빌 1층 101호 ","서울특별시서초구서초중앙로26,래미안서초유니빌1층101호",127.016991572627,37.4846870528977
239,뉴코아강남  ,서울특별시 서초구 잠원로 69 (잠원동) 킴스클럽02-758-8032,서울특별시 서초구 잠원로 69 ,서울특별시 서초구 잠원로 69 ,서울특별시 서초구 잠원로 69 ,서울특별시서초구잠원로69,127.006970827918,37.5102600114736
240,강남2  ,"서울특별시 서초구 서초대로77길 27, 유빌딩 1,2층 (서초동)02-758-8081","서울특별시 서초구 서초대로77길 27, 유빌딩 1,2층 ","서울특별시 서초구 서초대로77길 27, 유빌딩 1,2층 ","서울특별시 서초구 서초대로77길 27, 유빌딩 1,2층 ","서울특별시서초구서초대로77길27,유빌딩1,2층",127.025500961901,37.5001223474248
241,교대  ,서울특별시 서초구 서초중앙로 118 (서초동)02-758-8073,서울특별시 서초구 서초중앙로 118 ,서울특별시 서초구 서초중앙로 118 ,서울특별시 서초구 서초중앙로 118 ,서울특별시서초구서초중앙로118,127.014229855508,37.4923913712568
242,하이브랜드  ,"서울특별시 서초구 매헌로 16, 리빙관 101호 (양재동)02-2155-4117","서울특별시 서초구 매헌로 16, 리빙관 101호 ","서울특별시 서초구 매헌로 16, 리빙관 101호 ","서울특별시 서초구 매헌로 16, 리빙관 101호 ","서울특별시서초구매헌로16,리빙관101호",127.036959218354,37.4634813123445
243,신논현역  ,서울특별시 서초구 강남대로 483 (반포동) 청호빌딩02-758-8756,서울특별시 서초구 강남대로 483 ,서울특별시 서초구 강남대로 483 ,서울특별시 서초구 강남대로 483 ,서울특별시서초구강남대로483,127.023649273496,37.5053259167974
244,영동2교  ,"서울특별시 서초구 논현로 139, 대흥빌딩 (양재동)02-758-8291","서울특별시 서초구 논현로 139, 대흥빌딩 ","서울특별시 서초구 논현로 139, 대흥빌딩 ","서울특별시 서초구 논현로 139, 대흥빌딩 ","서울특별시서초구논현로139,대흥빌딩",127.042594360251,37.4819924736207
245,남부터미널2  ,서울특별시 서초구 효령로 274 (서초동)02-758-8229,서울특별시 서초구 효령로 274 ,서울특별시 서초구 효령로 274 ,서울특별시 서초구 효령로 274 ,서울특별시서초구효령로274,127.014214467878,37.4843951634713
246,서래마을입구  ,서울특별시 서초구 서래로 48 (반포동)02-3482-8257,서울특별시 서초구 서래로 48 ,서울특별시 서초구 서래로 48 ,서울특별시 서초구 서래로 48 ,서울특별시서초구서래로48,126.99855816329,37.4992674320873
247,몬테소리  ,서울특별시 서초구 강남대로 399 (서초동)02-758-8225,서울특별시 서초구 강남대로 399 ,서울특별시 서초구 강남대로 399 ,서울특별시 서초구 강남대로 399 ,서울특별시서초구강남대로399,127.02684409173,37.4982698541405
248,서초역  ,서울특별시 서초구 반포대로 118 (서초동)02-758-8289,서울특별시 서초구 반포대로 118 ,서울특별시 서초구 반포대로 118 ,서울특별시 서초구 반포대로 118 ,서울특별시서초구반포대로118,127.008614011604,37.4906680022102
249,예술의전당  ,"서울특별시 서초구 남부순환로323길 1, 1층 (서초동)02-758-8313","서울특별시 서초구 남부순환로323길 1, 1층 ","서울특별시 서초구 남부순환로323길 1, 1층 ","서울특별시 서초구 남부순환로323길 1, 1층 ","서울특별시서초구남부순환로323길1,1층",127.013501110653,37.4811338089335
250,교대법원  ,서울특별시 서초구 서초중앙로 164 (서초동)02-758-8400,서울특별시 서초구 서초중앙로 164 ,서울특별시 서초구 서초중앙로 164 ,서울특별시 서초구 서초중앙로 164 ,서울특별시서초구서초중앙로164,127.013380385328,37.4963684570153
251,강남GT타워  ,"서울특별시 서초구 서초대로 411, GT타워 (서초동)02-758-8477","서울특별시 서초구 서초대로 411, GT타워 ","서울특별시 서초구 서초대로 411, GT타워 ","서울특별시 서초구 서초대로 411, GT타워 ","서울특별시서초구서초대로411,GT타워",127.025922379853,37.4981084209935
252,서초동  ,"서울특별시 서초구 남부순환로339길 64, 현우빌딩 1층 (서초동)02-758-8459","서울특별시 서초구 남부순환로339길 64, 현우빌딩 1층 ","서울특별시 서초구 남부순환로339길 64, 현우빌딩 1층 ","서울특별시 서초구 남부순환로339길 64, 현우빌딩 1층 ","서울특별시서초구남부순환로339길64,현우빌딩1층",127.021581645502,37.4859225658345
253,서울교대  ,"서울특별시 서초구 서초중앙로 64, 1층 (서초동)02-758-8332","서울특별시 서초구 서초중앙로 64, 1층 ","서울특별시 서초구 서초중앙로 64, 1층 ","서울특별시 서초구 서초중앙로 64, 1층 ","서울특별시서초구서초중앙로64,1층",127.015169673528,37.4874388348549
254,강남에비뉴  ,"서울특별시 서초구 서초대로77길 62, 강남역아이파크 B102~B105 (서초동)02-758-8587","서울특별시 서초구 서초대로77길 62, 강남역아이파크 B102~B105 ","서울특별시 서초구 서초대로77길 62, 강남역아이파크 B102~B105 ","서울특별시 서초구 서초대로77길 62, 강남역아이파크 B102~B105 ","서울특별시서초구서초대로77길62,강남역아이파크B102~B105",127.023902644516,37.5027298556898
255,길음역  ,서울특별시 성북구 정릉로 376 (돈암동)02-921-3848,서울특별시 성북구 정릉로 376 ,서울특별시 성북구 정릉로 376 ,서울특별시 성북구 정릉로 376 ,서울특별시성북구정릉로376,127.025319709318,37.6020193297922
256,미아이마트  ,서울 성북구 도봉로 17 02-982-3806,서울 성북구 도봉로 17 02-982-3806,서울 성북구 도봉로 17 ,서울 성북구 도봉로 17 ,서울특별시성북구도봉로17,127.029366141313,37.6109104243767
257,종암DT  ,서울특별시 성북구 종암로 17 (종암동)02-925-3469,서울특별시 성북구 종암로 17 ,서울특별시 성북구 종암로 17 ,서울특별시 성북구 종암로 17 ,서울특별시성북구종암로17,127.036086141789,37.5919006576541
258,미아  ,서울특별시 성북구 동소문로 314 (하월곡동)02-913-3364,서울특별시 성북구 동소문로 314 ,서울특별시 성북구 동소문로 314 ,서울특별시 성북구 동소문로 314 ,서울특별시성북구동소문로314,127.029315356033,37.6076191513837
259,성신여대정문  ,서울특별시 성북구 보문로34길 62 (동선동2가)02-922-3281,서울특별시 성북구 보문로34길 62 ,서울특별시 성북구 보문로34길 62 ,서울특별시 성북구 보문로34길 62 ,서울특별시성북구보문로34길62,127.018855701852,37.5908356908259
260,종암  ,서울특별시 성북구 종암로 122 (종암동)02-758-8980,서울특별시 성북구 종암로 122 ,서울특별시 성북구 종암로 122 ,서울특별시 성북구 종암로 122 ,서울특별시성북구종암로122,127.033955945638,37.6012031513576
261,삼선교  ,서울특별시 성북구 동소문로 10 (동소문동2가)02-758-8714,서울특별시 성북구 동소문로 10 ,서울특별시 성북구 동소문로 10 ,서울특별시 성북구 동소문로 10 ,서울특별시성북구동소문로10,127.00733290736,37.5887308383583
262,월곡역  ,"서울특별시 성북구 화랑로 76, 101-1호 (하월곡동)02-758-8608","서울특별시 성북구 화랑로 76, 101-1호 ","서울특별시 성북구 화랑로 76, 101-1호 ","서울특별시 성북구 화랑로 76, 101-1호 ","서울특별시성북구화랑로76,101-1호",127.040463985575,37.6018280646414
263,고대  ,서울특별시 성북구 고려대로 24길 51 (안암동5가)02-758-8067,서울특별시 성북구 고려대로 24길 51 ,서울특별시 성북구 고려대로 24길 51 ,서울특별시 성북구 고려대로 24길 51 ,서울특별시성북구고려대로24길51,127.029709485983,37.5839300627894
264,현대미아  ,"서울특별시 성북구 동소문로 315, 현대백화점미아점 지하 1층 (길음동)02-758-8203","서울특별시 성북구 동소문로 315, 현대백화점미아점 지하 1층 ","서울특별시 성북구 동소문로 315, 현대백화점미아점 지하 1층 ","서울특별시 성북구 동소문로 315, 현대백화점미아점 지하 1층 ","서울특별시성북구동소문로315,현대백화점미아점지하1층",127.028743946205,37.6083999571679
265,성신여대  ,서울특별시 성북구 동소문로24길 12 (동선동1가)02-758-8499,서울특별시 성북구 동소문로24길 12 ,서울특별시 성북구 동소문로24길 12 ,서울특별시 성북구 동소문로24길 12 ,서울특별시성북구동소문로24길12,127.018419499381,37.5931605520992
266,안암역  ,서울특별시 성북구 고려대로 102-2 (안암동5가)02-758-8541,서울특별시 성북구 고려대로 102-2 ,서울특별시 성북구 고려대로 1,서울특별시 성북구 고려대로 1,서울특별시성북구고려대로1,127.019631330356,37.585591850496
267,한성대입구역  ,서울특별시 성북구 성북로 11 (성북동1가)02-758-8455,서울특별시 성북구 성북로 11 ,서울특별시 성북구 성북로 11 ,서울특별시 성북구 성북로 11 ,서울특별시성북구성북로11,127.004928789282,37.5890531950003
268,송파나루역DT  ,서울특별시 송파구 오금로 142 (송파동)02-421-3622,서울특별시 송파구 오금로 142 ,서울특별시 송파구 오금로 142 ,서울특별시 송파구 오금로 142 ,서울특별시송파구오금로142,127.110269085576,37.5108296171484
269,잠실시그마타워  ,서울특별시 송파구 올림픽로 289 (신천동)02-417-3614,서울특별시 송파구 올림픽로 289 ,서울특별시 송파구 올림픽로 289 ,서울특별시 송파구 올림픽로 289 ,서울특별시송파구올림픽로289,127.102522259673,37.5146143882553
270,문정법원로R  ,서울특별시 송파구 송파대로 201 (문정동)02-881-5012,서울특별시 송파구 송파대로 201 ,서울특별시 송파구 송파대로 201 ,서울특별시 송파구 송파대로 201 ,서울특별시송파구송파대로201,127.120632674364,37.4878290610403
271,송파개롱역  ,서울특별시 송파구 오금로 420 (가락동)02-401-3574,서울특별시 송파구 오금로 420 ,서울특별시 송파구 오금로 420 ,서울특별시 송파구 오금로 420 ,서울특별시송파구오금로420,127.13627391428,37.4969843610466
272,문정하비오  ,"서울특별시 송파구 송파대로 111 (문정동, 파크하비오) 204동 104호~107호02-401-3431",서울특별시 송파구 송파대로 111 ,서울특별시 송파구 송파대로 111 ,서울특별시 송파구 송파대로 111 ,서울특별시송파구송파대로111,127.124433810827,37.4805368219399
273,문정역  ,"서울특별시 송파구 송파대로 167 (문정동)테라타워 B동 137호~139호,204호02-2054-3836",서울특별시 송파구 송파대로 167 ,서울특별시 송파구 송파대로 167 ,서울특별시 송파구 송파대로 167 ,서울특별시송파구송파대로167,127.120933588702,37.4846606521855
275,송파위례  ,"서울특별시 송파구 위례광장로 230 (장지동, 위례2차아이파크)02-3012-3457",서울특별시 송파구 위례광장로 230 ,서울특별시 송파구 위례광장로 230 ,서울특별시 송파구 위례광장로 230 ,서울특별시송파구위례광장로230,127.143757721533,37.4786159157493
276,송파방이DT  ,서울특별시 송파구 오금로 241 (방이동)02-414-3269,서울특별시 송파구 오금로 241 ,서울특별시 송파구 오금로 241 ,서울특별시 송파구 오금로 241 ,서울특별시송파구오금로241,127.120484289466,37.5065352697257
277,송파구청  ,서울특별시 송파구 오금로 87 (방이동)02-2145-0300,서울특별시 송파구 오금로 87 ,서울특별시 송파구 오금로 87 ,서울특별시 송파구 오금로 87 ,서울특별시송파구오금로87,127.107425481416,37.5146093343482
278,올림픽평화의문  ,서울특별시 송파구 위례성대로 38 (방이동) 해태그린피아빌라트02-758-8983,서울특별시 송파구 위례성대로 38 ,서울특별시 송파구 위례성대로 38 ,서울특별시 송파구 위례성대로 38 ,서울특별시송파구위례성대로38,127.116496489449,37.515691471729
279,송파아이파크  ,서울특별시 송파구 법원로 55 (문정동)02-409-3245,서울특별시 송파구 법원로 55 ,서울특별시 송파구 법원로 55 ,서울특별시 송파구 법원로 55 ,서울특별시송파구법원로55,127.121761567376,37.4798646228477
280,송파사거리  ,서울특별시 송파구 송파대로 386 (송파동)02-758-8931,서울특별시 송파구 송파대로 386 ,서울특별시 송파구 송파대로 386 ,서울특별시 송파구 송파대로 386 ,서울특별시송파구송파대로386,127.110356683979,37.5022771693811
281,석촌서호  ,서울특별시 송파구 석촌호수로 176 (삼전동)02-758-8874,서울특별시 송파구 석촌호수로 176 ,서울특별시 송파구 석촌호수로 176 ,서울특별시 송파구 석촌호수로 176 ,서울특별시송파구석촌호수로176,127.096628028354,37.5063728380539
282,문정로데오  ,서울특별시 송파구 동남로 141 (가락동)02-758-8860,서울특별시 송파구 동남로 141 ,서울특별시 송파구 동남로 141 ,서울특별시 송파구 동남로 141 ,서울특별시송파구동남로141,127.126254018923,37.4919054556627
283,올림픽훼미리  ,서울특별시 송파구 중대로 68 (문정동)02-758-8793,서울특별시 송파구 중대로 68 ,서울특별시 송파구 중대로 68 ,서울특별시 송파구 중대로 68 ,서울특별시송파구중대로68,127.116438164453,37.491566359493
284,올림픽공원남문  ,서울특별시 송파구 위례성대로 102 (방이동)02-758-8769,서울특별시 송파구 위례성대로 102 ,서울특별시 송파구 위례성대로 102 ,서울특별시 송파구 위례성대로 102 ,서울특별시송파구위례성대로102,127.123136651746,37.5133174824795
285,방이역  ,"서울특별시 송파구 마천로 53, 1~2층 (오금동)02-758-8698","서울특별시 송파구 마천로 53, 1~2층 ","서울특별시 송파구 마천로 53, 1~2층 ","서울특별시 송파구 마천로 53, 1~2층 ","서울특별시송파구마천로53,1~2층",127.126656871895,37.5085492002416
286,석촌호수  ,서울특별시 송파구 석촌호수로 262 (송파동)02-758-8693,서울특별시 송파구 석촌호수로 262 ,서울특별시 송파구 석촌호수로 262 ,서울특별시 송파구 석촌호수로 262 ,서울특별시송파구석촌호수로262,127.10523696455,37.5094417584848
287,잠실푸르지오월드  ,"서울특별시 송파구 올림픽로35가길 9, 잠실푸르지오월드마크 1층 (신천동)02-758-8652","서울특별시 송파구 올림픽로35가길 9, 잠실푸르지오월드마크 1층 ","서울특별시 송파구 올림픽로35가길 9, 잠실푸르지오월드마크 1층 ","서울특별시 송파구 올림픽로35가길 9, 잠실푸르지오월드마크 1층 ","서울특별시송파구올림픽로35가길9,잠실푸르지오월드마크1층",127.103444841448,37.5174848912296
288,잠실새내역  ,서울특별시 송파구 올림픽로 96 (잠실동)02-758-8643,서울특별시 송파구 올림픽로 96 ,서울특별시 송파구 올림픽로 96 ,서울특별시 송파구 올림픽로 96 ,서울특별시송파구올림픽로96,127.081214143681,37.5114659567215
289,잠실역  ,"서울특별시 송파구 송파대로 562, 한빛프라자 1층, 2층 (신천동)02-758-8077","서울특별시 송파구 송파대로 562, 한빛프라자 1층, 2층 ","서울특별시 송파구 송파대로 562, 한빛프라자 1층, 2층 ","서울특별시 송파구 송파대로 562, 한빛프라자 1층, 2층 ","서울특별시송파구송파대로562,한빛프라자1층,2층",127.099502853837,37.5153241039697
290,갤러리아팰리스  ,"서울특별시 송파구 올림픽로 212, 갤러리아 팰리스 (잠실동)02-758-8118","서울특별시 송파구 올림픽로 212, 갤러리아 팰리스 ","서울특별시 송파구 올림픽로 212, 갤러리아 팰리스 ","서울특별시 송파구 올림픽로 212, 갤러리아 팰리스 ","서울특별시송파구올림픽로212,갤러리아팰리스",127.094434977786,37.5115042492129
291,아시아선수촌  ,서울특별시 송파구 백제고분로 69 (잠실동)02-758-8124,서울특별시 송파구 백제고분로 69 ,서울특별시 송파구 백제고분로 69 ,서울특별시 송파구 백제고분로 69 ,서울특별시송파구백제고분로69,127.079041230374,37.5105310050784
292,올림픽아파트  ,서울특별시 송파구 양재대로 1222 (방이동)02-758-8580,서울특별시 송파구 양재대로 1222 ,서울특별시 송파구 양재대로 1222 ,서울특별시 송파구 양재대로 1222 ,서울특별시송파구양재대로1222,127.13261565784,37.5164502761665
293,가락본동  ,서울특별시 송파구 송파대로30길 13 (가락동)02-758-8495,서울특별시 송파구 송파대로30길 13 ,서울특별시 송파구 송파대로30길 13 ,서울특별시 송파구 송파대로30길 13 ,서울특별시송파구송파대로30길13,127.118782723977,37.4948819485559
294,석촌역  ,"서울특별시 송파구 백제고분로 358, 1층 (석촌동)02-758-8350","서울특별시 송파구 백제고분로 358, 1층 ","서울특별시 송파구 백제고분로 358, 1층 ","서울특별시 송파구 백제고분로 358, 1층 ","서울특별시송파구백제고분로358,1층",127.10609283553,37.5042922613763
295,가락시장역  ,"서울특별시 송파구 중대로 121, 롯데캐슬 파인힐 1층 (가락동)02-758-8469","서울특별시 송파구 중대로 121, 롯데캐슬 파인힐 1층 ","서울특별시 송파구 중대로 121, 롯데캐슬 파인힐 1층 ","서울특별시 송파구 중대로 121, 롯데캐슬 파인힐 1층 ","서울특별시송파구중대로121,롯데캐슬파인힐1층",127.121411382952,37.4943473309641
296,가든파이브  ,서울특별시 송파구 충민로 10 (문정동) 가든파이브툴02-758-8406,서울특별시 송파구 충민로 10 ,서울특별시 송파구 충민로 10 ,서울특별시 송파구 충민로 10 ,서울특별시송파구충민로10,127.119106420647,37.4786167168446
297,목동파리공원  ,서울특별시 양천구 목동동로 377 (목동)02-2643-3818,서울특별시 양천구 목동동로 377 ,서울특별시 양천구 목동동로 377 ,서울특별시 양천구 목동동로 377 ,서울특별시양천구목동동로377,126.878854408433,37.535338548657
298,등촌역  ,서울특별시 양천구 공항대로 566 (목동) 1층 2층02-2645-3631,서울특별시 양천구 공항대로 566 ,서울특별시 양천구 공항대로 566 ,서울특별시 양천구 공항대로 566 ,서울특별시양천구공항대로566,126.868064580626,37.5489558919089
299,목동행복한  ,서울특별시 양천구 목동동로 309 (목동)02-2643-3652,서울특별시 양천구 목동동로 309 ,서울특별시 양천구 목동동로 309 ,서울특별시 양천구 목동동로 309 ,서울특별시양천구목동동로309,126.876009150006,37.5291437275205
300,신정DT  ,서울특별시 양천구 신월로 341 (신정동)02-2604-3441,서울특별시 양천구 신월로 341 ,서울특별시 양천구 신월로 341 ,서울특별시 양천구 신월로 341 ,서울특별시양천구신월로341,126.8588375277,37.5220178086208
301,목동역  ,서울특별시 양천구 목동로 203 (신정동) 1층일부02-2602-3505,서울특별시 양천구 목동로 203 ,서울특별시 양천구 목동로 203 ,서울특별시 양천구 목동로 203 ,서울특별시양천구목동로203,126.863806037761,37.5267046487113
302,목동오목로  ,"서울특별시 양천구 오목로 279 (목동) 102,103,104,105호02-2642-3326",서울특별시 양천구 오목로 279 ,서울특별시 양천구 오목로 279 ,서울특별시 양천구 오목로 279 ,서울특별시양천구오목로279,126.868391862243,37.5259282350387
303,목동8단지  ,서울특별시 양천구 목동서로 299 (신정동)02-2061-3381,서울특별시 양천구 목동서로 299 ,서울특별시 양천구 목동서로 299 ,서울특별시 양천구 목동서로 299 ,서울특별시양천구목동서로299,126.868831656502,37.520574320687
304,오목교역  ,서울특별시 양천구 오목로 354 (목동)02-758-8941,서울특별시 양천구 오목로 354 ,서울특별시 양천구 오목로 354 ,서울특별시 양천구 오목로 354 ,서울특별시양천구오목로354,126.876795540419,37.5239808984766
305,신월IC DT  ,서울특별시 양천구 남부순환로 430 (신월동)02-758-8930,서울특별시 양천구 남부순환로 430 ,서울특별시 양천구 남부순환로 430 ,서울특별시 양천구 남부순환로 430 ,서울특별시양천구남부순환로430,126.832137185001,37.5294975767281
306,목동7단지  ,서울특별시 양천구 목동서로 213 (목동) 세신비젼프라자02-758-8842,서울특별시 양천구 목동서로 213 ,서울특별시 양천구 목동서로 213 ,서울특별시 양천구 목동서로 213 ,서울특별시양천구목동서로213,126.870616531752,37.5280177198259
307,목동하이페리온  ,서울특별시 양천구 오목로 300 (목동)02-758-8610,서울특별시 양천구 오목로 300 ,서울특별시 양천구 오목로 300 ,서울특별시 양천구 오목로 300 ,서울특별시양천구오목로300,126.87002229454,37.5248294564712
308,목동5단지  ,"서울특별시 양천구 목동동로 411, 1동 116호(목동, 부영그린타운3차)02-758-8615","서울특별시 양천구 목동동로 411, 1동 116호","서울특별시 양천구 목동동로 411, 1동 116호","서울특별시 양천구 목동동로 411, 1동 116호","서울특별시양천구목동동로411,1동116호",126.88731176708,37.5377849685233
309,목동  ,서울특별시 양천구 목동서로 67 (목동) 우성에펠타운02-758-8099,서울특별시 양천구 목동서로 67 ,서울특별시 양천구 목동서로 67 ,서울특별시 양천구 목동서로 67 ,서울특별시양천구목동서로67,126.878549220023,37.5363960261667
310,현대목동  ,"서울특별시 양천구 목동동로 257, 현대백화점목동점 지하 2층 (목동)02-2163-1750","서울특별시 양천구 목동동로 257, 현대백화점목동점 지하 2층 ","서울특별시 양천구 목동동로 257, 현대백화점목동점 지하 2층 ","서울특별시 양천구 목동동로 257, 현대백화점목동점 지하 2층 ","서울특별시양천구목동동로257,현대백화점목동점지하2층",126.874470084419,37.5265013947004
311,목동파라곤  ,"서울특별시 양천구 목동서로 155, 목동파라곤 1층 (목동)02-758-8353","서울특별시 양천구 목동서로 155, 목동파라곤 1층 ","서울특별시 양천구 목동서로 155, 목동파라곤 1층 ","서울특별시 양천구 목동서로 155, 목동파라곤 1층 ","서울특별시양천구목동서로155,목동파라곤1층",126.875421031835,37.5299450718622
312,타임스퀘어R  ,서울특별시 영등포구 영중로 15 (영등포동4가)02-2671-9902,서울특별시 영등포구 영중로 15 ,서울특별시 영등포구 영중로 15 ,서울특별시 영등포구 영중로 15 ,서울특별시영등포구영중로15,126.903716358078,37.517233566795
313,샛강역  ,서울특별시 영등포구 여의대방로 376 (여의도동)02-780-3743,서울특별시 영등포구 여의대방로 376 ,서울특별시 영등포구 여의대방로 376 ,서울특별시 영등포구 여의대방로 376 ,서울특별시영등포구여의대방로376,126.931354653401,37.5181889253121
314,영등포역  ,서울특별시 영등포구 경인로 870 (영등포동1가)02-2068-3692,서울특별시 영등포구 경인로 870 ,서울특별시 영등포구 경인로 870 ,서울특별시 영등포구 경인로 870 ,서울특별시영등포구경인로870,126.909282939724,37.5169832915905
315,당산대로  ,서울특별시 영등포구 양평로 22 (당산동6가)02-2631-3397,서울특별시 영등포구 양평로 22 ,서울특별시 영등포구 양평로 22 ,서울특별시 영등포구 양평로 22 ,서울특별시영등포구양평로22,126.903931999838,37.5331547515271
316,여의도IFC몰(L1)R  ,서울특별시 영등포구 국제금융로 10 (여의도동)  지하1층 178호02-6137-5178,서울특별시 영등포구 국제금융로 10 ,서울특별시 영등포구 국제금융로 10 ,서울특별시 영등포구 국제금융로 10 ,서울특별시영등포구국제금융로10,126.926101089284,37.5259546169442
317,여의도KBS R  ,서울특별시 영등포구 의사당대로 26 (여의도동)02-782-3470,서울특별시 영등포구 의사당대로 26 ,서울특별시 영등포구 의사당대로 26 ,서울특별시 영등포구 의사당대로 26 ,서울특별시영등포구의사당대로26,126.918107292477,37.5265374331433
318,여의도화재보험  ,서울특별시 영등포구 국제금융로6길 38 (여의도동)02-782-3565,서울특별시 영등포구 국제금융로6길 38 ,서울특별시 영등포구 국제금융로6길 38 ,서울특별시 영등포구 국제금융로6길 38 ,서울특별시영등포구국제금융로6길38,126.925995345852,37.5213853337761
319,국회대로  ,서울특별시 영등포구 국회대로 786 (여의도동)02-761-3466,서울특별시 영등포구 국회대로 786 ,서울특별시 영등포구 국회대로 786 ,서울특별시 영등포구 국회대로 786 ,서울특별시영등포구국회대로786,126.919594811518,37.5302808498723
320,영등포KT  ,서울특별시 영등포구 영중로 119 (영등포동8가)02-2671-3369,서울특별시 영등포구 영중로 119 ,서울특별시 영등포구 영중로 119 ,서울특별시 영등포구 영중로 119 ,서울특별시영등포구영중로119,126.905176872998,37.5268493290355
321,여의도공원R  ,서울특별시 영등포구 여의공원로 101 (여의도동)02-3775-3359,서울특별시 영등포구 여의공원로 101 ,서울특별시 영등포구 여의공원로 101 ,서울특별시 영등포구 여의공원로 101 ,서울특별시영등포구여의공원로101,126.924892963731,37.5292724703935
322,국회의사당역  ,서울특별시 영등포구 의사당대로 8 (여의도동)02-780-3346,서울특별시 영등포구 의사당대로 8 ,서울특별시 영등포구 의사당대로 8 ,서울특별시 영등포구 의사당대로 8 ,서울특별시영등포구의사당대로8,126.916895145733,37.5278710414105
323,선유도역  ,서울특별시 영등포구 양평로 115 (양평동4가)02-2634-3258,서울특별시 영등포구 양평로 115 ,서울특별시 영등포구 양평로 115 ,서울특별시 영등포구 양평로 115 ,서울특별시영등포구양평로115,126.894599781676,37.5372996293768
324,여의도역R  ,서울특별시 영등포구 의사당대로 83 (여의도동) 한국휴렛팩커드빌딩02-761-3236,서울특별시 영등포구 의사당대로 83 ,서울특별시 영등포구 의사당대로 83 ,서울특별시 영등포구 의사당대로 83 ,서울특별시영등포구의사당대로83,126.923452236742,37.5233683582544
325,선유동이레빌딩  ,서울특별시 영등포구 선유동2로 57 (양평제1동) 이레빌딩02-2068-3224,서울특별시 영등포구 선유동2로 57 ,서울특별시 영등포구 선유동2로 57 ,서울특별시 영등포구 선유동2로 57 ,서울특별시영등포구선유동2로57,126.89688444305,37.5338299526233
326,동여의도  ,서울특별시 영등포구 국제금융로 86 (여의도동) 롯데캐슬 아이비02-758-8875,서울특별시 영등포구 국제금융로 86 ,서울특별시 영등포구 국제금융로 86 ,서울특별시 영등포구 국제금융로 86 ,서울특별시영등포구국제금융로86,126.931799779031,37.5202055896773
327,여의도ABL타워  ,서울특별시 영등포구 의사당대로 147 (여의도동) 알리안츠타워02-758-8834,서울특별시 영등포구 의사당대로 147 ,서울특별시 영등포구 의사당대로 147 ,서울특별시 영등포구 의사당대로 147 ,서울특별시영등포구의사당대로147,126.927840408423,37.5188232704624
328,영등포신길DT  ,서울특별시 영등포구 신길로 137 (신길동)02-758-8813,서울특별시 영등포구 신길로 137 ,서울특별시 영등포구 신길로 137 ,서울특별시 영등포구 신길로 137 ,서울특별시영등포구신길로137,126.910072289545,37.504576693848
329,문래역  ,서울특별시 영등포구 당산로 34 (문래동3가)02-758-8833,서울특별시 영등포구 당산로 34 ,서울특별시 영등포구 당산로 34 ,서울특별시 영등포구 당산로 34 ,서울특별시영등포구당산로34,126.896493547528,37.5174627797028
330,당산  ,서울특별시 영등포구 양평로 64 (당산동6가)02-758-8713,서울특별시 영등포구 양평로 64 ,서울특별시 영등포구 양평로 64 ,서울특별시 영등포구 양평로 64 ,서울특별시영등포구양평로64,126.899965994272,37.5351401672267
331,여의도한양증권  ,서울특별시 영등포구 국제금융로6길 7 (여의도동) 한양증권02-758-8711,서울특별시 영등포구 국제금융로6길 7 ,서울특별시 영등포구 국제금융로6길 7 ,서울특별시 영등포구 국제금융로6길 7 ,서울특별시영등포구국제금융로6길7,126.929107412257,37.5224043432025
332,여의도일신  ,서울특별시 영등포구 은행로 11 (여의도동) 1층 1부02-758-8695,서울특별시 영등포구 은행로 11 ,서울특별시 영등포구 은행로 11 ,서울특별시 영등포구 은행로 11 ,서울특별시영등포구은행로11,126.920238467326,37.5279112070892
333,신세계영등포B2  ,"서울특별시 영등포구 영중로 9, 신세계백화점 B관 지하2층 (영등포동4가)02-2639-4072","서울특별시 영등포구 영중로 9, 신세계백화점 B관 지하2층 ","서울특별시 영등포구 영중로 9, 신세계백화점 B관 지하2층 ","서울특별시 영등포구 영중로 9, 신세계백화점 B관 지하2층 ","서울특별시영등포구영중로9,신세계백화점B관지하2층",126.90556685824,37.5171899853272
334,하이테크시티  ,서울특별시 영등포구 경인로 775 (문래동3가) 에이스하이테크시티02-758-8210,서울특별시 영등포구 경인로 775 ,서울특별시 영등포구 경인로 775 ,서울특별시 영등포구 경인로 775 ,서울특별시영등포구경인로775,126.897536654192,37.5147460244403
335,당산역  ,"서울특별시 영등포구 당산로 231, 대원빌딩 1,2층 (당산동6가)02-758-8270","서울특별시 영등포구 당산로 231, 대원빌딩 1,2층 ","서울특별시 영등포구 당산로 231, 대원빌딩 1,2층 ","서울특별시 영등포구 당산로 231, 대원빌딩 1,2층 ","서울특별시영등포구당산로231,대원빌딩1,2층",126.901868226328,37.534522298565
336,서여의도  ,서울특별시 영등포구 국회대로70길 15-1 (여의도동)02-758-8008,서울특별시 영등포구 국회대로70길 15-1 ,서울특별시 영등포구 국회대로70길 15-1 ,서울특별시 영등포구 국회대로70길 15-1 ,서울특별시영등포구국회대로70길15-1,126.920396793181,37.5296628570966
337,여의도  ,서울특별시 영등포구 국제금융로2길 28 (여의도동)02-758-8007,서울특별시 영등포구 국제금융로2길 28 ,서울특별시 영등포구 국제금융로2길 28 ,서울특별시 영등포구 국제금융로2길 28 ,서울특별시영등포구국제금융로2길28,126.924494285542,37.5240810013356
338,롯데캐슬여의도  ,서울특별시 영등포구 의사당대로 127 (여의도동) 롯데캐슬앰파이어 1층 104호02-758-8127,서울특별시 영등포구 의사당대로 127 ,서울특별시 영등포구 의사당대로 127 ,서울특별시 영등포구 의사당대로 127 ,서울특별시영등포구의사당대로127,126.926406550193,37.5202404516386
339,문래동  ,"서울특별시 영등포구 선유로 64, 대창타운빌 1층 (문래동3가)02-758-8324","서울특별시 영등포구 선유로 64, 대창타운빌 1층 ","서울특별시 영등포구 선유로 64, 대창타운빌 1층 ","서울특별시 영등포구 선유로 64, 대창타운빌 1층 ","서울특별시영등포구선유로64,대창타운빌1층",126.889680641029,37.5196327448417
340,신세계영등포B  ,"서울특별시 영등포구 영중로 9, 신세계백화점 B관 1층 (영등포동4가)02-2639-4058","서울특별시 영등포구 영중로 9, 신세계백화점 B관 1층 ","서울특별시 영등포구 영중로 9, 신세계백화점 B관 1층 ","서울특별시 영등포구 영중로 9, 신세계백화점 B관 1층 ","서울특별시영등포구영중로9,신세계백화점B관1층",126.90556685824,37.5171899853272
341,여의도호성  ,"서울특별시 영등포구 여의대방로65길 24, 호성빌딩 1층 (여의도동)02-758-8379","서울특별시 영등포구 여의대방로65길 24, 호성빌딩 1층 ","서울특별시 영등포구 여의대방로65길 24, 호성빌딩 1층 ","서울특별시 영등포구 여의대방로65길 24, 호성빌딩 1층 ","서울특별시영등포구여의대방로65길24,호성빌딩1층",126.929294213547,37.520443724366
342,타임스퀘어B2  ,"서울특별시 영등포구 영중로 15, 타임스퀘어 단지 지하2층 (영등포동4가)02-758-8415","서울특별시 영등포구 영중로 15, 타임스퀘어 단지 지하2층 ","서울특별시 영등포구 영중로 15, 타임스퀘어 단지 지하2층 ","서울특별시 영등포구 영중로 15, 타임스퀘어 단지 지하2층 ","서울특별시영등포구영중로15,타임스퀘어단지지하2층",126.903716358078,37.517233566795
343,영등포본동  ,서울특별시 영등포구 영등포로 254 (영등포동3가)02-758-8335,서울특별시 영등포구 영등포로 254 ,서울특별시 영등포구 영등포로 254 ,서울특별시 영등포구 영등포로 254 ,서울특별시영등포구영등포로254,126.909597009495,37.5186827377119
344,타임스퀘어  ,서울특별시 영등포구 영중로 15 (영등포동4가) 타임스퀘어02-758-8303,서울특별시 영등포구 영중로 15 ,서울특별시 영등포구 영중로 15 ,서울특별시 영등포구 영중로 15 ,서울특별시영등포구영중로15,126.903716358078,37.517233566795
345,여의도의사당  ,"서울특별시 영등포구 국회대로74길 12, 남중빌딩 1층 (여의도동)02-758-8348","서울특별시 영등포구 국회대로74길 12, 남중빌딩 1층 ","서울특별시 영등포구 국회대로74길 12, 남중빌딩 1층 ","서울특별시 영등포구 국회대로74길 12, 남중빌딩 1층 ","서울특별시영등포구국회대로74길12,남중빌딩1층",126.921061253099,37.5300886692521
346,여의도IFC(1F)  ,서울특별시 영등포구 국제금융로 10 (여의도동)02-6137-9955,서울특별시 영등포구 국제금융로 10 ,서울특별시 영등포구 국제금융로 10 ,서울특별시 영등포구 국제금융로 10 ,서울특별시영등포구국제금융로10,126.926101089284,37.5259546169442
347,불광역  ,서울시 은평구 통일로 715 02-352-3711,서울시 은평구 통일로 715 02-352-3711,서울시 은평구 통일로 715 ,서울시 은평구 통일로 715 ,서울특별시은평구통일로715,126.930309573048,37.6094159027963
348,구파발사거리  ,서울시 은평구 진관3로 21 은평엘크루 101동 105-108호02-389-3557,서울시 은평구 진관3로 21 은평엘크루 101동 105-108호02-389-3557,서울시 은평구 진관3로 21 은평엘크루 101동 105-108호,서울시 은평구 진관3로 21 은평엘크루 101동 105-108호,서울특별시은평구진관3로21은평엘크루101동105-108호,126.919013163644,37.6396006418655
349,연신내역사거리  ,서울특별시 은평구 통일로 842 (불광동)02-358-3491,서울특별시 은평구 통일로 842 ,서울특별시 은평구 통일로 842 ,서울특별시 은평구 통일로 842 ,서울특별시은평구통일로842,126.92206398779,37.6186911316073
350,연신내  ,서울특별시 은평구 통일로 867 (갈현동)02-388-3348,서울특별시 은평구 통일로 867 ,서울특별시 은평구 통일로 867 ,서울특별시 은평구 통일로 867 ,서울특별시은평구통일로867,126.919892760163,37.6202228445207
351,구파발역  ,서울특별시 은평구 진관2로 1202-758-8934,서울특별시 은평구 진관2로 1202-758-8934,서울특별시 은평구 진관2로 12,서울특별시 은평구 진관2로 12,서울특별시은평구진관2로12,126.918551130249,37.6342579629341
352,은평구청입구  ,서울특별시 은평구 은평로 170 (응암동)02-758-8762,서울특별시 은평구 은평로 170 ,서울특별시 은평구 은평로 170 ,서울특별시 은평구 은평로 170 ,서울특별시은평구은평로170,126.926662234638,37.601088975754
353,은평이마트  ,서울특별시 은평구 은평로 111 (응암동)02-758-8139,서울특별시 은평구 은평로 111 ,서울특별시 은평구 은평로 111 ,서울특별시 은평구 은평로 111 ,서울특별시은평구은평로111,126.920192860366,37.6003622573132
354,구산역  ,서울특별시 은평구 연서로 146 (대조동)02-758-8515,서울특별시 은평구 연서로 146 ,서울특별시 은평구 연서로 146 ,서울특별시 은평구 연서로 146 ,서울특별시은평구연서로146,126.917712480719,37.6118262471378
355,연합뉴스  ,서울특별시 종로구 율곡로2길 25 (수송동)02-730-3742,서울특별시 종로구 율곡로2길 25 ,서울특별시 종로구 율곡로2길 25 ,서울특별시 종로구 율곡로2길 25 ,서울특별시종로구율곡로2길25,126.98051745532,37.5743645257429
356,혜화역  ,서울시 종로구 대학로12길 4 1~2층02-742-3673,서울시 종로구 대학로12길 4 1~2층02-742-3673,서울시 종로구 대학로12길 4 1~2층,서울시 종로구 대학로12길 4 1~2층,서울특별시종로구대학로12길41~2층,127.003491354823,37.5726898988236
357,경희궁로  ,서울특별시 종로구 새문안로3길 15 (당주동)02-730-3761,서울특별시 종로구 새문안로3길 15 ,서울특별시 종로구 새문안로3길 15 ,서울특별시 종로구 새문안로3길 15 ,서울특별시종로구새문안로3길15,126.972300401165,37.5717051643069
358,종로평창동  ,서울특별시 종로구 평창12길 3 (평창동)02-396-3631,서울특별시 종로구 평창12길 3 ,서울특별시 종로구 평창12길 3 ,서울특별시 종로구 평창12길 3 ,서울특별시종로구평창12길3,126.967222153009,37.606174407729
359,광화문우체국  ,서울특별시 종로구 종로 6 (서린동)02-733-3592,서울특별시 종로구 종로 6 ,서울특별시 종로구 종로 6 ,서울특별시 종로구 종로 6 ,서울특별시종로구종로6,126.978095838661,37.5698414361519
360,더종로R  ,서울특별시 종로구 종로 51 (종로2가)02-722-3507,서울특별시 종로구 종로 51 ,서울특별시 종로구 종로 51 ,서울특별시 종로구 종로 51 ,서울특별시종로구종로51,126.983610726205,37.5707433291492
362,정부서울청사R  ,서울특별시 종로구 새문안로5가길 28 (적선동)02-722-3549,서울특별시 종로구 새문안로5가길 28 ,서울특별시 종로구 새문안로5가길 28 ,서울특별시 종로구 새문안로5가길 28 ,서울특별시종로구새문안로5가길28,126.973597441078,37.5744611408539
363,동묘앞역  ,"서울특별시 종로구 종로 344 (숭인동, 대우디오빌) 101호 일부, 201호 일부02-2234-4265",서울특별시 종로구 종로 344 ,서울특별시 종로구 종로 344 ,서울특별시 종로구 종로 344 ,서울특별시종로구종로344,127.016083134145,37.5727230782814
364,종로구청  ,서울특별시 종로구 삼봉로 71 (수송동)02-6281-3272,서울특별시 종로구 삼봉로 71 ,서울특별시 종로구 삼봉로 71 ,서울특별시 종로구 삼봉로 71 ,서울특별시종로구삼봉로71,126.981114572163,37.5726681149618
365,북촌로  ,서울특별시 종로구 북촌로4길 23 (계동)02-758-8827,서울특별시 종로구 북촌로4길 23 ,서울특별시 종로구 북촌로4길 23 ,서울특별시 종로구 북촌로4길 23 ,서울특별시종로구북촌로4길23,126.986479490523,37.5794696936121
366,종로수송  ,서울특별시 종로구 종로5길 30 (청진동) 1~3층02-758-8818,서울특별시 종로구 종로5길 30 ,서울특별시 종로구 종로5길 30 ,서울특별시 종로구 종로5길 30 ,서울특별시종로구종로5길30,126.980705276051,37.57167816955
367,새문안로  ,서울특별시 종로구 새문안로 92 (신문로1가) 광화문오피시아빌딩02-758-8788,서울특별시 종로구 새문안로 92 ,서울특별시 종로구 새문안로 92 ,서울특별시 종로구 새문안로 92 ,서울특별시종로구새문안로92,126.974908434953,37.5696999416937
368,안국  ,서울특별시 종로구 북촌로 5-1 (재동)02-758-8779,서울특별시 종로구 북촌로 5-1 ,서울특별시 종로구 북촌로 5-1 ,서울특별시 종로구 북촌로 5-1 ,서울특별시종로구북촌로5-1,126.985653649993,37.577382818768
369,삼청동  ,서울특별시 종로구 삼청로 111-1 (삼청동)02-758-8771,서울특별시 종로구 삼청로 111-1 ,서울특별시 종로구 삼청로 111-1 ,서울특별시 종로구 삼청로 111-1 ,서울특별시종로구삼청로111-1,126.98178515278,37.5853878672964
370,광화문D타워  ,서울특별시 종로구 종로3길 17 (청진동) D타워02-758-8954,서울특별시 종로구 종로3길 17 ,서울특별시 종로구 종로3길 17 ,서울특별시 종로구 종로3길 17 ,서울특별시종로구종로3길17,126.978914437456,37.5709965220819
371,서울극장  ,서울특별시 종로구 돈화문로 13 (관수동) 서울극장02-758-8269,서울특별시 종로구 돈화문로 13 ,서울특별시 종로구 돈화문로 13 ,서울특별시 종로구 돈화문로 13 ,서울특별시종로구돈화문로13,126.991665729778,37.5696945094121
372,적선  ,"서울특별시 종로구 새문안로5길 55, 노스게이트빌딩 1층 (적선동)02-758-8050","서울특별시 종로구 새문안로5길 55, 노스게이트빌딩 1층 ","서울특별시 종로구 새문안로5길 55, 노스게이트빌딩 1층 ","서울특별시 종로구 새문안로5길 55, 노스게이트빌딩 1층 ","서울특별시종로구새문안로5길55,노스게이트빌딩1층",126.973965763829,37.57512752493
373,인사  ,서울특별시 종로구 인사동길 14 (인사동)02-758-8022,서울특별시 종로구 인사동길 14 ,서울특별시 종로구 인사동길 14 ,서울특별시 종로구 인사동길 14 ,서울특별시종로구인사동길14,126.986950572399,37.5721933753748
374,영풍문고  ,서울특별시 종로구 청계천로 41 (서린동) 영풍빌딩02-758-8083,서울특별시 종로구 청계천로 41 ,서울특별시 종로구 청계천로 41 ,서울특별시 종로구 청계천로 41 ,서울특별시종로구청계천로41,126.982179314214,37.5696678820631
375,광화문R  ,"서울특별시 종로구 세종대로 167, 현대해상본사사옥 별관내 (세종로)02-758-8036","서울특별시 종로구 세종대로 167, 현대해상본사사옥 별관내 ","서울특별시 종로구 세종대로 167, 현대해상본사사옥 별관내 ","서울특별시 종로구 세종대로 167, 현대해상본사사옥 별관내 ","서울특별시종로구세종대로167,현대해상본사사옥별관내",126.976305851625,37.5712699845323
376,성대입구  ,서울특별시 종로구 창경궁로 235 (명륜3가)02-758-8249,서울특별시 종로구 창경궁로 235 ,서울특별시 종로구 창경궁로 235 ,서울특별시 종로구 창경궁로 235 ,서울특별시종로구창경궁로235,126.998377279698,37.5829865252609
377,스페이스본  ,서울특별시 종로구 사직로8길 4 (사직동) 광화문 풍림스페이스본02-758-8235,서울특별시 종로구 사직로8길 4 ,서울특별시 종로구 사직로8길 4 ,서울특별시 종로구 사직로8길 4 ,서울특별시종로구사직로8길4,126.96807509282,37.5742876644572
378,주얼리시티  ,서울특별시 종로구 종로 183 (인의동) 효성주얼리시티02-6744-4882,서울특별시 종로구 종로 183 ,서울특별시 종로구 종로 183 ,서울특별시 종로구 종로 183 ,서울특별시종로구종로183,126.998660687243,37.5714414879932
379,종각  ,서울특별시 종로구 종로 64 (종로2가)02-758-8169,서울특별시 종로구 종로 64 ,서울특별시 종로구 종로 64 ,서울특별시 종로구 종로 64 ,서울특별시종로구종로64,126.984543988241,37.5699610731087
380,광교  ,서울특별시 종로구 청계천로 59 (관철동)02-758-8154,서울특별시 종로구 청계천로 59 ,서울특별시 종로구 청계천로 59 ,서울특별시 종로구 청계천로 59 ,서울특별시종로구청계천로59,126.984183026207,37.5689364681237
381,동숭로아트  ,서울특별시 종로구 동숭길 110 (동숭동)02-758-8430,서울특별시 종로구 동숭길 110 ,서울특별시 종로구 동숭길 110 ,서울특별시 종로구 동숭길 110 ,서울특별시종로구동숭길110,127.003908601582,37.5829828612547
382,종로관철  ,"서울특별시 종로구 종로12길 21, 2층 (관철동)02-758-8360","서울특별시 종로구 종로12길 21, 2층 ","서울특별시 종로구 종로12길 21, 2층 ","서울특별시 종로구 종로12길 21, 2층 ","서울특별시종로구종로12길21,2층",126.985996695805,37.5690772371704
383,경복궁역  ,"서울특별시 종로구 자하문로4길 6, 1층 (통의동)02-758-8359","서울특별시 종로구 자하문로4길 6, 1층 ","서울특별시 종로구 자하문로4길 6, 1층 ","서울특별시 종로구 자하문로4길 6, 1층 ","서울특별시종로구자하문로4길6,1층",126.972634071758,37.5771823286369
384,이마빌딩  ,서울특별시 종로구 종로1길 42 (수송동)02-758-8405,서울특별시 종로구 종로1길 42 ,서울특별시 종로구 종로1길 42 ,서울특별시 종로구 종로1길 42 ,서울특별시종로구종로1길42,126.978983358289,37.5739025852999
385,대명거리  ,서울특별시 종로구 대명길 5 (명륜4가)02-758-8316,서울특별시 종로구 대명길 5 ,서울특별시 종로구 대명길 5 ,서울특별시 종로구 대명길 5 ,서울특별시종로구대명길5,127.001154921668,37.5835221582396
386,마로니에공원  ,"서울특별시 종로구 대학로 116, 1-2층 (동숭동)02-758-8315","서울특별시 종로구 대학로 116, 1-2층 ","서울특별시 종로구 대학로 116, 1-2층 ","서울특별시 종로구 대학로 116, 1-2층 ","서울특별시종로구대학로116,1-2층",127.002338978478,37.5815362648561
387,종로3가  ,"서울특별시 종로구 종로 113-1, 1-4층 (종로3가)02-758-8339","서울특별시 종로구 종로 113-1, 1-4층 ","서울특별시 종로구 종로 113-1, 1-4층 ","서울특별시 종로구 종로 113-1, 1-4층 ","서울특별시종로구종로113-1,1-4층",126.990222851605,37.5705963042989
388,대학로  ,"서울특별시 종로구 대학로 57, 홍익대학교 대학로캠퍼스 內 (연건동)02-758-8558","서울특별시 종로구 대학로 57, 홍익대학교 대학로캠퍼스 內 ","서울특별시 종로구 대학로 57, 홍익대학교 대학로캠퍼스 內 ","서울특별시 종로구 대학로 57, 홍익대학교 대학로캠퍼스 內 ","서울특별시종로구대학로57,홍익대학교대학로캠퍼스內",127.001446998223,37.5765582441397
389,경복궁사거리  ,"서울특별시 종로구 율곡로 6, B동 101호(중학동, 트윈트리타워)02-758-8386","서울특별시 종로구 율곡로 6, B동 101호","서울특별시 종로구 율곡로 6, B동 101호","서울특별시 종로구 율곡로 6, B동 101호","서울특별시종로구율곡로6,B동101호",126.980501833809,37.5754933022443
390,종로관수  ,서울특별시 종로구 삼일대로20길 13 (관수동)02-758-8560,서울특별시 종로구 삼일대로20길 13 ,서울특별시 종로구 삼일대로20길 13 ,서울특별시 종로구 삼일대로20길 13 ,서울특별시종로구삼일대로20길13,126.988674349284,37.5697592868718
391,숭례문북창  ,서울특별시 중구 세종대로12길 12 (남대문로4가)02-3789-3661,서울특별시 중구 세종대로12길 12 ,서울특별시 중구 세종대로12길 12 ,서울특별시 중구 세종대로12길 12 ,서울특별시중구세종대로12길12,126.976921803332,37.5616272233354
392,을지로4가역  ,서울특별시 중구 을지로 170 (을지로4가)02-3706-7381,서울특별시 중구 을지로 170 ,서울특별시 중구 을지로 170 ,서울특별시 중구 을지로 170 ,서울특별시중구을지로170,126.997327501359,37.566139232444
393,동대문두타  ,서울특별시 중구 장충단로 275 (을지로6가)02-3398-4241,서울특별시 중구 장충단로 275 ,서울특별시 중구 장충단로 275 ,서울특별시 중구 장충단로 275 ,서울특별시중구장충단로275,127.008775092585,37.5688857842675
394,대한상공회의소R  ,서울시 중구 세종대로 39 상공회의소회관 1층02-6050-1180,서울시 중구 세종대로 39 상공회의소회관 1층02-6050-1180,서울시 중구 세종대로 39 상공회의소회관 1층,서울시 중구 세종대로 39 상공회의소회관 1층,서울특별시중구세종대로39상공회의소회관1층,126.973775561972,37.5607141478494
395,명동센트럴  ,서울특별시 중구 명동9길 16 (명동1가)02-3789-3640,서울특별시 중구 명동9길 16 ,서울특별시 중구 명동9길 16 ,서울특별시 중구 명동9길 16 ,서울특별시중구명동9길16,126.985234508479,37.5646483023578
396,국립중앙의료원  ,서울특별시 중구 을지로 251 (을지로6가)02-2269-3667,서울특별시 중구 을지로 251 ,서울특별시 중구 을지로 251 ,서울특별시 중구 을지로 251 ,서울특별시중구을지로251,127.006251828501,37.5665554596359
397,동국대  ,서울특별시 중구 서애로 1길 1102-2269-3296,서울특별시 중구 서애로 1길 1102-2269-3296,서울특별시 중구 서애로 1길 11,서울특별시 중구 서애로 1길 11,서울특별시중구서애로1길11,126.998598154771,37.5613427045487
398,신세계본점5F  ,서울특별시 중구 소공로 63 (충무로1가)02-310-1514,서울특별시 중구 소공로 63 ,서울특별시 중구 소공로 63 ,서울특별시 중구 소공로 63 ,서울특별시중구소공로63,126.980978118459,37.5609172869577
399,을지로내외빌딩R  ,서울특별시 중구 을지로 51 (을지로2가)02-754-3429,서울특별시 중구 을지로 51 ,서울특별시 중구 을지로 51 ,서울특별시 중구 을지로 51 ,서울특별시중구을지로51,126.983681831587,37.5664927089064
400,대우재단빌딩  ,서울특별시 중구 퇴계로 18 (남대문로5가)02-6366-1381,서울특별시 중구 퇴계로 18 ,서울특별시 중구 퇴계로 18 ,서울특별시 중구 퇴계로 18 ,서울특별시중구퇴계로18,126.97515632519,37.5565605735187
401,동대문공원  ,서울특별시 중구 장충단로 229 (광희동1가)02-2279-3345,서울특별시 중구 장충단로 229 ,서울특별시 중구 장충단로 229 ,서울특별시 중구 장충단로 229 ,서울특별시중구장충단로229,127.00721042878,37.5652107779302
402,을지로국제빌딩  ,서울특별시 중구 남대문로 109 (다동)02-752-3464,서울특별시 중구 남대문로 109 ,서울특별시 중구 남대문로 109 ,서울특별시 중구 남대문로 109 ,서울특별시중구남대문로109,126.982246709936,37.5669855896734
403,동대입구역  ,서울특별시 중구 장충단로 166 (장충동1가)02-2264-3364,서울특별시 중구 장충단로 166 ,서울특별시 중구 장충단로 166 ,서울특별시 중구 장충단로 166 ,서울특별시중구장충단로166,127.00615514513,37.5596518987557
404,신당역사거리  ,서울특별시 중구 다산로 258 (흥인동)02-2253-3318,서울특별시 중구 다산로 258 ,서울특별시 중구 다산로 258 ,서울특별시 중구 다산로 258 ,서울특별시중구다산로258,127.016623350789,37.565795008835
405,연세세브란스  ,서울특별시 중구 통일로 10 (남대문로5가)02-2259-3331,서울특별시 중구 통일로 10 ,서울특별시 중구 통일로 10 ,서울특별시 중구 통일로 10 ,서울특별시중구통일로10,126.973634696103,37.5570979435183
406,회현역  ,서울특별시 중구 퇴계로 72 (회현동) 리더스뷰남산02-758-8986,서울특별시 중구 퇴계로 72 ,서울특별시 중구 퇴계로 72 ,서울특별시 중구 퇴계로 72 ,서울특별시중구퇴계로72,126.980604175571,37.5591252951694
407,을지로경기빌딩  ,서울특별시 중구 남대문로10길 9 (삼각동) 경기빌딩02-758-8981,서울특별시 중구 남대문로10길 9 ,서울특별시 중구 남대문로10길 9 ,서울특별시 중구 남대문로10길 9 ,서울특별시중구남대문로10길9,126.983230353085,37.567202797607
408,을지로2가  ,서울특별시 중구 삼일대로 358 (을지로2가)02-6250-8280,서울특별시 중구 삼일대로 358 ,서울특별시 중구 삼일대로 358 ,서울특별시 중구 삼일대로 358 ,서울특별시중구삼일대로358,126.988103656143,37.5664883494338
409,신세계본점6F  ,서울특별시 중구 퇴계로 77 (충무로1가)02-310-1431,서울특별시 중구 퇴계로 77 ,서울특별시 중구 퇴계로 77 ,서울특별시 중구 퇴계로 77 ,서울특별시중구퇴계로77,126.980776052218,37.5603598162132
410,서울중앙우체국  ,서울특별시 중구 소공로 70 (충무로 1가) 서울 중앙 우체국02-758-8979,서울특별시 중구 소공로 70 ,서울특별시 중구 소공로 70 ,서울특별시 중구 소공로 70 ,서울특별시중구소공로70,126.982168636818,37.561598525441
411,한국프레스센터  ,서울특별시 중구 세종대로 124 (태평로1가)02-722-3263,서울특별시 중구 세종대로 124 ,서울특별시 중구 세종대로 124 ,서울특별시 중구 세종대로 124 ,서울특별시중구세종대로124,126.977873510288,37.5674203377724
412,명동중앙로  ,서울특별시 중구 명동길 60 (명동 2가)02-758-8903,서울특별시 중구 명동길 60 ,서울특별시 중구 명동길 60 ,서울특별시 중구 명동길 60 ,서울특별시중구명동길60,126.985754286497,37.5637751789356
413,약수역  ,서울특별시 중구 다산로 129 (신당동)02-758-8862,서울특별시 중구 다산로 129 ,서울특별시 중구 다산로 129 ,서울특별시 중구 다산로 129 ,서울특별시중구다산로129,127.010739167529,37.5554503255025
414,중구저동  ,서울특별시 중구 수표로 34 (저동2가)02-758-8857,서울특별시 중구 수표로 34 ,서울특별시 중구 수표로 34 ,서울특별시 중구 수표로 34 ,서울특별시중구수표로34,126.990357936675,37.5643787642816
415,명동길  ,서울특별시 중구 명동10길 4102-758-8849,서울특별시 중구 명동10길 4102-758-8849,서울특별시 중구 명동10길 41,서울특별시 중구 명동10길 41,서울특별시중구명동10길41,126.985875756608,37.5620620658489
416,소공로북창  ,서울특별시 중구 세종대로18길 32 (소공동) 삼원빌딩02-758-8843,서울특별시 중구 세종대로18길 32 ,서울특별시 중구 세종대로18길 32 ,서울특별시 중구 세종대로18길 32 ,서울특별시중구세종대로18길32,126.978937469214,37.5637272625737
417,서소문로  ,서울특별시 중구 서소문로 120 (서소문동) 대한빌딩02-758-8832,서울특별시 중구 서소문로 120 ,서울특별시 중구 서소문로 120 ,서울특별시 중구 서소문로 120 ,서울특별시중구서소문로120,126.974678267324,37.5628678814013
418,신당역  ,"서울특별시 중구 퇴계로 385, 1층 (흥인동)02-758-8669","서울특별시 중구 퇴계로 385, 1층 ","서울특별시 중구 퇴계로 385, 1층 ","서울특별시 중구 퇴계로 385, 1층 ","서울특별시중구퇴계로385,1층",127.014353427431,37.5654049635823
419,명동메트로  ,서울특별시 중구 명동9가길 14 (을지로1가) 메트로호텔02-758-8764,서울특별시 중구 명동9가길 14 ,서울특별시 중구 명동9가길 14 ,서울특별시 중구 명동9가길 14 ,서울특별시중구명동9가길14,126.983730824224,37.5651363957537
420,숭례문  ,"서울특별시 중구 세종대로 17, 와이즈타워 1층 (남대문로5가)02-758-8087","서울특별시 중구 세종대로 17, 와이즈타워 1층 ","서울특별시 중구 세종대로 17, 와이즈타워 1층 ","서울특별시 중구 세종대로 17, 와이즈타워 1층 ","서울특별시중구세종대로17,와이즈타워1층",126.973266576755,37.5586285932918
421,순화동더샵  ,"서울특별시 중구 칠패로 27, 1층 (순화동)02-758-8209","서울특별시 중구 칠패로 27, 1층 ","서울특별시 중구 칠패로 27, 1층 ","서울특별시 중구 칠패로 27, 1층 ","서울특별시중구칠패로27,1층",126.972035748719,37.5602669735527
422,대한극장  ,서울특별시 중구 퇴계로 212 (필동 2가)02-758-8030,서울특별시 중구 퇴계로 212 ,서울특별시 중구 퇴계로 212 ,서울특별시 중구 퇴계로 212 ,서울특별시중구퇴계로212,126.995343271276,37.561075377402
423,소공동  ,서울특별시 중구 소공로 112 (소공동)02-758-8140,서울특별시 중구 소공로 112 ,서울특별시 중구 소공로 112 ,서울특별시 중구 소공로 112 ,서울특별시중구소공로112,126.979221384756,37.5646231023961
424,무교동  ,서울특별시 중구 무교로 21 (무교동) 코오롱빌딩 1층02-758-8037,서울특별시 중구 무교로 21 ,서울특별시 중구 무교로 21 ,서울특별시 중구 무교로 21 ,서울특별시중구무교로21,126.97874239801,37.5678545704243
425,문화일보  ,서울특별시 중구 새문안로 22 (충정로1가) 문화일보02-758-8047,서울특별시 중구 새문안로 22 ,서울특별시 중구 새문안로 22 ,서울특별시 중구 새문안로 22 ,서울특별시중구새문안로22,126.96864547241,37.567130122346
426,태평로  ,"서울특별시 중구 세종대로 72, 대영빌딩 1층 (태평로2가)02-758-8039","서울특별시 중구 세종대로 72, 대영빌딩 1층 ","서울특별시 중구 세종대로 72, 대영빌딩 1층 ","서울특별시 중구 세종대로 72, 대영빌딩 1층 ","서울특별시중구세종대로72,대영빌딩1층",126.976800361443,37.5624975671085
427,퍼시픽타워  ,"서울특별시 중구 세종대로9길 41, 퍼시픽타워 1층 (서소문동)02-758-8079","서울특별시 중구 세종대로9길 41, 퍼시픽타워 1층 ","서울특별시 중구 세종대로9길 41, 퍼시픽타워 1층 ","서울특별시 중구 세종대로9길 41, 퍼시픽타워 1층 ","서울특별시중구세종대로9길41,퍼시픽타워1층",126.972996845007,37.5613584728448
428,남산단암  ,"서울특별시 중구 소월로 10, 단암빌딩 (남대문로5가)02-758-8306","서울특별시 중구 소월로 10, 단암빌딩 ","서울특별시 중구 소월로 10, 단암빌딩 ","서울특별시 중구 소월로 10, 단암빌딩 ","서울특별시중구소월로10,단암빌딩",126.975411334347,37.5585413375752
429,황학캐슬  ,서울특별시 중구 청계천로 400 (황학동) 롯데캐슬베네치아02-2048-5257,서울특별시 중구 청계천로 400 ,서울특별시 중구 청계천로 400 ,서울특별시 중구 청계천로 400 ,서울특별시중구청계천로400,127.022772610295,37.5708991226969
430,서소문  ,서울특별시 중구 서소문로 130 (서소문동)02-758-8181,서울특별시 중구 서소문로 130 ,서울특별시 중구 서소문로 130 ,서울특별시 중구 서소문로 130 ,서울특별시중구서소문로130,126.975521562922,37.5634101856569
431,명동미래  ,"서울특별시 중구 명동 7길 8, 2층 (명동 1가)02-758-8318","서울특별시 중구 명동 7길 8, 2층 ","서울특별시 중구 명동 7길 8, 2층 ","서울특별시 중구 명동 7길 8, 2층 ","서울특별시중구명동7길8,2층",126.984695181002,37.5642448499617
432,을지로삼화타워  ,서울특별시 중구 을지로5길 16 삼화타워1층02-758-8483,서울특별시 중구 을지로5길 16 삼화타워1층02-758-8483,서울특별시 중구 을지로5길 16 삼화타워1층,서울특별시 중구 을지로5길 16 삼화타워1층,서울특별시중구을지로5길16삼화타워1층,126.984905855454,37.5669487292804
433,소공로  ,"서울특별시 중구 남대문로7길 19, 삼영빌딩 1층 일부 (소공동)02-758-8569","서울특별시 중구 남대문로7길 19, 삼영빌딩 1층 일부 ","서울특별시 중구 남대문로7길 19, 삼영빌딩 1층 일부 ","서울특별시 중구 남대문로7길 19, 삼영빌딩 1층 일부 ","서울특별시중구남대문로7길19,삼영빌딩1층일부",126.980774303369,37.5637736624659
434,서소문배재  ,서울특별시 중구 서소문로 99 (서소문동)02-758-8409,서울특별시 중구 서소문로 99 ,서울특별시 중구 서소문로 99 ,서울특별시 중구 서소문로 99 ,서울특별시중구서소문로99,126.972178633091,37.5628837730491
435,을지로한국빌딩  ,"서울특별시 중구 을지로 50, 1층 (을지로 2가)02-758-8385","서울특별시 중구 을지로 50, 1층 ","서울특별시 중구 을지로 50, 1층 ","서울특별시 중구 을지로 50, 1층 ","서울특별시중구을지로50,1층",126.98332467845,37.5656371200319
436,순화동에이스  ,서울특별시 중구 통일로 92 (순화동) KG타워02-758-8372,서울특별시 중구 통일로 92 ,서울특별시 중구 통일로 92 ,서울특별시 중구 통일로 92 ,서울특별시중구통일로92,126.969222577319,37.5635949328213
437,시청  ,"서울특별시 중구 을지로 19, 삼성화재삼성빌딩 1층 (을지로1가)02-758-8504","서울특별시 중구 을지로 19, 삼성화재삼성빌딩 1층 ","서울특별시 중구 을지로 19, 삼성화재삼성빌딩 1층 ","서울특별시 중구 을지로 19, 삼성화재삼성빌딩 1층 ","서울특별시중구을지로19,삼성화재삼성빌딩1층",126.979957716249,37.5663073603861
438,시청플러스  ,"서울특별시 중구 을지로 19, 삼성화재삼성빌딩 1층 (을지로1가)02-758-8505","서울특별시 중구 을지로 19, 삼성화재삼성빌딩 1층 ","서울특별시 중구 을지로 19, 삼성화재삼성빌딩 1층 ","서울특별시 중구 을지로 19, 삼성화재삼성빌딩 1층 ","서울특별시중구을지로19,삼성화재삼성빌딩1층",126.979957716249,37.5663073603861
439,충무로역  ,"서울특별시 중구 퇴계로 197, 충무빌딩 1층 (필동 2가)02-758-8395","서울특별시 중구 퇴계로 197, 충무빌딩 1층 ","서울특별시 중구 퇴계로 197, 충무빌딩 1층 ","서울특별시 중구 퇴계로 197, 충무빌딩 1층 ","서울특별시중구퇴계로197,충무빌딩1층",126.993930340495,37.5614545656473
440,명동역  ,"서울특별시 중구 퇴계로 101, 건물 전체 (충무로 1가)02-758-8562","서울특별시 중구 퇴계로 101, 건물 전체 ","서울특별시 중구 퇴계로 101, 건물 전체 ","서울특별시 중구 퇴계로 101, 건물 전체 ","서울특별시중구퇴계로101,건물전체",126.983107110375,37.560866867725
441,남산스테이트  ,서울특별시 중구 퇴계로 100 (회현동2가)02-758-8539,서울특별시 중구 퇴계로 100 ,서울특별시 중구 퇴계로 100 ,서울특별시 중구 퇴계로 100 ,서울특별시중구퇴계로100,126.982926263622,37.5602070102469
442,명동입구  ,서울특별시 중구 남대문로 68-1 (명동2가)02-758-8506,서울특별시 중구 남대문로 68-1 ,서울특별시 중구 남대문로 68-1 ,서울특별시 중구 남대문로 68-1 ,서울특별시중구남대문로68-1,126.982272020493,37.5632270829754
443,명일역  ,서울특별시 강동구 양재대로 1647 (명일동)02-427-3681,서울특별시 강동구 양재대로 1647 ,서울특별시 강동구 양재대로 1647 ,서울특별시 강동구 양재대로 1647 ,서울특별시강동구양재대로1647,127.143784588545,37.5525635499402
444,강동구청DT  ,서울특별시 강동구 성내로 32 (성내동)02-489-3652,서울특별시 강동구 성내로 32 ,서울특별시 강동구 성내로 32 ,서울특별시 강동구 성내로 32 ,서울특별시강동구성내로32,127.123808011713,37.5291936248667
445,강동암사DT  ,서울특별시 강동구 고덕로 43 (암사동)02-426-3583,서울특별시 강동구 고덕로 43 ,서울특별시 강동구 고덕로 43 ,서울특별시 강동구 고덕로 43 ,서울특별시강동구고덕로43,127.130011647836,37.5550979848952
446,강동역  ,"서울특별시 강동구 천호대로 1089 (천호동, 강동 헤르셔)02-477-3319",서울특별시 강동구 천호대로 1089 ,서울특별시 강동구 천호대로 1089 ,서울특별시 강동구 천호대로 1089 ,서울특별시강동구천호대로1089,127.133117392235,37.5366084494838
447,둔촌동  ,서울특별시 강동구 양재대로 1303 (성내동) 평원빌딩02-478-3240,서울특별시 강동구 양재대로 1303 ,서울특별시 강동구 양재대로 1303 ,서울특별시 강동구 양재대로 1303 ,서울특별시강동구양재대로1303,127.133949748229,37.5227717721847
448,천호로데오  ,서울특별시 강동구 천호대로 1037 (천호동)02-758-8923,서울특별시 강동구 천호대로 1037 ,서울특별시 강동구 천호대로 1037 ,서울특별시 강동구 천호대로 1037 ,서울특별시강동구천호대로1037,127.127332948864,37.5378376333333
449,천호이마트  ,서울특별시 강동구 천호대로 1015-14 (천호동) 이마트별관02-758-8732,서울특별시 강동구 천호대로 1015-14 ,서울특별시 강동구 천호대로 1015-14 ,서울특별시 강동구 천호대로 1015-14 ,서울특별시강동구천호대로1015-14,127.125223976041,37.5389846944231
450,길동역  ,서울특별시 강동구 양재대로 1487 (길동)02-758-8776,서울특별시 강동구 양재대로 1487 ,서울특별시 강동구 양재대로 1487 ,서울특별시 강동구 양재대로 1487 ,서울특별시강동구양재대로1487,127.140063476909,37.5387130397225
451,상일동  ,"서울특별시 강동구 상일로10길 36, 1~2층 (상일동)02-758-8670","서울특별시 강동구 상일로10길 36, 1~2층 ","서울특별시 강동구 상일로10길 36, 1~2층 ","서울특별시 강동구 상일로10길 36, 1~2층 ","서울특별시강동구상일로10길36,1~2층",127.174104539623,37.5507999257944
452,올림픽공원북문  ,서울특별시 강동구 강동대로 171 (성내동)02-758-8761,서울특별시 강동구 강동대로 171 ,서울특별시 강동구 강동대로 171 ,서울특별시 강동구 강동대로 171 ,서울특별시강동구강동대로171,127.125936770228,37.5254519112203
453,천호역  ,"서울특별시 강동구 천호대로 1012, 태승빌딩 (성내동)02-758-8296","서울특별시 강동구 천호대로 1012, 태승빌딩 ","서울특별시 강동구 천호대로 1012, 태승빌딩 ","서울특별시 강동구 천호대로 1012, 태승빌딩 ","서울특별시강동구천호대로1012,태승빌딩",127.124145361754,37.5380865806185
454,명일이마트  ,서울특별시 강동구 동남로75길 5 (명일동) 명일이마트별관주차장02-758-8752,서울특별시 강동구 동남로75길 5 ,서울특별시 강동구 동남로75길 5 ,서울특별시 강동구 동남로75길 5 ,서울특별시강동구동남로75길5,127.15600292032,37.5540069733194
455,길동사거리  ,"서울특별시 강동구 양재대로 1441, 1층 (길동)02-758-8342","서울특별시 강동구 양재대로 1441, 1층 ","서울특별시 강동구 양재대로 1441, 1층 ","서울특별시 강동구 양재대로 1441, 1층 ","서울특별시강동구양재대로1441,1층",127.138406272936,37.534684592419
456,신도림  ,서울특별시 구로구 경인로 610 (신도림동)02-2635-3516,서울특별시 구로구 경인로 610 ,서울특별시 구로구 경인로 610 ,서울특별시 구로구 경인로 610 ,서울특별시구로구경인로610,126.883954978952,37.5054765025054
457,구로디지털타워  ,서울특별시 구로구 디지털로32길 30 (구로동)02-2103-5088,서울특별시 구로구 디지털로32길 30 ,서울특별시 구로구 디지털로32길 30 ,서울특별시 구로구 디지털로32길 30 ,서울특별시구로구디지털로32길30,126.896520285792,37.4833905809356
462,구로하이엔드  ,"서울특별시 구로구 디지털로26길 5, 에이스하이엔드타워1차 103호 (구로동)02-758-8340","서울특별시 구로구 디지털로26길 5, 에이스하이엔드타워1차 103호 ","서울특별시 구로구 디지털로26길 5, 에이스하이엔드타워1차 103호 ","서울특별시 구로구 디지털로26길 5, 에이스하이엔드타워1차 103호 ","서울특별시구로구디지털로26길5,에이스하이엔드타워1차103호",126.893479350651,37.481610694573
463,현대디큐브2F  ,서울특별시 구로구 경인로 662 (신도림동)02-2210-9237,서울특별시 구로구 경인로 662 ,서울특별시 구로구 경인로 662 ,서울특별시 구로구 경인로 662 ,서울특별시구로구경인로662,126.889277896081,37.5088211193709
464,구로호텔  ,"서울특별시 구로구 디지털로32길 72, 구로호텔 1층 (구로동)02-758-8555","서울특별시 구로구 디지털로32길 72, 구로호텔 1층 ","서울특별시 구로구 디지털로32길 72, 구로호텔 1층 ","서울특별시 구로구 디지털로32길 72, 구로호텔 1층 ","서울특별시구로구디지털로32길72,구로호텔1층",126.89885761632,37.4831850895219
465,현대디큐브B2  ,서울특별시 구로구 경인로 662 (신도림동)02-2210-9797,서울특별시 구로구 경인로 662 ,서울특별시 구로구 경인로 662 ,서울특별시 구로구 경인로 662 ,서울특별시구로구경인로662,126.889277896081,37.5088211193709
466,답십리역  ,서울특별시 동대문구 천호대로 263 (답십리동)02-2245-3417,서울특별시 동대문구 천호대로 263 ,서울특별시 동대문구 천호대로 263 ,서울특별시 동대문구 천호대로 263 ,서울특별시동대문구천호대로263,127.051120611415,37.5685045655365
467,경희대삼거리  ,서울특별시 동대문구 회기로 141 (회기동)02-959-3391,서울특별시 동대문구 회기로 141 ,서울특별시 동대문구 회기로 141 ,서울특별시 동대문구 회기로 141 ,서울특별시동대문구회기로141,127.05203059746,37.5915679109766
468,외대정문  ,서울특별시 동대문구 이문로 93 (이문동)02-965-3373,서울특별시 동대문구 이문로 93 ,서울특별시 동대문구 이문로 93 ,서울특별시 동대문구 이문로 93 ,서울특별시동대문구이문로93,127.05922924279,37.5953784104663
469,신설동역  ,서울특별시 동대문구 왕산로 19 (신설동)02-758-8942,서울특별시 동대문구 왕산로 19 ,서울특별시 동대문구 왕산로 19 ,서울특별시 동대문구 왕산로 19 ,서울특별시동대문구왕산로19,127.025525709813,37.5767115620511
470,회기역사거리  ,서울특별시 동대문구 이문로 37 (회기동)02-758-8767,서울특별시 동대문구 이문로 37 ,서울특별시 동대문구 이문로 37 ,서울특별시 동대문구 이문로 37 ,서울특별시동대문구이문로37,127.056117212871,37.5908002611965
471,외대  ,서울특별시 동대문구 휘경로 12-1 (이문동)02-758-8132,서울특별시 동대문구 휘경로 12-1 ,서울특별시 동대문구 휘경로 12-1 ,서울특별시 동대문구 휘경로 12-1 ,서울특별시동대문구휘경로12-1,127.061396503316,37.5957222352739
472,장한평역  ,서울특별시 동대문구 장한로 10 (장안동)02-758-8475,서울특별시 동대문구 장한로 10 ,서울특별시 동대문구 장한로 10 ,서울특별시 동대문구 장한로 10 ,서울특별시동대문구장한로10,127.065501359708,37.5623615881468
473,경희대  ,서울특별시 동대문구 경희대로 16-1 (회기동)02-758-8351,서울특별시 동대문구 경희대로 16-1 ,서울특별시 동대문구 경희대로 16-1 ,서울특별시 동대문구 경희대로 16-1 ,서울특별시동대문구경희대로16-1,127.052767945082,37.5929249787215
475,뚝섬역  ,서울특별시 성동구 아차산로 42 (성수동1가)02-469-3488,서울특별시 성동구 아차산로 42 ,서울특별시 성동구 아차산로 42 ,서울특별시 성동구 아차산로 42 ,서울특별시성동구아차산로42,127.049094368844,37.546426191898
476,황학사거리  ,"서울특별시 성동구 왕십리로 410 (하왕십리동, 센트라스)02-2294-3409",서울특별시 성동구 왕십리로 410 ,서울특별시 성동구 왕십리로 410 ,서울특별시 성동구 왕십리로 410 ,서울특별시성동구왕십리로410,127.023805592358,37.566950882753
477,성수역  ,서울특별시 성동구 성수이로 94 (성수동2가)02-469-3460,서울특별시 성동구 성수이로 94 ,서울특별시 성동구 성수이로 94 ,서울특별시 성동구 성수이로 94 ,서울특별시성동구성수이로94,127.056955504315,37.5432291060946
478,상왕십리역  ,서울특별시 성동구 왕십리로 382 (하왕십리동)02-2294-3342,서울특별시 성동구 왕십리로 382 ,서울특별시 성동구 왕십리로 382 ,서울특별시 성동구 왕십리로 382 ,서울특별시성동구왕십리로382,127.028020338832,37.5651110298585
479,왕십리역  ,서울특별시 성동구 왕십리로 326 (도선동)02-758-8900,서울특별시 성동구 왕십리로 326 ,서울특별시 성동구 왕십리로 326 ,서울특별시 성동구 왕십리로 326 ,서울특별시성동구왕십리로326,127.033894803684,37.562752643724
480,엔터식스한양대  ,서울특별시 성동구 행당동 왕십리로 241 B1층02-758-8846,서울특별시 성동구 행당동 왕십리로 241 B1층02-758-8846,서울특별시 성동구 행당동 왕십리로 241 B1층,서울특별시 성동구 행당동 왕십리로 241 B1층,서울특별시성동구행당동왕십리로241B1층,127.040105833341,37.5571559125211
481,한양대  ,서울특별시 성동구 왕십리로 225 (행당동)02-758-8015,서울특별시 성동구 왕십리로 225 ,서울특별시 성동구 왕십리로 225 ,서울특별시 성동구 왕십리로 225 ,서울특별시성동구왕십리로225,127.042118975598,37.5571659902439
482,엔터식스  ,서울특별시 성동구 왕십리광장로 17 (행당동)02-2200-6250,서울특별시 성동구 왕십리광장로 17 ,서울특별시 성동구 왕십리광장로 17 ,서울특별시 성동구 왕십리광장로 17 ,서울특별시성동구왕십리광장로17,127.038394538982,37.5614419137754
483,성수이마트  ,서울특별시 성동구 뚝섬로 379 (성수동2가) 이마트 성수점02-758-8282,서울특별시 성동구 뚝섬로 379 ,서울특별시 성동구 뚝섬로 379 ,서울특별시 성동구 뚝섬로 379 ,서울특별시성동구뚝섬로379,127.053494304148,37.5399295550577
484,효창공원앞역  ,"서울특별시 용산구 백범로 313 (효창동, 용산 롯데캐슬 센터포레)02-3272-3837",서울특별시 용산구 백범로 313 ,서울특별시 용산구 백범로 313 ,서울특별시 용산구 백범로 313 ,서울특별시용산구백범로313,126.963234527772,37.5397632460543
485,이태원역  ,서울특별시 용산구 이태원로 188 (이태원동)02-798-9780,서울특별시 용산구 이태원로 188 ,서울특별시 용산구 이태원로 188 ,서울특별시 용산구 이태원로 188 ,서울특별시용산구이태원로188,126.994801436797,37.5343085454449
486,한강진역R  ,서울특별시 용산구 이태원로 252 (한남동)02-797-3556,서울특별시 용산구 이태원로 252 ,서울특별시 용산구 이태원로 252 ,서울특별시 용산구 이태원로 252 ,서울특별시용산구이태원로252,127.001121169955,37.5371093238746
487,용산역써밋R  ,"서울특별시 용산구 한강대로 69 (한강로2가, 용산푸르지오써밋)02-749-3550",서울특별시 용산구 한강대로 69 ,서울특별시 용산구 한강대로 69 ,서울특별시 용산구 한강대로 69 ,서울특별시용산구한강대로69,126.964892469989,37.5270403549192
488,이촌  ,서울특별시 용산구 이촌로 276 (이촌동)02-3785-3518,서울특별시 용산구 이촌로 276 ,서울특별시 용산구 이촌로 276 ,서울특별시 용산구 이촌로 276 ,서울특별시용산구이촌로276,126.977284242085,37.5186434101237
489,신용산역  ,"서울특별시 용산구 한강대로 95 (한강로2가, 래미안용산)02-794-3487",서울특별시 용산구 한강대로 95 ,서울특별시 용산구 한강대로 95 ,서울특별시 용산구 한강대로 95 ,서울특별시용산구한강대로95,126.966653827788,37.5288172261926
490,용산파크타워  ,"서울특별시 용산구 서빙고로 67 (용산동5가, 파크타워)02-3785-3386",서울특별시 용산구 서빙고로 67 ,서울특별시 용산구 서빙고로 67 ,서울특별시 용산구 서빙고로 67 ,서울특별시용산구서빙고로67,126.9704130883,37.5248626041501
491,남영동  ,서울특별시 용산구 한강대로 275 (갈월동)02-3275-3320,서울특별시 용산구 한강대로 275 ,서울특별시 용산구 한강대로 275 ,서울특별시 용산구 한강대로 275 ,서울특별시용산구한강대로275,126.972258188483,37.5428741886045
492,한남동R  ,서울특별시 용산구 독서당로 94 (한남동)070-7831-9088,서울특별시 용산구 독서당로 94 ,서울특별시 용산구 독서당로 94 ,서울특별시 용산구 독서당로 94 ,서울특별시용산구독서당로94,127.010941289571,37.534804631289
493,서울타워  ,서울특별시 용산구 남산공원길 105 (용산동2가) YTN서울타워 1층02-319-3246,서울특별시 용산구 남산공원길 105 ,서울특별시 용산구 남산공원길 105 ,서울특별시 용산구 남산공원길 105 ,서울특별시용산구남산공원길105,126.987862108631,37.5511136342809
494,서울역동자동  ,서울특별시 용산구 한강대로 372 (동자동)02-758-8734,서울특별시 용산구 한강대로 372 ,서울특별시 용산구 한강대로 372 ,서울특별시 용산구 한강대로 372 ,서울특별시용산구한강대로372,126.972921394896,37.5516765755439
495,이태원거리  ,"서울특별시 용산구 이태원로 213, 1,2층 (한남동)02-758-8622","서울특별시 용산구 이태원로 213, 1,2층 ","서울특별시 용산구 이태원로 213, 1,2층 ","서울특별시 용산구 이태원로 213, 1,2층 ","서울특별시용산구이태원로213,1,2층",126.997590953899,37.5350167407272
496,순천향입구  ,서울특별시 용산구 대사관로 67 (한남동)02-758-8600,서울특별시 용산구 대사관로 67 ,서울특별시 용산구 대사관로 67 ,서울특별시 용산구 대사관로 67 ,서울특별시용산구대사관로67,127.005642688719,37.5334204448978
497,숙대  ,서울특별시 용산구 청파로47길 57 (청파동3가)02-758-8191,서울특별시 용산구 청파로47길 57 ,서울특별시 용산구 청파로47길 57 ,서울특별시 용산구 청파로47길 57 ,서울특별시용산구청파로47길57,126.96720410876,37.5446316584312
498,동빙고  ,서울특별시 용산구 장문로 12 (동빙고동)02-798-8262,서울특별시 용산구 장문로 12 ,서울특별시 용산구 장문로 12 ,서울특별시 용산구 장문로 12 ,서울특별시용산구장문로12,126.991804243825,37.5289766234705
499,숙대입구역  ,서울특별시 용산구 한강대로 291 (갈월동)02-758-8377,서울특별시 용산구 한강대로 291 ,서울특별시 용산구 한강대로 291 ,서울특별시 용산구 한강대로 291 ,서울특별시용산구한강대로291,126.971947167766,37.5442395152542
500,용산아이파크몰  ,서울특별시 용산구 한강대로23길 5502-2012-2907,서울특별시 용산구 한강대로23길 5502-2012-2907,서울특별시 용산구 한강대로23길 55,서울특별시 용산구 한강대로23길 55,서울특별시용산구한강대로23길55,126.96474137477,37.529771938775
501,동부이촌동  ,서울특별시 용산구 이촌로 198 (이촌동)02-758-8368,서울특별시 용산구 이촌로 198 ,서울특별시 용산구 이촌로 198 ,서울특별시 용산구 이촌로 198 ,서울특별시용산구이촌로198,126.969056482986,37.5210651517337
502,상봉  ,"서울특별시 중랑구 상봉로 131 (상봉동, 상봉 듀오트리스 주상복합)02-438-5223",서울특별시 중랑구 상봉로 131 ,서울특별시 중랑구 상봉로 131 ,서울특별시 중랑구 상봉로 131 ,서울특별시중랑구상봉로131,127.092177915753,37.5974065395795
503,중랑역  ,서울특별시 중랑구 망우로30길 3 (상봉동)02-758-8935,서울특별시 중랑구 망우로30길 3 ,서울특별시 중랑구 망우로30길 3 ,서울특별시 중랑구 망우로30길 3 ,서울특별시중랑구망우로30길3,127.0747515255,37.5930816731363
504,중랑구청  ,서울특별시 중랑구 신내로 7202-758-8887,서울특별시 중랑구 신내로 7202-758-8887,서울특별시 중랑구 신내로 72,서울특별시 중랑구 신내로 72,서울특별시중랑구신내로72,127.095668294504,37.6054056401992
505,사가정역  ,서울특별시 중랑구 면목로 31002-758-8823,서울특별시 중랑구 면목로 31002-758-8823,서울특별시 중랑구 면목로 310,서울특별시 중랑구 면목로 310,서울특별시중랑구면목로310,127.087975429837,37.5796377491503
506,상봉역  ,"서울특별시 중랑구 망우로 307, ,3,4번지 (상봉동)02-758-8486","서울특별시 중랑구 망우로 307, ,3,4번지 ","서울특별시 중랑구 망우로 307, ,3,4번지 ","서울특별시 중랑구 망우로 307, ,3,4번지 ","서울특별시중랑구망우로307,,3,4번지",127.086470427503,37.5969349255481
507,묵동이마트  ,"서울특별시 중랑구 동일로 932, 묵동이마트 B1층 (묵동)02-758-8370","서울특별시 중랑구 동일로 932, 묵동이마트 B1층 ","서울특별시 중랑구 동일로 932, 묵동이마트 B1층 ","서울특별시 중랑구 동일로 932, 묵동이마트 B1층 ","서울특별시중랑구동일로932,묵동이마트B1층",127.083465375965,37.6192839192368
508,소노캄고양  ,경기도 고양시 일산동구 장항동 1755 031-921-3840,경기도 고양시 일산동구 장항동 1755 031-921-3840,경기도 고양시 일산동구 장항동 1755 031-921-3840,경기도 고양시 일산동구 장항동 1755 ,경기도고양시일산동구장항동1755,126.775515252224,37.6918132193055
509,일산애니골DT  ,경기도 고양시 일산동구 무궁화로 294 (풍동)031-903-3601,경기도 고양시 일산동구 무궁화로 294 ,경기도 고양시 일산동구 무궁화로 294 ,경기도 고양시 일산동구 무궁화로 294 ,경기도고양시일산동구무궁화로294,126.792853120308,37.6744094212056
510,동국대일산병원  ,경기도 고양시 일산동구 식사동 814 경기도 고양시 일산동구 동국로 27031-961-9180,경기도 고양시 일산동구 식사동 814 경기도 고양시 일산동구 동국로 27031-961-9180,경기도 고양시 일산동구 식사동 814 경기도 고양시 일산동구 동국로 27031-961-9180,경기도 고양시 일산동구 식사동 814 경기도 고양시 일산동구 동국로 27,경기도고양시일산동구식사동814경기도고양시일산동구동국로27,126.805564469533,37.6764351441699
511,일산풍동DT  ,경기도 고양시 일산동구 백마로 475 (풍동)031-903-3461,경기도 고양시 일산동구 백마로 475 ,경기도 고양시 일산동구 백마로 475 ,경기도 고양시 일산동구 백마로 475 ,경기도고양시일산동구백마로475,126.800747959385,37.6622187704117
512,백석중앙로  ,경기도 고양시 일산동구 강송로 33 (백석동)031-849-6688,경기도 고양시 일산동구 강송로 33 ,경기도 고양시 일산동구 강송로 33 ,경기도 고양시 일산동구 강송로 33 ,경기도고양시일산동구강송로33,126.792627498736,37.6425474074811
513,일산식사  ,경기도 고양시 일산동구 위시티2로11번길 31 (식사동)031-968-8814,경기도 고양시 일산동구 위시티2로11번길 31 ,경기도 고양시 일산동구 위시티2로11번길 31 ,경기도 고양시 일산동구 위시티2로11번길 31 ,경기도고양시일산동구위시티2로11번길31,126.812161103777,37.6779384517247
514,풍산이마트  ,경기도 고양시 일산동구 무궁화로 237 (중산동)031-977-8795,경기도 고양시 일산동구 무궁화로 237 ,경기도 고양시 일산동구 무궁화로 237 ,경기도 고양시 일산동구 무궁화로 237 ,경기도고양시일산동구무궁화로237,126.787141102328,37.6738534391747
515,백석역DT  ,"경기도 고양시 일산동구 중앙로 1054, 1층 (백석동)031-903-8618","경기도 고양시 일산동구 중앙로 1054, 1층 ","경기도 고양시 일산동구 중앙로 1054, 1층 ","경기도 고양시 일산동구 중앙로 1054, 1층 ","경기도고양시일산동구중앙로1054,1층",126.787402590723,37.6439827822214
516,백석  ,경기도 고양시 일산동구 중앙로 1059 (백석동)031-907-6755,경기도 고양시 일산동구 중앙로 1059 ,경기도 고양시 일산동구 중앙로 1059 ,경기도 고양시 일산동구 중앙로 1059 ,경기도고양시일산동구중앙로1059,126.786162670913,37.6439235498981
517,라페스타광장  ,경기도 고양시 일산동구 중앙로1275번길 38-9 (장항동)031-908-8625,경기도 고양시 일산동구 중앙로1275번길 38-9 ,경기도 고양시 일산동구 중앙로1275번길 38-9 ,경기도 고양시 일산동구 중앙로1275번길 38-9 ,경기도고양시일산동구중앙로1275번길38-9,126.770170415691,37.6596968538659
518,일산백마  ,경기도 고양시 일산동구 일산로 237 (마두동)031-904-7968,경기도 고양시 일산동구 일산로 237 ,경기도 고양시 일산동구 일산로 237 ,경기도 고양시 일산동구 일산로 237 ,경기도고양시일산동구일산로237,126.788082720221,37.6571158703946
519,웨스턴돔B  ,경기도 고양시 일산동구 정발산로 24 (장항동)031-931-5283,경기도 고양시 일산동구 정발산로 24 ,경기도 고양시 일산동구 정발산로 24 ,경기도 고양시 일산동구 정발산로 24 ,경기도고양시일산동구정발산로24,126.772038516196,37.6558969694489
520,마두역  ,경기도 고양시 일산동구 중앙로 1191 (장항동)031-907-6482,경기도 고양시 일산동구 중앙로 1191 ,경기도 고양시 일산동구 중앙로 1191 ,경기도 고양시 일산동구 중앙로 1191 ,경기도고양시일산동구중앙로1191,126.776700540651,37.6529298254898
521,일산동구청  ,"경기도 고양시 일산동구 정발산로 이스턴시티 38번지 116,117호031-904-7521","경기도 고양시 일산동구 정발산로 이스턴시티 38번지 116,117호031-904-7521","경기도 고양시 일산동구 정발산로 이스턴시티 38번지 116,117호031-904-7521","경기도 고양시 일산동구 정발산로 이스턴시티 38번지 116,117호","경기도고양시일산동구정발산로이스턴시티38번지116,117호",126.77313163532,37.6567149021527
522,과천DT  ,경기도 과천시 중앙로 277 (중앙동)02-504-3497,경기도 과천시 중앙로 277 ,경기도 과천시 중앙로 277 ,경기도 과천시 중앙로 277 ,경기도과천시중앙로277,126.993840940321,37.439351800334
523,과천이마트  ,경기도 과천시 별양상가3로 11 이마트 1층(별양동)02-758-8033,경기도 과천시 별양상가3로 11 이마트 1층,경기도 과천시 별양상가3로 11 이마트 1층,경기도 과천시 별양상가3로 11 이마트 1층,경기도과천시별양상가3로11이마트1층,126.991860539473,37.426294925347
524,과천  ,"경기도 과천시 중앙로 129, 고려빌딩 1층 (중앙동)02-758-8369","경기도 과천시 중앙로 129, 고려빌딩 1층 ","경기도 과천시 중앙로 129, 고려빌딩 1층 ","경기도 과천시 중앙로 129, 고려빌딩 1층 ","경기도과천시중앙로129,고려빌딩1층",126.991002096245,37.4283035370879
525,광명하안대로  ,경기도 광명시 범안로 1036 (하안동)02-897-3672,경기도 광명시 범안로 1036 ,경기도 광명시 범안로 1036 ,경기도 광명시 범안로 1036 ,경기도광명시범안로1036,126.878347419703,37.4614486368598
526,철산역  ,경기도 광명시 철산로 15 (철산동)02-3666-9765,경기도 광명시 철산로 15 ,경기도 광명시 철산로 15 ,경기도 광명시 철산로 15 ,경기도광명시철산로15,126.867708637073,37.4764505317797
527,광명역  ,"경기도 광명시 양지로 16 (일직동, 광명역써밋플레이스)02-898-3617",경기도 광명시 양지로 16 ,경기도 광명시 양지로 16 ,경기도 광명시 양지로 16 ,경기도광명시양지로16,126.881448172787,37.4157388027992
528,광명소하DT  ,경기도 광명시 오리로 361 (소하동)02-898-3671,경기도 광명시 오리로 361 ,경기도 광명시 오리로 361 ,경기도 광명시 오리로 361 ,경기도광명시오리로361,126.879187804553,37.4345891711211
529,광명소하  ,경기도 광명시 금하로 464 (소하동)02-897-3386,경기도 광명시 금하로 464 ,경기도 광명시 금하로 464 ,경기도 광명시 금하로 464 ,경기도광명시금하로464,126.884039899789,37.4484549676537
530,광명사거리역  ,경기도 광명시 광명로 907 (광명동)02-2619-3389,경기도 광명시 광명로 907 ,경기도 광명시 광명로 907 ,경기도 광명시 광명로 907 ,경기도광명시광명로907,126.854326205675,37.4799204839095
531,철산로데오  ,경기도 광명시 디지털로 17 (철산1동) 가림빌딩02-2689-3192,경기도 광명시 디지털로 17 ,경기도 광명시 디지털로 17 ,경기도 광명시 디지털로 17 ,경기도광명시디지털로17,126.869364098651,37.4740121973516
532,광명하안  ,경기도 광명시 범안로 1060 (하안동)02-758-8825,경기도 광명시 범안로 1060 ,경기도 광명시 범안로 1060 ,경기도 광명시 범안로 1060 ,경기도광명시범안로1060,126.880521458491,37.4626284849125
533,광명철산  ,경기도 광명시 오리로 865 (철산동)02-2625-5466,경기도 광명시 오리로 865 ,경기도 광명시 오리로 865 ,경기도 광명시 오리로 865 ,경기도광명시오리로865,126.865833672734,37.4752405080697
534,경기광주신현DT  ,경기도 광주시 오포읍 태재로 37 031-717-3566,경기도 광주시 오포읍 태재로 37 031-717-3566,경기도 광주시 오포읍 태재로 37 031-717-3566,경기도 광주시 오포읍 태재로 37 ,경기도광주시오포읍태재로37,127.153195584515,37.3598664308376
535,경기광주송정DT  ,경기도 광주시 송정동 12-12외 1필지 031-767-3767,경기도 광주시 송정동 12-12외 1필지 031-767-3767,경기도 광주시 송정동 12-12외 1필지 031-767-3767,경기도 광주시 송정동 12-12외 1필지 ,경기도광주시송정동12-12외1필지,127.272606981676,37.4162056933626
536,경기광주  ,경기도 광주시 광주대로 35 (경안동)031-765-9893,경기도 광주시 광주대로 35 ,경기도 광주시 광주대로 35 ,경기도 광주시 광주대로 35 ,경기도광주시광주대로35,127.26020784074,37.4097371791156
537,구리갈매역  ,경기 구리시 경춘북로252 A101 031-572-3631,경기 구리시 경춘북로252 A101 031-572-3631,경기 구리시 경춘북로252 A101 031-572-3631,경기 구리시 경춘북로252 A101 ,경기도구리시경춘북로252A101,127.116454252999,37.6348858482206
538,구리인창  ,"경기도 구리시 건원대로 67, 1층 (인창동)031-568-8682","경기도 구리시 건원대로 67, 1층 ","경기도 구리시 건원대로 67, 1층 ","경기도 구리시 건원대로 67, 1층 ","경기도구리시건원대로67,1층",127.138885965765,37.6069383722952
539,구리돌다리  ,"경기도 구리시 검배로 5, 우진빌딩 (수택동)031-567-8593","경기도 구리시 검배로 5, 우진빌딩 ","경기도 구리시 검배로 5, 우진빌딩 ","경기도 구리시 검배로 5, 우진빌딩 ","경기도구리시검배로5,우진빌딩",127.141939839299,37.6006202266267
540,산본사거리  ,경기도 군포시 고산로701 031-392-3638,경기도 군포시 고산로701 031-392-3638,경기도 군포시 고산로701 031-392-3638,경기도 군포시 고산로701 ,경기도군포시고산로701,126.935799601599,37.3724621040123
541,산본  ,"경기도 군포시 산본로343번길 9, 성진빌딩 1층 (산본동)031-391-8216","경기도 군포시 산본로343번길 9, 성진빌딩 1층 ","경기도 군포시 산본로343번길 9, 성진빌딩 1층 ","경기도 군포시 산본로343번길 9, 성진빌딩 1층 ","경기도군포시산본로343번길9,성진빌딩1층",126.931757341579,37.3606233779157
542,산본역  ,"경기도 군포시 번영로 497, 금화프라자 1층 (산본동)031-392-8435","경기도 군포시 번영로 497, 금화프라자 1층 ","경기도 군포시 번영로 497, 금화프라자 1층 ","경기도 군포시 번영로 497, 금화프라자 1층 ","경기도군포시번영로497,금화프라자1층",126.932291313118,37.3583207620267
543,산본동  ,"경기도 군포시 산본로 398, 태주빌딩 2층031-398-9447","경기도 군포시 산본로 398, 태주빌딩 2층031-398-9447","경기도 군포시 산본로 398, 태주빌딩 2층031-398-9447","경기도 군포시 산본로 398, 태주빌딩 2층","경기도군포시산본로398,태주빌딩2층",126.92943586078,37.3654965772082
544,남양주연평DT  ,경기 남양주시 진접읍 해밀예당1로27 031-529-3642,경기 남양주시 진접읍 해밀예당1로27 031-529-3642,경기 남양주시 진접읍 해밀예당1로27 031-529-3642,경기 남양주시 진접읍 해밀예당1로27 ,경기도남양주시진접읍해밀예당1로27,127.185535829442,37.7115562617936
545,남양주진접DT  ,경기도 남양주시 진접읍 금강로 1477 031-529-3287,경기도 남양주시 진접읍 금강로 1477 031-529-3287,경기도 남양주시 진접읍 금강로 1477 031-529-3287,경기도 남양주시 진접읍 금강로 1477 ,경기도남양주시진접읍금강로1477,127.190254604083,37.7228612468544
546,리버사이드팔당DTR  ,경기도 남양주시 와부읍 경강로 772 031-577-3227,경기도 남양주시 와부읍 경강로 772 031-577-3227,경기도 남양주시 와부읍 경강로 772 031-577-3227,경기도 남양주시 와부읍 경강로 772 ,경기도남양주시와부읍경강로772,127.228390978528,37.5671110132793
547,별내불암로  ,경기도 남양주시 별내5로5번길 15 (별내동)031-575-3328,경기도 남양주시 별내5로5번길 15 ,경기도 남양주시 별내5로5번길 15 ,경기도 남양주시 별내5로5번길 15 ,경기도남양주시별내5로5번길15,127.112442870677,37.6504130053717
548,평내DT  ,경기도 남양주시 경춘로 1269031-591-5938,경기도 남양주시 경춘로 1269031-591-5938,경기도 남양주시 경춘로 1269031-591-5938,경기도 남양주시 경춘로 1269,경기도남양주시경춘로1269,127.234717125142,37.6477159809728
550,평내호평역  ,"경기도 남양주시 늘을1로16번길 25, 성보빌딩 (호평동)031-595-4597","경기도 남양주시 늘을1로16번길 25, 성보빌딩 ","경기도 남양주시 늘을1로16번길 25, 성보빌딩 ","경기도 남양주시 늘을1로16번길 25, 성보빌딩 ","경기도남양주시늘을1로16번길25,성보빌딩",127.242900225318,37.6540739524269
552,중동이마트  ,경기도 부천시 원미구 석천로 188 (중동)032-327-3356,경기도 부천시 원미구 석천로 188 ,경기도 부천시 원미구 석천로 188 ,경기도 부천시 원미구 석천로 188 ,경기도부천시원미구석천로188,126.763949494459,37.5040640888792
553,현대중동  ,"경기도 부천시 원미구 길주로 180, 현대백화점부천중동점 중동점 지하1층 (중동)032-623-2872","경기도 부천시 원미구 길주로 180, 현대백화점부천중동점 중동점 지하1층 ","경기도 부천시 원미구 길주로 180, 현대백화점부천중동점 중동점 지하1층 ","경기도 부천시 원미구 길주로 180, 현대백화점부천중동점 중동점 지하1층 ","경기도부천시원미구길주로180,현대백화점부천중동점중동점지하1층",126.762083746178,37.5043172637385
554,부천플레이도시  ,경기도 부천시 원미구 조마루로 2 (상동)032-220-7988,경기도 부천시 원미구 조마루로 2 ,경기도 부천시 원미구 조마루로 2 ,경기도 부천시 원미구 조마루로 2 ,경기도부천시원미구조마루로2,126.745359117645,37.4988260569402
555,송내역  ,"경기도 부천시 원미구 부일로 204, 루치올라빌딩 (상동)032-323-8434","경기도 부천시 원미구 부일로 204, 루치올라빌딩 ","경기도 부천시 원미구 부일로 204, 루치올라빌딩 ","경기도 부천시 원미구 부일로 204, 루치올라빌딩 ","경기도부천시원미구부일로204,루치올라빌딩",126.752604198778,37.488347804392
556,부천  ,"경기도 부천시 원미구 부천로 7, 1,2층 (심곡동)032-612-8531","경기도 부천시 원미구 부천로 7, 1,2층 ","경기도 부천시 원미구 부천로 7, 1,2층 ","경기도 부천시 원미구 부천로 7, 1,2층 ","경기도부천시원미구부천로7,1,2층",126.782097054336,37.4850695223997
557,부천상동  ,경기도 부천시 원미구 상동로 87 (상동)032-325-8433,경기도 부천시 원미구 상동로 87 ,경기도 부천시 원미구 상동로 87 ,경기도 부천시 원미구 상동로 87 ,경기도부천시원미구상동로87,126.752414777175,37.5052231584905
558,판교유스페이스  ,경기도 성남시 분당구 대왕판교로 660 (삼평동)031-724-2501,경기도 성남시 분당구 대왕판교로 660 ,경기도 성남시 분당구 대왕판교로 660 ,경기도 성남시 분당구 대왕판교로 660 ,경기도성남시분당구대왕판교로660,127.106812760285,37.4004660372417
559,판교알파돔타워  ,경기도 성남시 분당구 판교역로 152 (백현동)031-622-7191,경기도 성남시 분당구 판교역로 152 ,경기도 성남시 분당구 판교역로 152 ,경기도 성남시 분당구 판교역로 152 ,경기도성남시분당구판교역로152,127.110365762629,37.3942604618252
560,판교아비뉴프랑R  ,"경기도 성남시 분당구 동판교로177번길 25 (삼평동, 판교 호반 써밋 플레이스)031-702-3603",경기도 성남시 분당구 동판교로177번길 25 ,경기도 성남시 분당구 동판교로177번길 25 ,경기도 성남시 분당구 동판교로177번길 25 ,경기도성남시분당구동판교로177번길25,127.113562077843,37.3973210308099
561,야탑터미널  ,경기도 성남시 분당구 성남대로925번길 16 (야탑동)031-705-3449,경기도 성남시 분당구 성남대로925번길 16 ,경기도 성남시 분당구 성남대로925번길 16 ,경기도 성남시 분당구 성남대로925번길 16 ,경기도성남시분당구성남대로925번길16,127.127280909733,37.4130895763684
562,분당이매  ,경기도 성남시 분당구 이매로 15 (이매동)031-8017-3439,경기도 성남시 분당구 이매로 15 ,경기도 성남시 분당구 이매로 15 ,경기도 성남시 분당구 이매로 15 ,경기도성남시분당구이매로15,127.122395936924,37.3950150037624
563,분당율동공원  ,경기도 성남시 분당구 새마을로175번길 4 (율동)031-703-3403,경기도 성남시 분당구 새마을로175번길 4 ,경기도 성남시 분당구 새마을로175번길 4 ,경기도 성남시 분당구 새마을로175번길 4 ,경기도성남시분당구새마을로175번길4,127.149987786809,37.3838833139553
564,정자동  ,경기도 성남시 분당구 정자로 82 (정자동)031-712-3290,경기도 성남시 분당구 정자로 82 ,경기도 성남시 분당구 정자로 82 ,경기도 성남시 분당구 정자로 82 ,경기도성남시분당구정자로82,127.11406328309,37.3631818356424
565,판교알파돔시티  ,경기도 성남시 분당구 대왕판교로606번길 10 (백현동 알파돔시티)031-703-3531,경기도 성남시 분당구 대왕판교로606번길 10 ,경기도 성남시 분당구 대왕판교로606번길 10 ,경기도 성남시 분당구 대왕판교로606번길 10 ,경기도성남시분당구대왕판교로606번길10,127.107662343759,37.3958436253462
566,서판교  ,경기도 성남시 분당구 운중로 132 (운중동)031-8017-1927,경기도 성남시 분당구 운중로 132 ,경기도 성남시 분당구 운중로 132 ,경기도 성남시 분당구 운중로 132 ,경기도성남시분당구운중로132,127.077732598423,37.3912989982645
567,판교브릿지타워  ,경기도 성남시 분당구 판교로 227번길 6 (삼평동)031-8016-6912,경기도 성남시 분당구 판교로 227번길 6 ,경기도 성남시 분당구 판교로 227번길 6 ,경기도 성남시 분당구 판교로 227번길 6 ,경기도성남시분당구판교로227번길6,127.099241124389,37.4030354073725
568,판교봇들마을  ,경기도 성남시 분당구 판교로 372 (삼평동)031-8017-7902,경기도 성남시 분당구 판교로 372 ,경기도 성남시 분당구 판교로 372 ,경기도 성남시 분당구 판교로 372 ,경기도성남시분당구판교로372,127.115680970023,37.4037164426927
569,판교역로  ,경기도 성남시 분당구 판교역로 192번길 14 (삼평동)031-8017-7589,경기도 성남시 분당구 판교역로 192번길 14 ,경기도 성남시 분당구 판교역로 192번길 14 ,경기도 성남시 분당구 판교역로 192번길 14 ,경기도성남시분당구판교역로192번길14,127.111411609657,37.3973826681385
570,서현  ,경기도 성남시 분당구 황새울로360번길 19 (서현동) 금화빌딩031-8017-8773,경기도 성남시 분당구 황새울로360번길 19 ,경기도 성남시 분당구 황새울로360번길 19 ,경기도 성남시 분당구 황새울로360번길 19 ,경기도성남시분당구황새울로360번길19,127.125940714122,37.3858908010466
571,판교역  ,"경기도 성남시 분당구 대왕판교로606번길 58, 판교푸르지오월드마크 1층 (삼평동)031-8016-5666","경기도 성남시 분당구 대왕판교로606번길 58, 판교푸르지오월드마크 1층 ","경기도 성남시 분당구 대왕판교로606번길 58, 판교푸르지오월드마크 1층 ","경기도 성남시 분당구 대왕판교로606번길 58, 판교푸르지오월드마크 1층 ","경기도성남시분당구대왕판교로606번길58,판교푸르지오월드마크1층",127.11355488453,37.3954213550966
572,미금역사거리  ,경기도 성남시 분당구 성남대로 151 (구미동)031-724-1337,경기도 성남시 분당구 성남대로 151 ,경기도 성남시 분당구 성남대로 151 ,경기도 성남시 분당구 성남대로 151 ,경기도성남시분당구성남대로151,127.108275958193,37.3492825936934
573,수내로  ,경기도 성남시 분당구 수내로46번길 12 (수내동) 코아빌딩031-715-9708,경기도 성남시 분당구 수내로46번길 12 ,경기도 성남시 분당구 수내로46번길 12 ,경기도 성남시 분당구 수내로46번길 12 ,경기도성남시분당구수내로46번길12,127.116596294899,37.3804041051098
574,정자역  ,경기도 성남시 분당구 성남대로343번길 12-2 (정자동)031-719-1945,경기도 성남시 분당구 성남대로343번길 12-2 ,경기도 성남시 분당구 성남대로343번길 12-2 ,경기도 성남시 분당구 성남대로343번길 12-2 ,경기도성남시분당구성남대로343번길12-2,127.106737221772,37.3668014501204
575,분당구청  ,경기도 성남시 분당구 분당로 43 (서현동)031-708-6758,경기도 성남시 분당구 분당로 43 ,경기도 성남시 분당구 분당로 43 ,경기도 성남시 분당구 분당로 43 ,경기도성남시분당구분당로43,127.120269286445,37.3840733929173
576,뉴코아야탑  ,"경기도 성남시 분당구 야탑로81번길 11, 뉴코아 야탑점 아울렛 1층 (야탑동)031-702-0385","경기도 성남시 분당구 야탑로81번길 11, 뉴코아 야탑점 아울렛 1층 ","경기도 성남시 분당구 야탑로81번길 11, 뉴코아 야탑점 아울렛 1층 ","경기도 성남시 분당구 야탑로81번길 11, 뉴코아 야탑점 아울렛 1층 ","경기도성남시분당구야탑로81번길11,뉴코아야탑점아울렛1층",127.127485776748,37.4109393608164
577,미금역  ,경기도 성남시 분당구 돌마로 43 (금곡동) 메디파크빌딩031-714-9753,경기도 성남시 분당구 돌마로 43 ,경기도 성남시 분당구 돌마로 43 ,경기도 성남시 분당구 돌마로 43 ,경기도성남시분당구돌마로43,127.106673400215,37.3503589369673
578,수내  ,"경기도 성남시 분당구 황새울로 234, 분당트라팰리스 (수내동)031-718-2079","경기도 성남시 분당구 황새울로 234, 분당트라팰리스 ","경기도 성남시 분당구 황새울로 234, 분당트라팰리스 ","경기도 성남시 분당구 황새울로 234, 분당트라팰리스 ","경기도성남시분당구황새울로234,분당트라팰리스",127.114236474382,37.3795334502818
579,정자상떼뷰  ,"경기도 성남시 분당구 정자일로213번길 18, 201동 101호(정자동, 성원상떼뷰)031-714-8264","경기도 성남시 분당구 정자일로213번길 18, 201동 101호","경기도 성남시 분당구 정자일로213번길 18, 201동 101호","경기도 성남시 분당구 정자일로213번길 18, 201동 101호","경기도성남시분당구정자일로213번길18,201동101호",127.105626305641,37.3702940281821
580,서현미래에셋  ,"경기도 성남시 분당구 황새울로359번길 11, 미래에셋빌딩 1층 (서현동)031-705-8247","경기도 성남시 분당구 황새울로359번길 11, 미래에셋빌딩 1층 ","경기도 성남시 분당구 황새울로359번길 11, 미래에셋빌딩 1층 ","경기도 성남시 분당구 황새울로359번길 11, 미래에셋빌딩 1층 ","경기도성남시분당구황새울로359번길11,미래에셋빌딩1층",127.123290392747,37.3879961213452
581,야탑글라스  ,경기도 성남시 분당구 성남대로916번길 11 (야탑동)031-8016-8416,경기도 성남시 분당구 성남대로916번길 11 ,경기도 성남시 분당구 성남대로916번길 11 ,경기도 성남시 분당구 성남대로916번길 11 ,경기도성남시분당구성남대로916번길11,127.129840836301,37.4108566201163
582,정자  ,"경기도 성남시 분당구 정자일로 166, SPG센터 (정자동)031-8022-8559","경기도 성남시 분당구 정자일로 166, SPG센터 ","경기도 성남시 분당구 정자일로 166, SPG센터 ","경기도 성남시 분당구 정자일로 166, SPG센터 ","경기도성남시분당구정자일로166,SPG센터",127.106305383486,37.3648845777774
583,분당서울대병원4  ,"경기도 성남시 분당구 구미로173번길 82, 분당서울대학교병원 신관 4층 (구미동)031-716-6583","경기도 성남시 분당구 구미로173번길 82, 분당서울대학교병원 신관 4층 ","경기도 성남시 분당구 구미로173번길 82, 분당서울대학교병원 신관 4층 ","경기도 성남시 분당구 구미로173번길 82, 분당서울대학교병원 신관 4층 ","경기도성남시분당구구미로173번길82,분당서울대학교병원신관4층",127.124485702342,37.352025791507
584,분당서울대병원1  ,"경기도 성남시 분당구 구미로173번길 82, 분당서울대학교병원 신관 1층 (구미동)031-715-6581","경기도 성남시 분당구 구미로173번길 82, 분당서울대학교병원 신관 1층 ","경기도 성남시 분당구 구미로173번길 82, 분당서울대학교병원 신관 1층 ","경기도 성남시 분당구 구미로173번길 82, 분당서울대학교병원 신관 1층 ","경기도성남시분당구구미로173번길82,분당서울대학교병원신관1층",127.124485702342,37.352025791507
585,서현N타운  ,경기도 성남시 분당구 황새울로335번길 5 (서현동)031-696-1203,경기도 성남시 분당구 황새울로335번길 5 ,경기도 성남시 분당구 황새울로335번길 5 ,경기도 성남시 분당구 황새울로335번길 5 ,경기도성남시분당구황새울로335번길5,127.121696776866,37.386048562835
586,서현역  ,"경기도 성남시 분당구 서현로210번길 20, 1층 (서현동)031-8016-7387","경기도 성남시 분당구 서현로210번길 20, 1층 ","경기도 성남시 분당구 서현로210번길 20, 1층 ","경기도 성남시 분당구 서현로210번길 20, 1층 ","경기도성남시분당구서현로210번길20,1층",127.124037460183,37.3858577241564
587,오리역  ,"경기도 성남시 분당구 성남대로 32, 1층 (구미동)031-719-8349","경기도 성남시 분당구 성남대로 32, 1층 ","경기도 성남시 분당구 성남대로 32, 1층 ","경기도 성남시 분당구 성남대로 32, 1층 ","경기도성남시분당구성남대로32,1층",127.109348547723,37.3386622374522
588,분당정자  ,"경기도 성남시 분당구 성남대로 393, 두산위브파빌리온 1층 (정자동)031-784-9670","경기도 성남시 분당구 성남대로 393, 두산위브파빌리온 1층 ","경기도 성남시 분당구 성남대로 393, 두산위브파빌리온 1층 ","경기도 성남시 분당구 성남대로 393, 두산위브파빌리온 1층 ","경기도성남시분당구성남대로393,두산위브파빌리온1층",127.107171517339,37.3716366392394
589,수내역  ,"경기도 성남시 분당구 백현로101번길 30, 1-2층 (수내동)031-714-8308","경기도 성남시 분당구 백현로101번길 30, 1-2층 ","경기도 성남시 분당구 백현로101번길 30, 1-2층 ","경기도 성남시 분당구 백현로101번길 30, 1-2층 ","경기도성남시분당구백현로101번길30,1-2층",127.113816348135,37.3777596960524
590,정자아데나  ,경기도 성남시 분당구 성남대로 275 (정자동)031-715-9461,경기도 성남시 분당구 성남대로 275 ,경기도 성남시 분당구 성남대로 275 ,경기도 성남시 분당구 성남대로 275 ,경기도성남시분당구성남대로275,127.107614312727,37.3608891347842
591,분당이마트  ,경기도 성남시 분당구 불정로 134 (정자동)031-716-8397,경기도 성남시 분당구 불정로 134 ,경기도 성남시 분당구 불정로 134 ,경기도 성남시 분당구 불정로 134 ,경기도성남시분당구불정로134,127.119757951156,37.3587970252487
592,판교H스퀘어  ,"경기도 성남시 분당구 판교역로 231, 에이치스퀘어 (삼평동)031-8018-4436","경기도 성남시 분당구 판교역로 231, 에이치스퀘어 ","경기도 성남시 분당구 판교역로 231, 에이치스퀘어 ","경기도 성남시 분당구 판교역로 231, 에이치스퀘어 ","경기도성남시분당구판교역로231,에이치스퀘어",127.108653756675,37.4012686910146
593,오리역삼거리  ,경기도 성남시 분당구 성남대로 45 (구미동)031-714-9525,경기도 성남시 분당구 성남대로 45 ,경기도 성남시 분당구 성남대로 45 ,경기도 성남시 분당구 성남대로 45 ,경기도성남시분당구성남대로45,127.108397976345,37.3400538989812
594,판교HIPEX  ,"경기도 성남시 분당구 판교역로 230, 판교 삼환 HIPEX (삼평동)031-696-0308","경기도 성남시 분당구 판교역로 230, 판교 삼환 HIPEX ","경기도 성남시 분당구 판교역로 230, 판교 삼환 HIPEX ","경기도 성남시 분당구 판교역로 230, 판교 삼환 HIPEX ","경기도성남시분당구판교역로230,판교삼환HIPEX",127.110455793215,37.4012848271698
595,남한산성입구역  ,경기도 성남시 중원구 산성대로426번길 2 (금광동)031-734-3765,경기도 성남시 중원구 산성대로426번길 2 ,경기도 성남시 중원구 산성대로426번길 2 ,경기도 성남시 중원구 산성대로426번길 2 ,경기도성남시중원구산성대로426번길2,127.159444805427,37.449669670956
596,단대오거리역  ,경기도 성남시 중원구 산성대로 340-1 (중앙동)031-743-8830,경기도 성남시 중원구 산성대로 340-1 ,경기도 성남시 중원구 산성대로 340-1 ,경기도 성남시 중원구 산성대로 340-1 ,경기도성남시중원구산성대로340-1,127.154588968496,37.4433640127087
597,수원금곡  ,경기도 수원시 권선구 금곡로 219 (금곡동)031-291-3846,경기도 수원시 권선구 금곡로 219 ,경기도 수원시 권선구 금곡로 219 ,경기도 수원시 권선구 금곡로 219 ,경기도수원시권선구금곡로219,126.954079523017,37.2750024263713
598,수원호매실  ,"경기도 수원시 권선구 서수원로577번길 305 (금곡동, 수원모아미래도센트럴타운2단지)031-292-3615",경기도 수원시 권선구 서수원로577번길 305 ,경기도 수원시 권선구 서수원로577번길 305 ,경기도 수원시 권선구 서수원로577번길 305 ,경기도수원시권선구서수원로577번길305,126.939918275556,37.2755346151219
599,수원권선DT  ,경기도 수원시 권선구 매송고색로 543 (오목천동)031-295-3425,경기도 수원시 권선구 매송고색로 543 ,경기도 수원시 권선구 매송고색로 543 ,경기도 수원시 권선구 매송고색로 543 ,경기도수원시권선구매송고색로543,126.964034265957,37.2466822627272
600,수원권선  ,경기도 수원시 권선구 동수원로177번길 40 (권선동)031-222-3468,경기도 수원시 권선구 동수원로177번길 40 ,경기도 수원시 권선구 동수원로177번길 40 ,경기도 수원시 권선구 동수원로177번길 40 ,경기도수원시권선구동수원로177번길40,127.030795117673,37.2465712612492
601,수원이마트  ,경기도 수원시 권선구 경수대로 270 (권선동)031-207-1268,경기도 수원시 권선구 경수대로 270 ,경기도 수원시 권선구 경수대로 270 ,경기도 수원시 권선구 경수대로 270 ,경기도수원시권선구경수대로270,127.020116752016,37.2497734948076
602,수원시청  ,경기도 수원시 권선구 효원로 274 (권선동)031-238-8392,경기도 수원시 권선구 효원로 274 ,경기도 수원시 권선구 효원로 274 ,경기도 수원시 권선구 효원로 274 ,경기도수원시권선구효원로274,127.031228083252,37.2614290658
603,수원연무DT  ,경기도 수원시 장안구 창룡대로 171 (연무동)031-245-3715,경기도 수원시 장안구 창룡대로 171 ,경기도 수원시 장안구 창룡대로 171 ,경기도 수원시 장안구 창룡대로 171 ,경기도수원시장안구창룡대로171,127.028714362787,37.2922230958338
604,북수원IC DT  ,경기도 수원시 장안구 경수대로 1038 (파장동)031-251-3550,경기도 수원시 장안구 경수대로 1038 ,경기도 수원시 장안구 경수대로 1038 ,경기도 수원시 장안구 경수대로 1038 ,경기도수원시장안구경수대로1038,126.998604897333,37.3077508974391
605,수원천천  ,경기도 수원시 장안구 덕영대로535번길 46 (천천동)031-269-3597,경기도 수원시 장안구 덕영대로535번길 46 ,경기도 수원시 장안구 덕영대로535번길 46 ,경기도 수원시 장안구 덕영대로535번길 46 ,경기도수원시장안구덕영대로535번길46,126.982698301806,37.2973062989703
606,수원성균관대  ,"경기도 수원시 장안구 서부로 2131, 1층 4,5,6호 2층1,2호 (율전동)031-292-7571","경기도 수원시 장안구 서부로 2131, 1층 4,5,6호 2층1,2호 ","경기도 수원시 장안구 서부로 2131, 1층 4,5,6호 2층1,2호 ","경기도 수원시 장안구 서부로 2131, 1층 4,5,6호 2층1,2호 ","경기도수원시장안구서부로2131,1층4,5,6호2층1,2호",126.971575085157,37.2989697947393
607,수원KBS DT  ,경기도 수원시 팔달구 권광로 265 (인계동)031-215-3477,경기도 수원시 팔달구 권광로 265 ,경기도 수원시 팔달구 권광로 265 ,경기도 수원시 팔달구 권광로 265 ,경기도수원시팔달구권광로265,127.035194055475,37.2710975544803
608,수원인계DT  ,경기도 수원시 팔달구 인계로94번길 3 (인계동)031-236-2801,경기도 수원시 팔달구 인계로94번길 3 ,경기도 수원시 팔달구 인계로94번길 3 ,경기도 수원시 팔달구 인계로94번길 3 ,경기도수원시팔달구인계로94번길3,127.027959970759,37.2679355060384
609,수원이비스  ,경기도 수원시 팔달구 권광로 132 (인계동)031-224-5877,경기도 수원시 팔달구 권광로 132 ,경기도 수원시 팔달구 권광로 132 ,경기도 수원시 팔달구 권광로 132 ,경기도수원시팔달구권광로132,127.031315034584,37.2592266706805
610,수원매산  ,경기도 수원시 팔달구 매산로 11 (매산로1가)031-243-1972,경기도 수원시 팔달구 매산로 11 ,경기도 수원시 팔달구 매산로 11 ,경기도 수원시 팔달구 매산로 11 ,경기도수원시팔달구매산로11,127.002725278192,37.2674456825952
611,동수원DT  ,경기도 수원시 팔달구 중부대로 161 (우만동)031-212-4969,경기도 수원시 팔달구 중부대로 161 ,경기도 수원시 팔달구 중부대로 161 ,경기도 수원시 팔달구 중부대로 161 ,경기도수원시팔달구중부대로161,127.033913221335,37.2780658759264
612,수원인계  ,경기도 수원시 팔달구 권광로 199 (인계동)031-226-8544,경기도 수원시 팔달구 권광로 199 ,경기도 수원시 팔달구 권광로 199 ,경기도 수원시 팔달구 권광로 199 ,경기도수원시팔달구권광로199,127.032906320696,37.2655404700517
614,배곧신도시  ,"경기도 시흥시 서울대학로278번길 43-13 (정왕동) 106호, 107호, 108호031-498-3519",경기도 시흥시 서울대학로278번길 43-13 ,경기도 시흥시 서울대학로278번길 43-13 ,경기도 시흥시 서울대학로278번길 43-13 ,경기도시흥시서울대학로278번길43-13,126.730191092191,37.3692259591191
615,시흥대야  ,경기도 시흥시 비둘기공원로 10 (대야동)031-435-3497,경기도 시흥시 비둘기공원로 10 ,경기도 시흥시 비둘기공원로 10 ,경기도 시흥시 비둘기공원로 10 ,경기도시흥시비둘기공원로10,126.7907680787,37.4439502086611
616,시흥P.아울렛 3F  ,경기도 시흥시 서해안로 699 (정왕동)031-8072-3672,경기도 시흥시 서해안로 699 ,경기도 시흥시 서해안로 699 ,경기도 시흥시 서해안로 699 ,경기도시흥시서해안로699,126.736985600812,37.3796762434751
617,시흥P.아울렛 1F  ,경기도 시흥시 서해안로 699 (정왕동)031-8072-3638,경기도 시흥시 서해안로 699 ,경기도 시흥시 서해안로 699 ,경기도 시흥시 서해안로 699 ,경기도시흥시서해안로699,126.736985600812,37.3796762434751
618,시화로데오  ,경기도 시흥시 중심상가2길 20-5 (정왕동)031-434-8550,경기도 시흥시 중심상가2길 20-5 ,경기도 시흥시 중심상가2길 20-5 ,경기도 시흥시 중심상가2길 20-5 ,경기도시흥시중심상가2길20-5,126.737337838558,37.3446705227425
619,안산고잔센트럴타워  ,경기도 안산시 단원구 고잔로 72 (고잔동)031-405-3597,경기도 안산시 단원구 고잔로 72 ,경기도 안산시 단원구 고잔로 72 ,경기도 안산시 단원구 고잔로 72 ,경기도안산시단원구고잔로72,126.834250883436,37.3189546387929
620,안산상공회의소  ,경기도 안산시 단원구 적금로 120 (고잔동)031-414-3437,경기도 안산시 단원구 적금로 120 ,경기도 안산시 단원구 적금로 120 ,경기도 안산시 단원구 적금로 120 ,경기도안산시단원구적금로120,126.826380458229,37.3186148943519
621,고잔이마트  ,경기도 안산시 단원구 원포공원1로 46 (초지동) 이마트031-405-9839,경기도 안산시 단원구 원포공원1로 46 ,경기도 안산시 단원구 원포공원1로 46 ,경기도 안산시 단원구 원포공원1로 46 ,경기도안산시단원구원포공원1로46,126.812920452915,37.3031149220165
622,안산문화광장  ,"경기도 안산시 단원구 광덕대로 154, ,771-4 로데오타운1층 (고잔동)031-405-0678","경기도 안산시 단원구 광덕대로 154, ,771-4 로데오타운1층 ","경기도 안산시 단원구 광덕대로 154, ,771-4 로데오타운1층 ","경기도 안산시 단원구 광덕대로 154, ,771-4 로데오타운1층 ","경기도안산시단원구광덕대로154,,771-4로데오타운1층",126.830734849974,37.3101700696234
623,안산중앙  ,"경기도 안산시 단원구 고잔로 102, 스타타워 1층 (고잔동)031-410-9658","경기도 안산시 단원구 고잔로 102, 스타타워 1층 ","경기도 안산시 단원구 고잔로 102, 스타타워 1층 ","경기도 안산시 단원구 고잔로 102, 스타타워 1층 ","경기도안산시단원구고잔로102,스타타워1층",126.837623122758,37.3187346987807
624,안산중앙역  ,경기도 안산시 단원구 중앙대로 907 (고잔동)031-439-8214,경기도 안산시 단원구 중앙대로 907 ,경기도 안산시 단원구 중앙대로 907 ,경기도 안산시 단원구 중앙대로 907 ,경기도안산시단원구중앙대로907,126.837735883585,37.3173787554988
625,안산트레이더스  ,경기도 안산시 단원구 중앙대로 397 (신길동)031-494-4507,경기도 안산시 단원구 중앙대로 397 ,경기도 안산시 단원구 중앙대로 397 ,경기도 안산시 단원구 중앙대로 397 ,경기도안산시단원구중앙대로397,126.785003951466,37.3311795635698
626,안성석정DT  ,경기도 안성시 중앙로 308 (석정동)031-671-3610,경기도 안성시 중앙로 308 ,경기도 안성시 중앙로 308 ,경기도 안성시 중앙로 308 ,경기도안성시중앙로308,127.262105922629,37.0104472746016
627,안성공도DT  ,경기도 안성시 공도읍 서동대로 4489 031-652-3645,경기도 안성시 공도읍 서동대로 4489 031-652-3645,경기도 안성시 공도읍 서동대로 4489 031-652-3645,경기도 안성시 공도읍 서동대로 4489 ,경기도안성시공도읍서동대로4489,127.20076633975,37.0094430945124
628,안성중앙로  ,"경기도 안성시 중앙로 395, 1층 1~2층 (대천동)031-671-9565","경기도 안성시 중앙로 395, 1층 1~2층 ","경기도 안성시 중앙로 395, 1층 1~2층 ","경기도 안성시 중앙로 395, 1층 1~2층 ","경기도안성시중앙로395,1층1~2층",127.270778313139,37.0075223122101
629,안양운동장사거리DT  ,경기도 안양시 동안구 관악대로 234 (비산동)031-387-3537,경기도 안양시 동안구 관악대로 234 ,경기도 안양시 동안구 관악대로 234 ,경기도 안양시 동안구 관악대로 234 ,경기도안양시동안구관악대로234,126.949238509611,37.401187937427
630,범계역  ,경기도 안양시 동안구 시민대로 180 (호계동)031-340-8940,경기도 안양시 동안구 시민대로 180 ,경기도 안양시 동안구 시민대로 180 ,경기도 안양시 동안구 시민대로 180 ,경기도안양시동안구시민대로180,126.950421205734,37.3899848841699
631,안양호계DT  ,경기도 안양시 동안구 엘에스로 23-8 (호계동)031-451-3254,경기도 안양시 동안구 엘에스로 23-8 ,경기도 안양시 동안구 엘에스로 23-8 ,경기도 안양시 동안구 엘에스로 23-8 ,경기도안양시동안구엘에스로23-8,126.955984456542,37.3664904133684
632,평촌호계  ,경기도 안양시 동안구 평촌대로 123 (호계동)031-476-3325,경기도 안양시 동안구 평촌대로 123 ,경기도 안양시 동안구 평촌대로 123 ,경기도 안양시 동안구 평촌대로 123 ,경기도안양시동안구평촌대로123,126.959671834272,37.383005816769
633,평촌로데오  ,경기도 안양시 동안구 관평로 182 (관양동)031-388-6889,경기도 안양시 동안구 관평로 182 ,경기도 안양시 동안구 관평로 182 ,경기도 안양시 동안구 관평로 182 ,경기도안양시동안구관평로182,126.960715876702,37.3929764350275
634,평촌역사거리  ,경기도 안양시 동안구 시민대로 311 금강스마트 빌딩 1층(관양동1746)031-426-8918,경기도 안양시 동안구 시민대로 311 금강스마트 빌딩 1층,경기도 안양시 동안구 시민대로 311 금강스마트 빌딩 1층,경기도 안양시 동안구 시민대로 311 금강스마트 빌딩 1층,경기도안양시동안구시민대로311금강스마트빌딩1층,126.964662669781,37.3960792259202
635,안양비산DT  ,경기도 안양시 동안구 경수대로 821 (비산동)031-441-8940,경기도 안양시 동안구 경수대로 821 ,경기도 안양시 동안구 경수대로 821 ,경기도 안양시 동안구 경수대로 821 ,경기도안양시동안구경수대로821,126.94296340297,37.3926303980756
636,평촌아크로  ,"경기도 안양시 동안구 시민대로 230, 평촌아크로타워상가동 2층 8호 (관양동)031-387-8201","경기도 안양시 동안구 시민대로 230, 평촌아크로타워상가동 2층 8호 ","경기도 안양시 동안구 시민대로 230, 평촌아크로타워상가동 2층 8호 ","경기도 안양시 동안구 시민대로 230, 평촌아크로타워상가동 2층 8호 ","경기도안양시동안구시민대로230,평촌아크로타워상가동2층8호",126.956515967927,37.3923127248776
637,범계로데오  ,경기도 안양시 동안구 평촌대로 223 (호계동)031-381-8399,경기도 안양시 동안구 평촌대로 223 ,경기도 안양시 동안구 평촌대로 223 ,경기도 안양시 동안구 평촌대로 223 ,경기도안양시동안구평촌대로223,126.955110715894,37.3914589677294
638,인덕원역  ,"경기도 안양시 동안구 흥안대로 519, 아이퍼스트타워 1~2층 (관양동)031-425-7566","경기도 안양시 동안구 흥안대로 519, 아이퍼스트타워 1~2층 ","경기도 안양시 동안구 흥안대로 519, 아이퍼스트타워 1~2층 ","경기도 안양시 동안구 흥안대로 519, 아이퍼스트타워 1~2층 ","경기도안양시동안구흥안대로519,아이퍼스트타워1~2층",126.976163213994,37.4003165267524
639,안양역R  ,경기도 안양시 만안구 만안로 232 (안양동) 안양민자역사 1층 001호031-5177-6131,경기도 안양시 만안구 만안로 232 ,경기도 안양시 만안구 만안로 232 ,경기도 안양시 만안구 만안로 232 ,경기도안양시만안구만안로232,126.923002981072,37.401434634351
640,안양역  ,경기도 안양시 만안구 장내로 149번길 (안양동)53031-441-8960,경기도 안양시 만안구 장내로 149번길 ,경기도 안양시 만안구 장내로 149번길 ,경기도 안양시 만안구 장내로 149번길 ,경기도안양시만안구장내로149번길,126.923809723277,37.3984425952262
641,안양석수DT  ,경기도 안양시 만안구 경수대로 1397 (석수동)031-474-8928,경기도 안양시 만안구 경수대로 1397 ,경기도 안양시 만안구 경수대로 1397 ,경기도 안양시 만안구 경수대로 1397 ,경기도안양시만안구경수대로1397,126.903495329664,37.4310130689341
642,안양일번가  ,경기도 안양시 만안구 안양로292번길 36 (안양동)031-443-0346,경기도 안양시 만안구 안양로292번길 36 ,경기도 안양시 만안구 안양로292번길 36 ,경기도 안양시 만안구 안양로292번길 36 ,경기도안양시만안구안양로292번길36,126.923718490098,37.399198219819
643,양주옥정타운  ,경기도 양주시 회천남로 76 (옥정동)031-863-3781,경기도 양주시 회천남로 76 ,경기도 양주시 회천남로 76 ,경기도 양주시 회천남로 76 ,경기도양주시회천남로76,127.094053266286,37.8185530100367
645,양주덕정역DT  ,경기도 양주시 독바위로 35 (덕정동)031-862-3668,경기도 양주시 독바위로 35 ,경기도 양주시 독바위로 35 ,경기도 양주시 독바위로 35 ,경기도양주시독바위로35,127.062985246065,37.8382571385674
646,양주광사DT  ,경기도 양주시 부흥로 1872 (광사동)031-821-3545,경기도 양주시 부흥로 1872 ,경기도 양주시 부흥로 1872 ,경기도 양주시 부흥로 1872 ,경기도양주시부흥로1872,127.07279005628,37.7907353747306
647,양주고읍  ,경기도 양주시 고읍남로 20 (광사동)031-821-8952,경기도 양주시 고읍남로 20 ,경기도 양주시 고읍남로 20 ,경기도 양주시 고읍남로 20 ,경기도양주시고읍남로20,127.079128693567,37.7946698980175
648,북오산IC DT  ,경기도 오산시 문시로 109-2 031-376-3948,경기도 오산시 문시로 109-2 031-376-3948,경기도 오산시 문시로 109-2 031-376-3948,경기도 오산시 문시로 109-2 ,경기도오산시문시로109-2,127.058814216348,37.1898861087165
649,오산갈곶DT  ,"경기도 오산시 경기대로 50, B동 (갈곶동)031-376-3561","경기도 오산시 경기대로 50, B동 ","경기도 오산시 경기대로 50, B동 ","경기도 오산시 경기대로 50, B동 ","경기도오산시경기대로50,B동",127.071291974868,37.1290054935272
650,오산IC DT  ,경기도 오산시 원동로 74(원동)031-374-7904,경기도 오산시 원동로 74,경기도 오산시 원동로 74,경기도 오산시 원동로 74,경기도오산시원동로74,127.07685526026,37.1424430525348
651,오산시청  ,경기도 오산시 운천로 61031-376-8872,경기도 오산시 운천로 61031-376-8872,경기도 오산시 운천로 61031-376-8872,경기도 오산시 운천로 61,경기도오산시운천로61,127.074318643478,37.1482762145397
653,기흥역AK R  ,"경기도 용인시 기흥구 기흥역로 63 (구갈동, 기흥역 힐스테이트)031-282-3715",경기도 용인시 기흥구 기흥역로 63 ,경기도 용인시 기흥구 기흥역로 63 ,경기도 용인시 기흥구 기흥역로 63 ,경기도용인시기흥구기흥역로63,127.117742489967,37.2753252186231
654,용인보라DT  ,경기도 용인시 기흥구 용구대로 1877 (보라동)031-282-3551,경기도 용인시 기흥구 용구대로 1877 ,경기도 용인시 기흥구 용구대로 1877 ,경기도 용인시 기흥구 용구대로 1877 ,경기도용인시기흥구용구대로1877,127.104378464667,37.2555914714038
655,용인동백DT  ,경기도 용인시 기흥구 어정로 102 (상하동)031-283-3248,경기도 용인시 기흥구 어정로 102 ,경기도 용인시 기흥구 어정로 102 ,경기도 용인시 기흥구 어정로 102 ,경기도용인시기흥구어정로102,127.141241614542,37.2745920166213
656,용인마북DT  ,경기도 용인시 기흥구 용구대로 2330031-284-2958,경기도 용인시 기흥구 용구대로 2330031-284-2958,경기도 용인시 기흥구 용구대로 2330031-284-2958,경기도 용인시 기흥구 용구대로 2330,경기도용인시기흥구용구대로2330,127.110361036715,37.2946630949236
657,용인기흥구청  ,경기도 용인시 기흥구 구갈로 71-18 (신갈동)031-282-5766,경기도 용인시 기흥구 구갈로 71-18 ,경기도 용인시 기흥구 구갈로 71-18 ,경기도 용인시 기흥구 구갈로 71-18 ,경기도용인시기흥구구갈로71-18,127.110736163098,37.2819366539479
658,수원IC DT  ,경기도 용인시 기흥구 중부대로 56031-273-8703,경기도 용인시 기흥구 중부대로 56031-273-8703,경기도 용인시 기흥구 중부대로 56031-273-8703,경기도 용인시 기흥구 중부대로 56,경기도용인시기흥구중부대로56,127.074487073448,37.2671585616589
660,구성트레이더스  ,경기도 용인시 기흥구 용구대로 2457 (보정동)031-286-7352,경기도 용인시 기흥구 용구대로 2457 ,경기도 용인시 기흥구 용구대로 2457 ,경기도 용인시 기흥구 용구대로 2457 ,경기도용인시기흥구용구대로2457,127.104658204227,37.3041290765324
661,강남대  ,"경기도 용인시 기흥구 강남로 3, 강남&플러스 1층(구갈동)031-283-8335","경기도 용인시 기흥구 강남로 3, 강남&플러스 1층","경기도 용인시 기흥구 강남로 3, 강남&플러스 1층","경기도 용인시 기흥구 강남로 3, 강남&플러스 1층","경기도용인시기흥구강남로3,강남&플러스1층",127.126133171929,37.2710511837533
662,용인김량장DT  ,경기도 용인시 처인구 백옥대로 1174 (김량장동)031-334-3687,경기도 용인시 처인구 백옥대로 1174 ,경기도 용인시 처인구 백옥대로 1174 ,경기도 용인시 처인구 백옥대로 1174 ,경기도용인시처인구백옥대로1174,127.210562666217,37.2395809313986
664,용인시청DT  ,경기도 용인시 처인구 중부대로 1130031-322-3248,경기도 용인시 처인구 중부대로 1130031-322-3248,경기도 용인시 처인구 중부대로 1130031-322-3248,경기도 용인시 처인구 중부대로 1130,경기도용인시처인구중부대로1130,127.170984038515,37.2403508608952
665,용인처인구청  ,경기도 용인시 처인구 금령로 60 (김량장동)031-339-8634,경기도 용인시 처인구 금령로 60 ,경기도 용인시 처인구 금령로 60 ,경기도 용인시 처인구 금령로 60 ,경기도용인시처인구금령로60,127.2029887302,37.2346416859119
666,의왕포일  ,경기도 의왕시 안양판교로 89 (포일동)031-423-3378,경기도 의왕시 안양판교로 89 ,경기도 의왕시 안양판교로 89 ,경기도 의왕시 안양판교로 89 ,경기도의왕시안양판교로89,126.984397874644,37.3961545794548
667,의정부예술의전당DT  ,경기도 의정부시 경의로 31 (의정부동)031-837-3571,경기도 의정부시 경의로 31 ,경기도 의정부시 경의로 31 ,경기도 의정부시 경의로 31 ,경기도의정부시경의로31,127.038736320635,37.7330554923488
669,의정부용현DT  ,경기도 의정부시 시민로 468 (용현동)031-841-3503,경기도 의정부시 시민로 468 ,경기도 의정부시 시민로 468 ,경기도 의정부시 시민로 468 ,경기도의정부시시민로468,127.084232935565,37.7303742989853
670,의정부공원  ,경기도 의정부시 평화로 540 (의정부동)031-847-3509,경기도 의정부시 평화로 540 ,경기도 의정부시 평화로 540 ,경기도 의정부시 평화로 540 ,경기도의정부시평화로540,127.047781134394,37.7400769650591
671,의정부민락  ,경기도 의정부시 천보로 68 (민락동)031-851-3372,경기도 의정부시 천보로 68 ,경기도 의정부시 천보로 68 ,경기도 의정부시 천보로 68 ,경기도의정부시천보로68,127.094116610383,37.7454529312432
672,의정부회룡역DT  ,경기도 의정부시 평화로 341 (호원동)031-875-3312,경기도 의정부시 평화로 341 ,경기도 의정부시 평화로 341 ,경기도 의정부시 평화로 341 ,경기도의정부시평화로341,127.047605715181,37.7223911406423
673,의정부녹양DT  ,경기도 의정부시 비우로 119 (가능동)031-871-8995,경기도 의정부시 비우로 119 ,경기도 의정부시 비우로 119 ,경기도 의정부시 비우로 119 ,경기도의정부시비우로119,127.040241839801,37.758566524115
674,의정부금오  ,"경기도 의정부시 청사로48번길 7, 대송프라자 (금오동)031-853-3640","경기도 의정부시 청사로48번길 7, 대송프라자 ","경기도 의정부시 청사로48번길 7, 대송프라자 ","경기도 의정부시 청사로48번길 7, 대송프라자 ","경기도의정부시청사로48번길7,대송프라자",127.070481806423,37.7529189183987
675,신세계의정부2F  ,"경기도 의정부시 평화로 525, 신세계백화점 2층 (의정부동)031-8082-0255","경기도 의정부시 평화로 525, 신세계백화점 2층 ","경기도 의정부시 평화로 525, 신세계백화점 2층 ","경기도 의정부시 평화로 525, 신세계백화점 2층 ","경기도의정부시평화로525,신세계백화점2층",127.045546473685,37.7399883331588
676,신세계의정부6F  ,"경기도 의정부시 평화로 525, 신세계백화점 6층 (의정부동)031-8082-0630","경기도 의정부시 평화로 525, 신세계백화점 6층 ","경기도 의정부시 평화로 525, 신세계백화점 6층 ","경기도 의정부시 평화로 525, 신세계백화점 6층 ","경기도의정부시평화로525,신세계백화점6층",127.045546473685,37.7399883331588
678,이천사음DT  ,경기도 이천시 경충대로 3045 (사음동)031-638-3407,경기도 이천시 경충대로 3045 ,경기도 이천시 경충대로 3045 ,경기도 이천시 경충대로 3045 ,경기도이천시경충대로3045,127.408010635448,37.2990410425762
679,이천하이닉스  ,"경기도 이천시 부발읍 경충대로 2100, 외 101호,102호,201호031-635-8651","경기도 이천시 부발읍 경충대로 2100, 외 101호,102호,201호031-635-8651","경기도 이천시 부발읍 경충대로 2100, 외 101호,102호,201호031-635-8651","경기도 이천시 부발읍 경충대로 2100, 외 101호,102호,201호","경기도이천시부발읍경충대로2100,외101호,102호,201호",127.489944991097,37.2525099918949
680,마장휴게소  ,경기도 이천시 중부대로 중부고속도로 82031-637-9488,경기도 이천시 중부대로 중부고속도로 82031-637-9488,경기도 이천시 중부대로 중부고속도로 82031-637-9488,경기도 이천시 중부대로 중부고속도로 82,경기도이천시중부대로중부고속도로82,127.408482658964,37.262745371916
681,이천터미널  ,경기도 이천시 중리천로 84 (중리동)031-637-8464,경기도 이천시 중리천로 84 ,경기도 이천시 중리천로 84 ,경기도 이천시 중리천로 84 ,경기도이천시중리천로84,127.446349202679,37.278220954057
682,포천DT  ,경기도 포천시 호국로 925 (선단동)031-543-3457,경기도 포천시 호국로 925 ,경기도 포천시 호국로 925 ,경기도 포천시 호국로 925 ,경기도포천시호국로925,127.161804355197,37.8483705978934
683,포천송우  ,"경기도 포천시 소흘읍 솔모루로 55, 뉴스토리솔모루빌딩031-542-9632","경기도 포천시 소흘읍 솔모루로 55, 뉴스토리솔모루빌딩031-542-9632","경기도 포천시 소흘읍 솔모루로 55, 뉴스토리솔모루빌딩031-542-9632","경기도 포천시 소흘읍 솔모루로 55, 뉴스토리솔모루빌딩","경기도포천시소흘읍솔모루로55,뉴스토리솔모루빌딩",127.144597660046,37.8273509346225
684,하남미사DT  ,경기도 하남시 미사강변남로 35 (망월동)031-792-3644,경기도 하남시 미사강변남로 35 ,경기도 하남시 미사강변남로 35 ,경기도 하남시 미사강변남로 35 ,경기도하남시미사강변남로35,127.185781275214,37.5599702314973
686,미사역효성  ,경기도 하남시 아리수로 570 (망월동)031-792-3712,경기도 하남시 아리수로 570 ,경기도 하남시 아리수로 570 ,경기도 하남시 아리수로 570 ,경기도하남시아리수로570,127.190410748592,37.5668147214638
687,하남덕풍  ,경기도 하남시 덕풍동 741-2 하남풍산메트하임031-793-3746,경기도 하남시 덕풍동 741-2 하남풍산메트하임031-793-3746,경기도 하남시 덕풍동 741-2 하남풍산메트하임031-793-3746,경기도 하남시 덕풍동 741-2 하남풍산메트하임,경기도하남시덕풍동741-2하남풍산메트하임,127.209166557502,37.5522390453019
688,하남미사  ,경기도 하남시 미사강변북로30번길 130 (망월동)031-794-3396,경기도 하남시 미사강변북로30번길 130 ,경기도 하남시 미사강변북로30번길 130 ,경기도 하남시 미사강변북로30번길 130 ,경기도하남시미사강변북로30번길130,127.183308180233,37.5696261299439
689,스타필드하남1F(티바나)  ,경기도 하남시 미사대로 750 (신장동)031-8072-8283,경기도 하남시 미사대로 750 ,경기도 하남시 미사대로 750 ,경기도 하남시 미사대로 750 ,경기도하남시미사대로750,127.223740574788,37.5454361471982
690,신세계하남2F  ,경기도 하남시 미사대로 750 (신장동)031-8072-1898,경기도 하남시 미사대로 750 ,경기도 하남시 미사대로 750 ,경기도 하남시 미사대로 750 ,경기도하남시미사대로750,127.223740574788,37.5454361471982
691,스타필드하남2FR  ,경기도 하남시 미사대로 750 (신장동)031-8072-8339,경기도 하남시 미사대로 750 ,경기도 하남시 미사대로 750 ,경기도 하남시 미사대로 750 ,경기도하남시미사대로750,127.223740574788,37.5454361471982
692,하남신장  ,경기도 하남시 신장로 130031-793-7866,경기도 하남시 신장로 130031-793-7866,경기도 하남시 신장로 130031-793-7866,경기도 하남시 신장로 130,경기도하남시신장로130,127.203980578304,37.5383767875302
693,하남시청  ,경기도 하남시 대청로 34 (신장동)031-795-8724,경기도 하남시 대청로 34 ,경기도 하남시 대청로 34 ,경기도 하남시 대청로 34 ,경기도하남시대청로34,127.215980733513,37.5405222863883
694,화성시청  ,경기도 화성시 남양읍 시청로 113 031-357-3260,경기도 화성시 남양읍 시청로 113 031-357-3260,경기도 화성시 남양읍 시청로 113 031-357-3260,경기도 화성시 남양읍 시청로 113 ,경기도화성시남양읍시청로113,126.826080054314,37.2008920976595
695,화성봉담  ,경기도 화성시 봉담읍 동화길 51 031-227-3841,경기도 화성시 봉담읍 동화길 51 031-227-3841,경기도 화성시 봉담읍 동화길 51 031-227-3841,경기도 화성시 봉담읍 동화길 51 ,경기도화성시봉담읍동화길51,126.955490505189,37.2190312551577
696,화성향남  ,경기도 화성시 향남읍 발안로 111 031-366-5483,경기도 화성시 향남읍 발안로 111 031-366-5483,경기도 화성시 향남읍 발안로 111 031-366-5483,경기도 화성시 향남읍 발안로 111 ,경기도화성시향남읍발안로111,126.922769996025,37.1316835209228
697,동탄카림R  ,"경기도 화성시 동탄대로시범길 134 (청계동, 시범 반도유보라 아이비파크4.0)031-377-3594",경기도 화성시 동탄대로시범길 134 ,경기도 화성시 동탄대로시범길 134 ,경기도 화성시 동탄대로시범길 134 ,경기도화성시동탄대로시범길134,127.114338636471,37.1987356285873
698,동탄능동DT  ,경기도 화성시 동탄지성로 201 (능동)031-226-3528,경기도 화성시 동탄지성로 201 ,경기도 화성시 동탄지성로 201 ,경기도 화성시 동탄지성로 201 ,경기도화성시동탄지성로201,127.05376466981,37.2118704921475
699,동탄역  ,경기도 화성시 동탄대로 495 (오산동)031-373-3484,경기도 화성시 동탄대로 495 ,경기도 화성시 동탄대로 495 ,경기도 화성시 동탄대로 495 ,경기도화성시동탄대로495,127.098240388928,37.1979519887233
701,동탄영천  ,경기도 화성시 동탄순환대로 692 (영천동)031-378-3290,경기도 화성시 동탄순환대로 692 ,경기도 화성시 동탄순환대로 692 ,경기도 화성시 동탄순환대로 692 ,경기도화성시동탄순환대로692,127.11141409767,37.2067868990445
702,신영통DT  ,경기도 화성시 영통로 43 (반월동)031-203-6994,경기도 화성시 영통로 43 ,경기도 화성시 영통로 43 ,경기도 화성시 영통로 43 ,경기도화성시영통로43,127.06297285649,37.2343892114572
703,동탄센트럴파크  ,경기도 화성시 동탄지성로 104 센트럴파티오031-613-4542,경기도 화성시 동탄지성로 104 센트럴파티오031-613-4542,경기도 화성시 동탄지성로 104 센트럴파티오031-613-4542,경기도 화성시 동탄지성로 104 센트럴파티오,경기도화성시동탄지성로104센트럴파티오,127.063882402385,37.2083431235746
704,동탄  ,"경기도 화성시 메타폴리스로 54, 동탄파라곤2상가 (반송동)031-8015-3584","경기도 화성시 메타폴리스로 54, 동탄파라곤2상가 ","경기도 화성시 메타폴리스로 54, 동탄파라곤2상가 ","경기도 화성시 메타폴리스로 54, 동탄파라곤2상가 ","경기도화성시메타폴리스로54,동탄파라곤2상가",127.073229749277,37.2016188851826
705,동탄광장  ,"경기도 화성시 동탄지성로 17, 풍성 위버폴리스  (반송동)031-613-8162","경기도 화성시 동탄지성로 17, 풍성 위버폴리스  ","경기도 화성시 동탄지성로 17, 풍성 위버폴리스  ","경기도 화성시 동탄지성로 17, 풍성 위버폴리스  ","경기도화성시동탄지성로17,풍성위버폴리스",127.072045129434,37.2046140374071
706,동탄이마트  ,"경기도 화성시 동탄중앙로 376, 동탄이마트 1층 (석우동)031-8015-5391","경기도 화성시 동탄중앙로 376, 동탄이마트 1층 ","경기도 화성시 동탄중앙로 376, 동탄이마트 1층 ","경기도 화성시 동탄중앙로 376, 동탄이마트 1층 ","경기도화성시동탄중앙로376,동탄이마트1층",127.07972303748,37.2143756127258
707,원흥역  ,경기도 고양시 덕양구 원흥5로 25 031-966-3818,경기도 고양시 덕양구 원흥5로 25 031-966-3818,경기도 고양시 덕양구 원흥5로 25 031-966-3818,경기도 고양시 덕양구 원흥5로 25 ,경기도고양시덕양구원흥5로25,126.876545526196,37.648615656659
708,스타필드고양3F(티바나)  ,경기도 고양시 덕양구 고양대로 1955 (동산동)031-5173-3028,경기도 고양시 덕양구 고양대로 1955 ,경기도 고양시 덕양구 고양대로 1955 ,경기도 고양시 덕양구 고양대로 1955 ,경기도고양시덕양구고양대로1955,126.894778331605,37.6469767164876
709,스타필드고양1FR  ,경기도 고양시 덕양구 고양대로 1955 (동산동)031-5173-1038,경기도 고양시 덕양구 고양대로 1955 ,경기도 고양시 덕양구 고양대로 1955 ,경기도 고양시 덕양구 고양대로 1955 ,경기도고양시덕양구고양대로1955,126.894778331605,37.6469767164876
710,스타필드고양1F고메스트리트  ,경기도 고양시 덕양구 고양대로 1955 (동산동)031-5173-1065,경기도 고양시 덕양구 고양대로 1955 ,경기도 고양시 덕양구 고양대로 1955 ,경기도 고양시 덕양구 고양대로 1955 ,경기도고양시덕양구고양대로1955,126.894778331605,37.6469767164876
712,고양삼송  ,경기도 고양시 덕양구 신원동 628-202-371-3271,경기도 고양시 덕양구 신원동 628-202-371-3271,경기도 고양시 덕양구 신원동 628-2,경기도 고양시 덕양구 신원동 628-2,경기도고양시덕양구신원동628-2,126.891219837213,37.6637022572556
713,고양DT  ,경기도 고양시 덕양구 호국로 1775 (고양동)031-965-4579,경기도 고양시 덕양구 호국로 1775 ,경기도 고양시 덕양구 호국로 1775 ,경기도 고양시 덕양구 호국로 1775 ,경기도고양시덕양구호국로1775,126.905334670197,37.7095678019694
714,행신역  ,경기도 고양시 덕양구 충장로 14 (행신동)031-973-3234,경기도 고양시 덕양구 충장로 14 ,경기도 고양시 덕양구 충장로 14 ,경기도 고양시 덕양구 충장로 14 ,경기도고양시덕양구충장로14,126.83447576178,37.6140360948661
715,원당DT  ,경기도 고양시 덕양구 호국로 811 (주교동)031-965-7850,경기도 고양시 덕양구 호국로 811 ,경기도 고양시 덕양구 호국로 811 ,경기도 고양시 덕양구 호국로 811 ,경기도고양시덕양구호국로811,126.837601127664,37.6582121980252
716,화정  ,경기도 고양시 덕양구 화신로272번길 57 (화정동)031-938-8338,경기도 고양시 덕양구 화신로272번길 57 ,경기도 고양시 덕양구 화신로272번길 57 ,경기도 고양시 덕양구 화신로272번길 57 ,경기도고양시덕양구화신로272번길57,126.831450009614,37.6335452662097
717,화정역  ,경기도 고양시 덕양구 화신로260번길 57 (화정동)031-973-8530,경기도 고양시 덕양구 화신로260번길 57 ,경기도 고양시 덕양구 화신로260번길 57 ,경기도 고양시 덕양구 화신로260번길 57 ,경기도고양시덕양구화신로260번길57,126.832746281223,37.6336236292428
718,성남위례  ,경기도 성남시 수정구 위례광장로 104 (창곡동)031-751-3485,경기도 성남시 수정구 위례광장로 104 ,경기도 성남시 수정구 위례광장로 104 ,경기도 성남시 수정구 위례광장로 104 ,경기도성남시수정구위례광장로104,127.141262845732,37.473051447474
719,성남이마트  ,경기도 성남시 수정구 수정로 201 (태평1동) 신세계쉐덴031-751-3219,경기도 성남시 수정구 수정로 201 ,경기도 성남시 수정구 수정로 201 ,경기도 성남시 수정구 수정로 201 ,경기도성남시수정구수정로201,127.141410829994,37.4442869791018
720,여주DT  ,경기도 여주시 세종로 358 (점봉동)_1031-883-3561,경기도 여주시 세종로 358 ,경기도 여주시 세종로 358 ,경기도 여주시 세종로 358 ,경기도여주시세종로358,127.638483172045,37.2660992104547
723,평택비전  ,경기도 평택시 비전5로 20-24 (비전동)031-618-3761,경기도 평택시 비전5로 20-24 ,경기도 평택시 비전5로 20-24 ,경기도 평택시 비전5로 20-24 ,경기도평택시비전5로20-24,127.114166784911,36.998875051389
724,평택서정DT  ,경기도 평택시 경기대로 1353 (서정동)031-664-3646,경기도 평택시 경기대로 1353 ,경기도 평택시 경기대로 1353 ,경기도 평택시 경기대로 1353 ,경기도평택시경기대로1353,127.063540175973,37.0659824865651
725,평택안중DT  ,경기도 평택시 안중읍 서동대로 1459 031-683-3730,경기도 평택시 안중읍 서동대로 1459 031-683-3730,경기도 평택시 안중읍 서동대로 1459 031-683-3730,경기도 평택시 안중읍 서동대로 1459 ,경기도평택시안중읍서동대로1459,126.91349171527,36.9908777264512
726,평택로데오  ,경기도 평택시 중앙2로 13 (평택동)031-651-3959,경기도 평택시 중앙2로 13 ,경기도 평택시 중앙2로 13 ,경기도 평택시 중앙2로 13 ,경기도평택시중앙2로13,127.088529104683,36.9919684925561
727,평택AK플라자  ,경기도 평택시 평택로 51 (평택동) 평택역031-646-6150,경기도 평택시 평택로 51 ,경기도 평택시 평택로 51 ,경기도 평택시 평택로 51 ,경기도평택시평택로51,127.085275381151,36.9908799515851
728,평택송탄  ,경기도 평택시 관광특구로 38 (서정동)031-611-8614,경기도 평택시 관광특구로 38 ,경기도 평택시 관광특구로 38 ,경기도 평택시 관광특구로 38 ,경기도평택시관광특구로38,127.062976253742,37.0664875523512
729,일산가로수길R  ,경기도 고양시 일산서구 대화동 1050-185031-929-5315,경기도 고양시 일산서구 대화동 1050-185031-929-5315,경기도 고양시 일산서구 대화동 1050-185031-929-5315,경기도 고양시 일산서구 대화동 1050-185,경기도고양시일산서구대화동1050-185,126.756441332726,37.6660107254356
730,일산가구단지  ,경기도 고양시 일산서구 하이파크2로 67 (덕이동)031-919-3453,경기도 고양시 일산서구 하이파크2로 67 ,경기도 고양시 일산서구 하이파크2로 67 ,경기도 고양시 일산서구 하이파크2로 67 ,경기도고양시일산서구하이파크2로67,126.756701399591,37.6995614938661
731,일산덕이DT  ,경기도 고양시 일산서구 탄중로 106 (덕이동)031-919-3353,경기도 고양시 일산서구 탄중로 106 ,경기도 고양시 일산서구 탄중로 106 ,경기도 고양시 일산서구 탄중로 106 ,경기도고양시일산서구탄중로106,126.756974848296,37.6919121142669
732,일산후곡  ,경기도 고양시 일산서구 일산로 541 (일산동)031-921-8919,경기도 고양시 일산서구 일산로 541 ,경기도 고양시 일산서구 일산로 541 ,경기도 고양시 일산서구 일산로 541 ,경기도고양시일산서구일산로541,126.767582723072,37.6774278452623
733,킨텍스이마트  ,경기도 고양시 일산서구 대화동 킨텍스로 171031-912-8924,경기도 고양시 일산서구 대화동 킨텍스로 171031-912-8924,경기도 고양시 일산서구 대화동 킨텍스로 171031-912-8924,경기도 고양시 일산서구 대화동 킨텍스로 171,경기도고양시일산서구대화동킨텍스로171,126.744065273108,37.6615829495128
734,일산탄현  ,경기도 고양시 일산서구 일현로 97-11 (일산위브더제니스스퀘어1동147~151)031-913-8712,경기도 고양시 일산서구 일현로 97-11 ,경기도 고양시 일산서구 일현로 97-11 ,경기도 고양시 일산서구 일현로 97-11 ,경기도고양시일산서구일현로97-11,126.762892542544,37.6950802524058
735,대화역  ,"경기도 고양시 일산서구 중앙로 1559, 시티타워 1~2층 (대화동)031-918-8674","경기도 고양시 일산서구 중앙로 1559, 시티타워 1~2층 ","경기도 고양시 일산서구 중앙로 1559, 시티타워 1~2층 ","경기도 고양시 일산서구 중앙로 1559, 시티타워 1~2층 ","경기도고양시일산서구중앙로1559,시티타워1~2층",126.748206392426,37.6754209897235
736,일산주엽  ,"경기도 고양시 일산서구 중앙로 1420, 1층 (주엽동)031-911-8660","경기도 고양시 일산서구 중앙로 1420, 1층 ","경기도 고양시 일산서구 중앙로 1420, 1층 ","경기도 고양시 일산서구 중앙로 1420, 1층 ","경기도고양시일산서구중앙로1420,1층",126.762673055424,37.6699174596907
737,주엽사거리  ,"경기도 고양시 일산서구 중앙로 1456, 서현프라자 112호 ,113호,114호 (주엽동)031-913-8206","경기도 고양시 일산서구 중앙로 1456, 서현프라자 112호 ,113호,114호 ","경기도 고양시 일산서구 중앙로 1456, 서현프라자 112호 ,113호,114호 ","경기도 고양시 일산서구 중앙로 1456, 서현프라자 112호 ,113호,114호 ","경기도고양시일산서구중앙로1456,서현프라자112호,113호,114호",126.758974401766,37.6715582987041
738,김포아이앤씨  ,경기도 김포시 태장로 779 (장기동)031-987-3827,경기도 김포시 태장로 779 ,경기도 김포시 태장로 779 ,경기도 김포시 태장로 779 ,경기도김포시태장로779,126.680625328449,37.6388110789812
739,김포구래  ,"경기도 김포시 김포한강4로 487 (구래동, 한강신도시 반도유보라 4차)031-985-3653",경기도 김포시 김포한강4로 487 ,경기도 김포시 김포한강4로 487 ,경기도 김포시 김포한강4로 487 ,경기도김포시김포한강4로487,126.62949509501,37.6460001811211
740,김포장기커낼  ,"경기도 김포시 김포한강2로 41 (장기동, E편한세상 캐널시티)031-986-3530",경기도 김포시 김포한강2로 41 ,경기도 김포시 김포한강2로 41 ,경기도 김포시 김포한강2로 41 ,경기도김포시김포한강2로41,126.677496466106,37.6401525552184
741,김포감정DT  ,경기도 김포시 중봉로 27 (감정동)031-987-3418,경기도 김포시 중봉로 27 ,경기도 김포시 중봉로 27 ,경기도 김포시 중봉로 27 ,경기도김포시중봉로27,126.696487229392,37.6247648898929
742,김포운양  ,경기도 김포시 김포한강11로 288-32031-989-4922,경기도 김포시 김포한강11로 288-32031-989-4922,경기도 김포시 김포한강11로 288-32031-989-4922,경기도 김포시 김포한강11로 288-32,경기도김포시김포한강11로288-32,126.684172801086,37.6543035007154
743,김포이마트  ,경기도 김포시 김포한강7로 71031-996-3065,경기도 김포시 김포한강7로 71031-996-3065,경기도 김포시 김포한강7로 71031-996-3065,경기도 김포시 김포한강7로 71,경기도김포시김포한강7로71,126.628286055566,37.6443395884089
745,김포시청  ,경기도 김포시 사우중로 35 (사우동)031-985-6745,경기도 김포시 사우중로 35 ,경기도 김포시 사우중로 35 ,경기도 김포시 사우중로 35 ,경기도김포시사우중로35,126.717930222872,37.6184239243201
746,김포장기  ,"경기도 김포시 김포한강4로 117, 홍우프라자 102~105호 (장기동)031-998-7586","경기도 김포시 김포한강4로 117, 홍우프라자 102~105호 ","경기도 김포시 김포한강4로 117, 홍우프라자 102~105호 ","경기도 김포시 김포한강4로 117, 홍우프라자 102~105호 ","경기도김포시김포한강4로117,홍우프라자102~105호",126.667974629127,37.6441755270579
747,스타필드부천  ,경기도 부천시 옥길동 768 스타필드시티부천 02-6386-1161,경기도 부천시 옥길동 768 스타필드시티부천 02-6386-1161,경기도 부천시 옥길동 768 스타필드시티부천 ,경기도 부천시 옥길동 768 스타필드시티부천 ,경기도부천시옥길동768스타필드시티부천,126.81391781609,37.4614958196571
748,부천심곡DT  ,경기도 부천시 부천로 97 (심곡동)032-611-3414,경기도 부천시 부천로 97 ,경기도 부천시 부천로 97 ,경기도 부천시 부천로 97 ,경기도부천시부천로97,126.784398311467,37.4929060295244
749,뉴코아부천4층  ,경기도 부천시 송내대로 239 (상동)032-624-7342,경기도 부천시 송내대로 239 ,경기도 부천시 송내대로 239 ,경기도 부천시 송내대로 239 ,경기도부천시송내대로239,126.756706400388,37.504146093246
750,부천중동DT  ,경기도 부천시 부흥로 193 (중동)032-614-3212,경기도 부천시 부흥로 193 ,경기도 부천시 부흥로 193 ,경기도 부천시 부흥로 193 ,경기도부천시부흥로193,126.764291089813,37.4963473498334
751,부천신중동역  ,경기도 부천시 길주로 281 (중동) 동화빌딩032-322-4921,경기도 부천시 길주로 281 ,경기도 부천시 길주로 281 ,경기도 부천시 길주로 281 ,경기도부천시길주로281,126.774155700837,37.5038039324552
752,부천중동  ,경기도 부천시 신흥로 161 (중동)032-322-6730,경기도 부천시 신흥로 161 ,경기도 부천시 신흥로 161 ,경기도 부천시 신흥로 161 ,경기도부천시신흥로161,126.777041534529,37.4980000953587
753,부천시청역  ,"경기도 부천시 길주로 181, 102,103,104,110,111,112호 (중동)032-327-9646","경기도 부천시 길주로 181, 102,103,104,110,111,112호 ","경기도 부천시 길주로 181, 102,103,104,110,111,112호 ","경기도 부천시 길주로 181, 102,103,104,110,111,112호 ","경기도부천시길주로181,102,103,104,110,111,112호",126.762632606129,37.5053110907029
754,수원법조타운  ,경기도 수원시 영통구 광교중앙로248번길 7-2 (하동)031-213-3682,경기도 수원시 영통구 광교중앙로248번길 7-2 ,경기도 수원시 영통구 광교중앙로248번길 7-2 ,경기도 수원시 영통구 광교중앙로248번길 7-2 ,경기도수원시영통구광교중앙로248번길7-2,127.066670297781,37.2910330008666
755,광교역  ,경기도 수원시 영통구 대학로 47 (이의동)031-217-3676,경기도 수원시 영통구 대학로 47 ,경기도 수원시 영통구 대학로 47 ,경기도 수원시 영통구 대학로 47 ,경기도수원시영통구대학로47,127.044027838053,37.3005172789136
756,광교엘포트R  ,경기도 수원시 영통구 광교중앙로 145 (이의동)031-217-3654,경기도 수원시 영통구 광교중앙로 145 ,경기도 수원시 영통구 광교중앙로 145 ,경기도 수원시 영통구 광교중앙로 145 ,경기도수원시영통구광교중앙로145,127.057781296726,37.2870869122438
757,영통R  ,경기도 수원시 영통구 덕영대로 1566 (영통동)031-204-3648,경기도 수원시 영통구 덕영대로 1566 ,경기도 수원시 영통구 덕영대로 1566 ,경기도 수원시 영통구 덕영대로 1566 ,경기도수원시영통구덕영대로1566,127.06189889324,37.2451299231361
758,수원망포DT  ,경기도 수원시 영통구 덕영대로 1467031-273-8972,경기도 수원시 영통구 덕영대로 1467031-273-8972,경기도 수원시 영통구 덕영대로 1467031-273-8972,경기도 수원시 영통구 덕영대로 1467,경기도수원시영통구덕영대로1467,127.051351463802,37.2458757286622
759,수원광교  ,경기도 수원시 영통구 센트럴타운로 85 (이의동) 광교C1호반베르디움031-215-8909,경기도 수원시 영통구 센트럴타운로 85 ,경기도 수원시 영통구 센트럴타운로 85 ,경기도 수원시 영통구 센트럴타운로 85 ,경기도수원시영통구센트럴타운로85,127.051753675428,37.2906190572964
760,수원트레이더스  ,경기도 수원시 영통구 삼성로 2 트레이더스수원점 (신동)031-204-7803,경기도 수원시 영통구 삼성로 2 트레이더스수원점 ,경기도 수원시 영통구 삼성로 2 트레이더스수원점 ,경기도 수원시 영통구 삼성로 2 트레이더스수원점 ,경기도수원시영통구삼성로2트레이더스수원점,127.048594901169,37.2460725739181
761,경희대국제캠퍼스  ,경기도 수원시 영통구 덕영대로 1695 (영통동)031-206-8747,경기도 수원시 영통구 덕영대로 1695 ,경기도 수원시 영통구 덕영대로 1695 ,경기도 수원시 영통구 덕영대로 1695 ,경기도수원시영통구덕영대로1695,127.076757091838,37.2479703662172
762,수원망포역  ,경기도 수원시 영통구 영통로 195 (망포동)031-205-6575,경기도 수원시 영통구 영통로 195 ,경기도 수원시 영통구 영통로 195 ,경기도 수원시 영통구 영통로 195 ,경기도수원시영통구영통로195,127.055800124549,37.245181477442
764,수원영통  ,"경기도 수원시 영통구 봉영로 1617, 훼미리타워 1층 (영통동)031-201-1880","경기도 수원시 영통구 봉영로 1617, 훼미리타워 1층 ","경기도 수원시 영통구 봉영로 1617, 훼미리타워 1층 ","경기도 수원시 영통구 봉영로 1617, 훼미리타워 1층 ","경기도수원시영통구봉영로1617,훼미리타워1층",127.074316380183,37.2555311058677
765,안산한양대  ,"경기도 안산시 상록구 성안길 82-3, B동 1층 (사동)031-415-8654","경기도 안산시 상록구 성안길 82-3, B동 1층 ","경기도 안산시 상록구 성안길 82-3, B동 1층 ","경기도 안산시 상록구 성안길 82-3, B동 1층 ","경기도안산시상록구성안길82-3,B동1층",126.83818363489,37.3008217430521
766,안산한대앞역  ,"경기도 안산시 상록구 광덕1로 379, 한남빌딩 1~2층 (이동)031-419-8664","경기도 안산시 상록구 광덕1로 379, 한남빌딩 1~2층 ","경기도 안산시 상록구 광덕1로 379, 한남빌딩 1~2층 ","경기도 안산시 상록구 광덕1로 379, 한남빌딩 1~2층 ","경기도안산시상록구광덕1로379,한남빌딩1~2층",126.851248852621,37.308648304364
767,경기양평  ,경기도 양평군 양평읍 시민로 75 031-775-3492,경기도 양평군 양평읍 시민로 75 031-775-3492,경기도 양평군 양평읍 시민로 75 031-775-3492,경기도 양평군 양평읍 시민로 75 ,경기도양평군양평읍시민로75,127.49993919726,37.4910510280402
769,죽전단국대  ,경기도 용인시 수지구 죽전로168번길 18 (죽전동)031-898-3610,경기도 용인시 수지구 죽전로168번길 18 ,경기도 용인시 수지구 죽전로168번길 18 ,경기도 용인시 수지구 죽전로168번길 18 ,경기도용인시수지구죽전로168번길18,127.124890510618,37.324414189917
771,죽전  ,경기도 용인시 수지구 현암로 140 (죽전동)031-266-8797,경기도 용인시 수지구 현암로 140 ,경기도 용인시 수지구 현암로 140 ,경기도 용인시 수지구 현암로 140 ,경기도용인시수지구현암로140,127.1247691952,37.3315032203238
772,수지성복DT  ,경기도 용인시 수지구 성복2로 55 (성복동)031-263-9808,경기도 용인시 수지구 성복2로 55 ,경기도 용인시 수지구 성복2로 55 ,경기도 용인시 수지구 성복2로 55 ,경기도용인시수지구성복2로55,127.079202510028,37.3140715138118
773,광교중앙로  ,경기도 용인시 수지구 광교마을로 41 (상현동)031-213-8641,경기도 용인시 수지구 광교마을로 41 ,경기도 용인시 수지구 광교마을로 41 ,경기도 용인시 수지구 광교마을로 41 ,경기도용인시수지구광교마을로41,127.069178699532,37.299023976352
774,죽전CGV  ,"경기도 용인시 수지구 포은대로 536, (주)신세계백화점경기점 8층 (죽전동)031-695-1910","경기도 용인시 수지구 포은대로 536, ","경기도 용인시 수지구 포은대로 536, ","경기도 용인시 수지구 포은대로 536, ","경기도용인시수지구포은대로536,",127.106883181143,37.3247354883401
775,죽전이마트  ,"경기도 용인시 수지구 포은대로 552, 이마트 죽전점 1층 (죽전동)031-898-1833","경기도 용인시 수지구 포은대로 552, 이마트 죽전점 1층 ","경기도 용인시 수지구 포은대로 552, 이마트 죽전점 1층 ","경기도 용인시 수지구 포은대로 552, 이마트 죽전점 1층 ","경기도용인시수지구포은대로552,이마트죽전점1층",127.109974161593,37.3253338728575
776,신세계경기  ,"경기도 용인시 수지구 포은대로 536, (주)신세계백화점경기점 4층 (죽전동)031-695-1791","경기도 용인시 수지구 포은대로 536, ","경기도 용인시 수지구 포은대로 536, ","경기도 용인시 수지구 포은대로 536, ","경기도용인시수지구포은대로536,",127.106883181143,37.3247354883401
777,수지이마트  ,경기도 용인시 수지구 수지로 203 (신봉동)031-272-8362,경기도 용인시 수지구 수지로 203 ,경기도 용인시 수지구 수지로 203 ,경기도 용인시 수지구 수지로 203 ,경기도용인시수지구수지로203,127.083327817335,37.3197389875436
778,수지풍덕천  ,"경기도 용인시 수지구 수지로296번길 51-11, 비즈마루빌딩 1층 101호 (풍덕천동)031-276-7494","경기도 용인시 수지구 수지로296번길 51-11, 비즈마루빌딩 1층 101호 ","경기도 용인시 수지구 수지로296번길 51-11, 비즈마루빌딩 1층 101호 ","경기도 용인시 수지구 수지로296번길 51-11, 비즈마루빌딩 1층 101호 ","경기도용인시수지구수지로296번길51-11,비즈마루빌딩1층101호",127.09528108622,37.3221758229792
779,파주P.아울렛1F  ,경기도 파주시 필승로 200 031-8071-7484,경기도 파주시 필승로 200 031-8071-7484,경기도 파주시 필승로 200 031-8071-7484,경기도 파주시 필승로 200 ,경기도파주시필승로200,126.696502439982,37.7692444444306
780,파주야당역  ,경기도 파주시 야당동 1066-3031-948-3558,경기도 파주시 야당동 1066-3031-948-3558,경기도 파주시 야당동 1066-3031-948-3558,경기도 파주시 야당동 1066-3,경기도파주시야당동1066-3,126.759603441863,37.7122806662823
781,파주금촌역  ,경기도 파주시 문화로 109 (금촌동)031-947-3625,경기도 파주시 문화로 109 ,경기도 파주시 문화로 109 ,경기도 파주시 문화로 109 ,경기도파주시문화로109,126.774242496711,37.7638948938269
782,파주금릉역  ,"경기도 파주시 금릉역로 84, 청원센트럴타워 1층 (금촌동)031-947-8692","경기도 파주시 금릉역로 84, 청원센트럴타워 1층 ","경기도 파주시 금릉역로 84, 청원센트럴타워 1층 ","경기도 파주시 금릉역로 84, 청원센트럴타워 1층 ","경기도파주시금릉역로84,청원센트럴타워1층",126.765957050325,37.7521547764693
783,파주운정  ,경기도 파주시 와석순환로 135031-945-2751,경기도 파주시 와석순환로 135031-945-2751,경기도 파주시 와석순환로 135031-945-2751,경기도 파주시 와석순환로 135,경기도파주시와석순환로135,126.744481882366,37.7120380699892
784,파주P.아울렛  ,경기도 파주시 탄현면 필승로 200031-8071-7389,경기도 파주시 탄현면 필승로 200031-8071-7389,경기도 파주시 탄현면 필승로 200031-8071-7389,경기도 파주시 탄현면 필승로 200,경기도파주시탄현면필승로200,126.696502439982,37.7692444444306
785,지행역  ,경기도 동두천시 지행로 55 (지행동)031-859-3732,경기도 동두천시 지행로 55 ,경기도 동두천시 지행로 55 ,경기도 동두천시 지행로 55 ,경기도동두천시지행로55,127.053469114291,37.8926917409605
786,동두천DT  ,경기도 동두천시 평화로 2254 (지행동)031-868-3251,경기도 동두천시 평화로 2254 ,경기도 동두천시 평화로 2254 ,경기도 동두천시 평화로 2254 ,경기도동두천시평화로2254,127.057001574196,37.8890717668837
